{"type": "FeatureCollection", "name": "flood_pass-20260913-00", "features": [{"type": "Feature", "geometry": {"type": "Polygon", "coordinates": [[[77.29475000000001, 28.571749999999998], [77.29475000000001, 28.569999999999997], [77.2955, 28.569999999999997], [77.2955, 28.569], [77.296, 28.569], [77.296, 28.567749999999997], [77.2955, 28.567749999999997], [77.2955, 28.5655], [77.29625, 28.5655], [77.29625, 28.564249999999998], [77.29675, 28.564249999999998], [77.29675, 28.56375], [77.29700000000001, 28.56375], [77.29700000000001, 28.56225], [77.2975, 28.56225], [77.2975, 28.56175], [77.29875000000001, 28.56175], [77.29875000000001, 28.5615], [77.299, 28.5615], [77.299, 28.561249999999998], [77.29925, 28.561249999999998], [77.29925, 28.56], [77.299, 28.56], [77.299, 28.5595], [77.2975, 28.5595], [77.2975, 28.557], [77.299, 28.557], [77.299, 28.55725], [77.3005, 28.55725], [77.3005, 28.5555], [77.3015, 28.5555], [77.3015, 28.553749999999997], [77.301, 28.553749999999997], [77.301, 28.552249999999997], [77.30125000000001, 28.552249999999997], [77.30125000000001, 28.552], [77.30225, 28.552], [77.30225, 28.551], [77.3035, 28.551], [77.3035, 28.5535], [77.30375000000001, 28.5535], [77.30375000000001, 28.55575], [77.3035, 28.55575], [77.3035, 28.556749999999997], [77.30300000000001, 28.556749999999997], [77.30300000000001, 28.55875], [77.30275, 28.55875], [77.30275, 28.558999999999997], [77.30250000000001, 28.558999999999997], [77.30250000000001, 28.55925], [77.30225, 28.55925], [77.30225, 28.560499999999998], [77.3015, 28.560499999999998], [77.3015, 28.561999999999998], [77.30125000000001, 28.561999999999998], [77.30125000000001, 28.56375], [77.301, 28.56375], [77.301, 28.564999999999998], [77.30125000000001, 28.564999999999998], [77.30125000000001, 28.56525], [77.30175000000001, 28.56525], [77.30175000000001, 28.565749999999998], [77.302, 28.565749999999998], [77.302, 28.567], [77.3015, 28.567], [77.3015, 28.567249999999998], [77.30075000000001, 28.567249999999998], [77.30075000000001, 28.567749999999997], [77.3005, 28.567749999999997], [77.3005, 28.56825], [77.29775000000001, 28.56825], [77.29775000000001, 28.569999999999997], [77.29725, 28.569999999999997], [77.29725, 28.57125], [77.29625, 28.57125], [77.29625, 28.571749999999998], [77.29475000000001, 28.571749999999998]]]}, "properties": {"area_km2": 0.7943, "area_ha": 79.43}}, {"type": "Feature", "geometry": {"type": "Polygon", "coordinates": [[[77.31125, 28.5645], [77.31125, 28.561999999999998], [77.31175, 28.561999999999998], [77.31175, 28.561], [77.31225, 28.561], [77.31225, 28.560499999999998], [77.313, 28.560499999999998], [77.313, 28.56], [77.31375000000001, 28.56], [77.31375000000001, 28.559749999999998], [77.31400000000001, 28.559749999999998], [77.31400000000001, 28.55925], [77.31425, 28.55925], [77.31425, 28.558999999999997], [77.31450000000001, 28.558999999999997], [77.31450000000001, 28.5585], [77.31475, 28.5585], [77.31475, 28.558], [77.31500000000001, 28.558], [77.31500000000001, 28.557], [77.3155, 28.557], [77.3155, 28.5555], [77.316, 28.5555], [77.316, 28.55425], [77.31575000000001, 28.55425], [77.31575000000001, 28.554], [77.3155, 28.554], [77.3155, 28.5535], [77.31450000000001, 28.5535], [77.31450000000001, 28.552], [77.31475, 28.552], [77.31475, 28.55025], [77.3155, 28.55025], [77.3155, 28.549999999999997], [77.31625000000001, 28.549999999999997], [77.31625000000001, 28.550749999999997], [77.31750000000001, 28.550749999999997], [77.31750000000001, 28.551], [77.31775, 28.551], [77.31775, 28.55125], [77.31800000000001, 28.55125], [77.31800000000001, 28.55175], [77.31825, 28.55175], [77.31825, 28.55625], [77.31700000000001, 28.55625], [77.31700000000001, 28.558], [77.31675000000001, 28.558], [77.31675000000001, 28.5585], [77.3165, 28.5585], [77.3165, 28.55875], [77.31575000000001, 28.55875], [77.31575000000001, 28.5595], [77.3155, 28.5595], [77.3155, 28.56], [77.31475, 28.56], [77.31475, 28.56075], [77.31450000000001, 28.56075], [77.31450000000001, 28.561249999999998], [77.31425, 28.561249999999998], [77.31425, 28.561999999999998], [77.31375000000001, 28.561999999999998], [77.31375000000001, 28.56225], [77.3135, 28.56225], [77.3135, 28.5625], [77.31325000000001, 28.5625], [77.31325000000001, 28.563], [77.31275000000001, 28.563], [77.31275000000001, 28.563499999999998], [77.31200000000001, 28.563499999999998], [77.31200000000001, 28.5645], [77.31125, 28.5645]]]}, "properties": {"area_km2": 0.3497, "area_ha": 34.97}}, {"type": "Feature", "geometry": {"type": "Polygon", "coordinates": [[[77.28075000000001, 28.59075], [77.28075000000001, 28.590249999999997], [77.28, 28.590249999999997], [77.28, 28.589], [77.281, 28.589], [77.281, 28.586], [77.28075000000001, 28.586], [77.28075000000001, 28.58525], [77.28175, 28.58525], [77.28175, 28.584999999999997], [77.28200000000001, 28.584999999999997], [77.28200000000001, 28.584], [77.28375000000001, 28.584], [77.28375000000001, 28.585749999999997], [77.28500000000001, 28.585749999999997], [77.28500000000001, 28.584249999999997], [77.28450000000001, 28.584249999999997], [77.28450000000001, 28.582749999999997], [77.28525, 28.582749999999997], [77.28525, 28.583], [77.2865, 28.583], [77.2865, 28.58175], [77.28725, 28.58175], [77.28725, 28.583], [77.287, 28.583], [77.287, 28.58475], [77.28725, 28.58475], [77.28725, 28.5855], [77.28675000000001, 28.5855], [77.28675000000001, 28.58625], [77.286, 28.58625], [77.286, 28.58675], [77.28475, 28.58675], [77.28475, 28.58775], [77.28200000000001, 28.58775], [77.28200000000001, 28.58975], [77.28225, 28.58975], [77.28225, 28.59075], [77.28075000000001, 28.59075]]]}, "properties": {"area_km2": 0.2704, "area_ha": 27.04}}, {"type": "Feature", "geometry": {"type": "Polygon", "coordinates": [[[77.372, 28.473999999999997], [77.372, 28.47225], [77.37425, 28.47225], [77.37425, 28.471249999999998], [77.37525000000001, 28.471249999999998], [77.37525000000001, 28.47025], [77.37650000000001, 28.47025], [77.37650000000001, 28.47], [77.37700000000001, 28.47], [77.37700000000001, 28.4695], [77.37725, 28.4695], [77.37725, 28.46925], [77.37875000000001, 28.46925], [77.37875000000001, 28.46875], [77.38025, 28.46875], [77.38025, 28.468249999999998], [77.38125000000001, 28.468249999999998], [77.38125000000001, 28.46775], [77.382, 28.46775], [77.382, 28.468], [77.38225000000001, 28.468], [77.38225000000001, 28.468999999999998], [77.38050000000001, 28.468999999999998], [77.38050000000001, 28.469749999999998], [77.38000000000001, 28.469749999999998], [77.38000000000001, 28.470499999999998], [77.37975, 28.470499999999998], [77.37975, 28.47075], [77.379, 28.47075], [77.379, 28.471], [77.37875000000001, 28.471], [77.37875000000001, 28.471249999999998], [77.37750000000001, 28.471249999999998], [77.37750000000001, 28.47175], [77.37725, 28.47175], [77.37725, 28.471999999999998], [77.37575000000001, 28.471999999999998], [77.37575000000001, 28.4725], [77.37525000000001, 28.4725], [77.37525000000001, 28.472749999999998], [77.37425, 28.472749999999998], [77.37425, 28.47325], [77.3735, 28.47325], [77.3735, 28.47375], [77.373, 28.47375], [77.373, 28.473999999999997], [77.372, 28.473999999999997]]]}, "properties": {"area_km2": 0.1825, "area_ha": 18.25}}, {"type": "Feature", "geometry": {"type": "Polygon", "coordinates": [[[77.04125, 28.71925], [77.04125, 28.717499999999998], [77.04225000000001, 28.717499999999998], [77.04225000000001, 28.715249999999997], [77.04050000000001, 28.715249999999997], [77.04050000000001, 28.714499999999997], [77.04075, 28.714499999999997], [77.04075, 28.714], [77.042, 28.714], [77.042, 28.713749999999997], [77.04375, 28.713749999999997], [77.04375, 28.7165], [77.0445, 28.7165], [77.0445, 28.717], [77.045, 28.717], [77.045, 28.718], [77.04625, 28.718], [77.04625, 28.71875], [77.04425, 28.71875], [77.04425, 28.71925], [77.04125, 28.71925]]]}, "properties": {"area_km2": 0.1719, "area_ha": 17.19}}, {"type": "Feature", "geometry": {"type": "Polygon", "coordinates": [[[77.3185, 28.542749999999998], [77.3185, 28.54075], [77.31875000000001, 28.54075], [77.31875000000001, 28.540249999999997], [77.319, 28.540249999999997], [77.319, 28.54], [77.32000000000001, 28.54], [77.32000000000001, 28.539749999999998], [77.32050000000001, 28.539749999999998], [77.32050000000001, 28.538749999999997], [77.3215, 28.538749999999997], [77.3215, 28.538249999999998], [77.32225000000001, 28.538249999999998], [77.32225000000001, 28.53775], [77.3225, 28.53775], [77.3225, 28.537499999999998], [77.32275, 28.537499999999998], [77.32275, 28.537249999999997], [77.32325, 28.537249999999997], [77.32325, 28.536749999999998], [77.32350000000001, 28.536749999999998], [77.32350000000001, 28.536499999999997], [77.32375, 28.536499999999997], [77.32375, 28.535999999999998], [77.32400000000001, 28.535999999999998], [77.32400000000001, 28.53575], [77.32525000000001, 28.53575], [77.32525000000001, 28.53775], [77.32475000000001, 28.53775], [77.32475000000001, 28.538249999999998], [77.3245, 28.538249999999998], [77.3245, 28.5385], [77.32350000000001, 28.5385], [77.32350000000001, 28.539749999999998], [77.32175000000001, 28.539749999999998], [77.32175000000001, 28.54075], [77.32075, 28.54075], [77.32075, 28.54225], [77.3195, 28.54225], [77.3195, 28.542749999999998], [77.3185, 28.542749999999998]]]}, "properties": {"area_km2": 0.1715, "area_ha": 17.15}}, {"type": "Feature", "geometry": {"type": "Polygon", "coordinates": [[[77.343, 28.518749999999997], [77.343, 28.5175], [77.34325000000001, 28.5175], [77.34325000000001, 28.51675], [77.34375, 28.51675], [77.34375, 28.5155], [77.3435, 28.5155], [77.3435, 28.514249999999997], [77.3455, 28.514249999999997], [77.3455, 28.5125], [77.34575000000001, 28.5125], [77.34575000000001, 28.512249999999998], [77.34625000000001, 28.512249999999998], [77.34625000000001, 28.511249999999997], [77.34725, 28.511249999999997], [77.34725, 28.51025], [77.34750000000001, 28.51025], [77.34750000000001, 28.508999999999997], [77.34825000000001, 28.508999999999997], [77.34825000000001, 28.511249999999997], [77.34750000000001, 28.511249999999997], [77.34750000000001, 28.512749999999997], [77.34700000000001, 28.512749999999997], [77.34700000000001, 28.514], [77.34625000000001, 28.514], [77.34625000000001, 28.51475], [77.346, 28.51475], [77.346, 28.515749999999997], [77.3455, 28.515749999999997], [77.3455, 28.517], [77.34475, 28.517], [77.34475, 28.5175], [77.34425, 28.5175], [77.34425, 28.51825], [77.34400000000001, 28.51825], [77.34400000000001, 28.5185], [77.34375, 28.5185], [77.34375, 28.518749999999997], [77.343, 28.518749999999997]]]}, "properties": {"area_km2": 0.1566, "area_ha": 15.66}}, {"type": "Feature", "geometry": {"type": "Polygon", "coordinates": [[[77.37750000000001, 28.45575], [77.37750000000001, 28.4535], [77.37575000000001, 28.4535], [77.37575000000001, 28.45375], [77.37475, 28.45375], [77.37475, 28.452499999999997], [77.3735, 28.452499999999997], [77.3735, 28.451749999999997], [77.37400000000001, 28.451749999999997], [77.37400000000001, 28.4515], [77.375, 28.4515], [77.375, 28.451749999999997], [77.37575000000001, 28.451749999999997], [77.37575000000001, 28.45225], [77.37650000000001, 28.45225], [77.37650000000001, 28.452499999999997], [77.37825000000001, 28.452499999999997], [77.37825000000001, 28.452749999999998], [77.381, 28.452749999999998], [77.381, 28.453], [77.38125000000001, 28.453], [77.38125000000001, 28.453249999999997], [77.38250000000001, 28.453249999999997], [77.38250000000001, 28.453999999999997], [77.38225000000001, 28.453999999999997], [77.38225000000001, 28.45425], [77.38000000000001, 28.45425], [77.38000000000001, 28.453999999999997], [77.37825000000001, 28.453999999999997], [77.37825000000001, 28.45575], [77.37750000000001, 28.45575]]]}, "properties": {"area_km2": 0.1384, "area_ha": 13.84}}, {"type": "Feature", "geometry": {"type": "Polygon", "coordinates": [[[77.10775000000001, 28.56675], [77.10775000000001, 28.566], [77.1085, 28.566], [77.1085, 28.564249999999998], [77.11200000000001, 28.564249999999998], [77.11200000000001, 28.56475], [77.11325000000001, 28.56475], [77.11325000000001, 28.565749999999998], [77.1135, 28.565749999999998], [77.1135, 28.566499999999998], [77.11325000000001, 28.566499999999998], [77.11325000000001, 28.56675], [77.11200000000001, 28.56675], [77.11200000000001, 28.566499999999998], [77.1105, 28.566499999999998], [77.1105, 28.56675], [77.10775000000001, 28.56675]]]}, "properties": {"area_km2": 0.1261, "area_ha": 12.61}}, {"type": "Feature", "geometry": {"type": "Polygon", "coordinates": [[[77.35125000000001, 28.5045], [77.35125000000001, 28.502499999999998], [77.35275, 28.502499999999998], [77.35275, 28.500999999999998], [77.3525, 28.500999999999998], [77.3525, 28.499], [77.35275, 28.499], [77.35275, 28.4975], [77.35350000000001, 28.4975], [77.35350000000001, 28.49775], [77.35475000000001, 28.49775], [77.35475000000001, 28.49975], [77.3545, 28.49975], [77.3545, 28.5005], [77.354, 28.5005], [77.354, 28.50075], [77.35375, 28.50075], [77.35375, 28.50225], [77.35350000000001, 28.50225], [77.35350000000001, 28.502499999999998], [77.35325, 28.502499999999998], [77.35325, 28.5035], [77.3525, 28.5035], [77.3525, 28.5045], [77.35125000000001, 28.5045]]]}, "properties": {"area_km2": 0.1221, "area_ha": 12.21}}, {"type": "Feature", "geometry": {"type": "Polygon", "coordinates": [[[77.25550000000001, 28.660249999999998], [77.25550000000001, 28.659499999999998], [77.25425000000001, 28.659499999999998], [77.25425000000001, 28.658749999999998], [77.25450000000001, 28.658749999999998], [77.25450000000001, 28.6585], [77.25500000000001, 28.6585], [77.25500000000001, 28.65825], [77.25575, 28.65825], [77.25575, 28.657999999999998], [77.25625000000001, 28.657999999999998], [77.25625000000001, 28.65775], [77.2565, 28.65775], [77.2565, 28.6575], [77.25675000000001, 28.6575], [77.25675000000001, 28.657249999999998], [77.257, 28.657249999999998], [77.257, 28.657], [77.25750000000001, 28.657], [77.25750000000001, 28.65675], [77.25775, 28.65675], [77.25775, 28.656499999999998], [77.25825, 28.656499999999998], [77.25825, 28.65625], [77.259, 28.65625], [77.259, 28.65775], [77.25925000000001, 28.65775], [77.25925000000001, 28.65925], [77.25825, 28.65925], [77.25825, 28.659499999999998], [77.257, 28.659499999999998], [77.257, 28.660249999999998], [77.25550000000001, 28.660249999999998]]]}, "properties": {"area_km2": 0.1199, "area_ha": 11.99}}, {"type": "Feature", "geometry": {"type": "Polygon", "coordinates": [[[77.384, 28.468249999999998], [77.384, 28.466749999999998], [77.385, 28.466749999999998], [77.385, 28.465999999999998], [77.38525, 28.465999999999998], [77.38525, 28.46575], [77.387, 28.46575], [77.387, 28.465249999999997], [77.38950000000001, 28.465249999999997], [77.38950000000001, 28.46625], [77.38775000000001, 28.46625], [77.38775000000001, 28.467], [77.3875, 28.467], [77.3875, 28.46725], [77.387, 28.46725], [77.387, 28.468], [77.385, 28.468], [77.385, 28.468249999999998], [77.384, 28.468249999999998]]]}, "properties": {"area_km2": 0.099, "area_ha": 9.9}}, {"type": "Feature", "geometry": {"type": "Polygon", "coordinates": [[[77.26475, 28.59725], [77.26475, 28.596249999999998], [77.26575000000001, 28.596249999999998], [77.26575000000001, 28.595499999999998], [77.266, 28.595499999999998], [77.266, 28.5945], [77.26650000000001, 28.5945], [77.26650000000001, 28.59375], [77.26725, 28.59375], [77.26725, 28.593249999999998], [77.26775, 28.593249999999998], [77.26775, 28.592499999999998], [77.2685, 28.592499999999998], [77.2685, 28.593], [77.269, 28.593], [77.269, 28.595], [77.26750000000001, 28.595], [77.26750000000001, 28.595499999999998], [77.26725, 28.595499999999998], [77.26725, 28.596249999999998], [77.26700000000001, 28.596249999999998], [77.26700000000001, 28.59675], [77.26625, 28.59675], [77.26625, 28.596999999999998], [77.2655, 28.596999999999998], [77.2655, 28.59725], [77.26475, 28.59725]]]}, "properties": {"area_km2": 0.0921, "area_ha": 9.21}}, {"type": "Feature", "geometry": {"type": "Polygon", "coordinates": [[[77.35475000000001, 28.494999999999997], [77.35475000000001, 28.49375], [77.35525000000001, 28.49375], [77.35525000000001, 28.493], [77.35600000000001, 28.493], [77.35600000000001, 28.492749999999997], [77.35675, 28.492749999999997], [77.35675, 28.491], [77.35650000000001, 28.491], [77.35650000000001, 28.49], [77.35675, 28.49], [77.35675, 28.488999999999997], [77.358, 28.488999999999997], [77.358, 28.4915], [77.35775000000001, 28.4915], [77.35775000000001, 28.492749999999997], [77.35725000000001, 28.492749999999997], [77.35725000000001, 28.494249999999997], [77.35575, 28.494249999999997], [77.35575, 28.4945], [77.3555, 28.4945], [77.3555, 28.494999999999997], [77.35475000000001, 28.494999999999997]]]}, "properties": {"area_km2": 0.0902, "area_ha": 9.02}}, {"type": "Feature", "geometry": {"type": "Polygon", "coordinates": [[[77.31150000000001, 28.5535], [77.31150000000001, 28.5525], [77.31125, 28.5525], [77.31125, 28.551499999999997], [77.31150000000001, 28.551499999999997], [77.31150000000001, 28.549999999999997], [77.31125, 28.549999999999997], [77.31125, 28.548499999999997], [77.311, 28.548499999999997], [77.311, 28.54725], [77.31125, 28.54725], [77.31125, 28.54675], [77.31225, 28.54675], [77.31225, 28.547749999999997], [77.313, 28.547749999999997], [77.313, 28.548], [77.31325000000001, 28.548], [77.31325000000001, 28.54875], [77.313, 28.54875], [77.313, 28.549], [77.3125, 28.549], [77.3125, 28.551499999999997], [77.31225, 28.551499999999997], [77.31225, 28.5535], [77.31150000000001, 28.5535]]]}, "properties": {"area_km2": 0.0888, "area_ha": 8.88}}, {"type": "Feature", "geometry": {"type": "Polygon", "coordinates": [[[77.32825000000001, 28.488], [77.32825000000001, 28.48775], [77.32725, 28.48775], [77.32725, 28.487499999999997], [77.32575, 28.487499999999997], [77.32575, 28.48725], [77.32400000000001, 28.48725], [77.32400000000001, 28.48625], [77.32625, 28.48625], [77.32625, 28.4855], [77.328, 28.4855], [77.328, 28.48625], [77.32875, 28.48625], [77.32875, 28.4865], [77.32925, 28.4865], [77.32925, 28.487499999999997], [77.32900000000001, 28.487499999999997], [77.32900000000001, 28.488], [77.32825000000001, 28.488]]]}, "properties": {"area_km2": 0.0861, "area_ha": 8.61}}, {"type": "Feature", "geometry": {"type": "Polygon", "coordinates": [[[77.23, 28.7395], [77.23, 28.738], [77.23025000000001, 28.738], [77.23025000000001, 28.737], [77.23075, 28.737], [77.23075, 28.736749999999997], [77.23125, 28.736749999999997], [77.23125, 28.73625], [77.23175, 28.73625], [77.23175, 28.73575], [77.232, 28.73575], [77.232, 28.735249999999997], [77.233, 28.735249999999997], [77.233, 28.73625], [77.23325000000001, 28.73625], [77.23325000000001, 28.73725], [77.23175, 28.73725], [77.23175, 28.738999999999997], [77.23125, 28.738999999999997], [77.23125, 28.73925], [77.23100000000001, 28.73925], [77.23100000000001, 28.7395], [77.23, 28.7395]]]}, "properties": {"area_km2": 0.0751, "area_ha": 7.51}}, {"type": "Feature", "geometry": {"type": "Polygon", "coordinates": [[[77.22975000000001, 28.697499999999998], [77.22975000000001, 28.695999999999998], [77.23025000000001, 28.695999999999998], [77.23025000000001, 28.69275], [77.23, 28.69275], [77.23, 28.691], [77.23075, 28.691], [77.23075, 28.69175], [77.23100000000001, 28.69175], [77.23100000000001, 28.694249999999997], [77.23125, 28.694249999999997], [77.23125, 28.696499999999997], [77.23150000000001, 28.696499999999997], [77.23150000000001, 28.697499999999998], [77.22975000000001, 28.697499999999998]]]}, "properties": {"area_km2": 0.0751, "area_ha": 7.51}}, {"type": "Feature", "geometry": {"type": "Polygon", "coordinates": [[[77.33925, 28.523], [77.33925, 28.52075], [77.34025000000001, 28.52075], [77.34025000000001, 28.51975], [77.3405, 28.51975], [77.3405, 28.519499999999997], [77.34125, 28.519499999999997], [77.34125, 28.518749999999997], [77.343, 28.518749999999997], [77.343, 28.519499999999997], [77.34275000000001, 28.519499999999997], [77.34275000000001, 28.52], [77.34200000000001, 28.52], [77.34200000000001, 28.5205], [77.34150000000001, 28.5205], [77.34150000000001, 28.52125], [77.34125, 28.52125], [77.34125, 28.5215], [77.3405, 28.5215], [77.3405, 28.522], [77.34, 28.522], [77.34, 28.523], [77.33925, 28.523]]]}, "properties": {"area_km2": 0.0725, "area_ha": 7.25}}, {"type": "Feature", "geometry": {"type": "Polygon", "coordinates": [[[77.25725000000001, 28.633], [77.25725000000001, 28.632499999999997], [77.257, 28.632499999999997], [77.257, 28.63225], [77.25675000000001, 28.63225], [77.25675000000001, 28.631749999999997], [77.2565, 28.631749999999997], [77.2565, 28.63075], [77.25625000000001, 28.63075], [77.25625000000001, 28.630499999999998], [77.256, 28.630499999999998], [77.256, 28.63], [77.25525, 28.63], [77.25525, 28.629749999999998], [77.25475, 28.629749999999998], [77.25475, 28.628999999999998], [77.25725000000001, 28.628999999999998], [77.25725000000001, 28.630499999999998], [77.25775, 28.630499999999998], [77.25775, 28.630999999999997], [77.25825, 28.630999999999997], [77.25825, 28.631749999999997], [77.25800000000001, 28.631749999999997], [77.25800000000001, 28.633], [77.25725000000001, 28.633]]]}, "properties": {"area_km2": 0.0677, "area_ha": 6.77}}, {"type": "Feature", "geometry": {"type": "Polygon", "coordinates": [[[77.305, 28.551499999999997], [77.305, 28.55025], [77.30575, 28.55025], [77.30575, 28.54975], [77.30600000000001, 28.54975], [77.30600000000001, 28.5495], [77.30625, 28.5495], [77.30625, 28.549], [77.3065, 28.549], [77.3065, 28.54875], [77.308, 28.54875], [77.308, 28.548499999999997], [77.30900000000001, 28.548499999999997], [77.30900000000001, 28.54975], [77.30725000000001, 28.54975], [77.30725000000001, 28.550749999999997], [77.30675000000001, 28.550749999999997], [77.30675000000001, 28.55125], [77.3065, 28.55125], [77.3065, 28.551499999999997], [77.305, 28.551499999999997]]]}, "properties": {"area_km2": 0.0664, "area_ha": 6.64}}, {"type": "Feature", "geometry": {"type": "Polygon", "coordinates": [[[77.241, 28.726999999999997], [77.241, 28.72525], [77.24125000000001, 28.72525], [77.24125000000001, 28.724], [77.241, 28.724], [77.241, 28.72375], [77.24050000000001, 28.72375], [77.24050000000001, 28.72325], [77.23975, 28.72325], [77.23975, 28.7225], [77.24050000000001, 28.7225], [77.24050000000001, 28.721999999999998], [77.242, 28.721999999999998], [77.242, 28.722749999999998], [77.24175000000001, 28.722749999999998], [77.24175000000001, 28.724], [77.242, 28.724], [77.242, 28.726], [77.24225000000001, 28.726], [77.24225000000001, 28.726999999999997], [77.241, 28.726999999999997]]]}, "properties": {"area_km2": 0.0656, "area_ha": 6.56}}, {"type": "Feature", "geometry": {"type": "Polygon", "coordinates": [[[77.05550000000001, 28.715249999999997], [77.05550000000001, 28.71475], [77.05525, 28.71475], [77.05525, 28.71425], [77.055, 28.71425], [77.055, 28.713749999999997], [77.0535, 28.713749999999997], [77.0535, 28.712999999999997], [77.05475000000001, 28.712999999999997], [77.05475000000001, 28.71175], [77.05600000000001, 28.71175], [77.05600000000001, 28.712249999999997], [77.05625, 28.712249999999997], [77.05625, 28.7125], [77.0565, 28.7125], [77.0565, 28.715], [77.05625, 28.715], [77.05625, 28.715249999999997], [77.05550000000001, 28.715249999999997]]]}, "properties": {"area_km2": 0.0643, "area_ha": 6.43}}, {"type": "Feature", "geometry": {"type": "Polygon", "coordinates": [[[77.328, 28.534499999999998], [77.328, 28.534], [77.32775000000001, 28.534], [77.32775000000001, 28.532999999999998], [77.32900000000001, 28.532999999999998], [77.32900000000001, 28.532249999999998], [77.33000000000001, 28.532249999999998], [77.33000000000001, 28.531499999999998], [77.33025, 28.531499999999998], [77.33025, 28.53125], [77.331, 28.53125], [77.331, 28.53275], [77.3305, 28.53275], [77.3305, 28.532999999999998], [77.33025, 28.532999999999998], [77.33025, 28.533749999999998], [77.33000000000001, 28.533749999999998], [77.33000000000001, 28.534], [77.32975, 28.534], [77.32975, 28.53425], [77.32875, 28.53425], [77.32875, 28.534499999999998], [77.328, 28.534499999999998]]]}, "properties": {"area_km2": 0.0583, "area_ha": 5.83}}, {"type": "Feature", "geometry": {"type": "Polygon", "coordinates": [[[77.23475, 28.71475], [77.23475, 28.714], [77.23175, 28.714], [77.23175, 28.71325], [77.2325, 28.71325], [77.2325, 28.712999999999997], [77.23275000000001, 28.712999999999997], [77.23275000000001, 28.71275], [77.233, 28.71275], [77.233, 28.712249999999997], [77.23375, 28.712249999999997], [77.23375, 28.71325], [77.235, 28.71325], [77.235, 28.712999999999997], [77.23575000000001, 28.712999999999997], [77.23575000000001, 28.713749999999997], [77.23625000000001, 28.713749999999997], [77.23625000000001, 28.71475], [77.23475, 28.71475]]]}, "properties": {"area_km2": 0.0582, "area_ha": 5.82}}, {"type": "Feature", "geometry": {"type": "Polygon", "coordinates": [[[77.25475, 28.62775], [77.25475, 28.627499999999998], [77.25450000000001, 28.627499999999998], [77.25450000000001, 28.624499999999998], [77.25525, 28.624499999999998], [77.25525, 28.62575], [77.25675000000001, 28.62575], [77.25675000000001, 28.627499999999998], [77.25625000000001, 28.627499999999998], [77.25625000000001, 28.62775], [77.25475, 28.62775]]]}, "properties": {"area_km2": 0.0569, "area_ha": 5.69}}, {"type": "Feature", "geometry": {"type": "Polygon", "coordinates": [[[77.04775000000001, 28.71925], [77.04775000000001, 28.7165], [77.04925, 28.7165], [77.04925, 28.7185], [77.0505, 28.7185], [77.0505, 28.71925], [77.04775000000001, 28.71925]]]}, "properties": {"area_km2": 0.0548, "area_ha": 5.48}}, {"type": "Feature", "geometry": {"type": "Polygon", "coordinates": [[[77.2305, 28.708499999999997], [77.2305, 28.705], [77.23150000000001, 28.705], [77.23150000000001, 28.7065], [77.232, 28.7065], [77.232, 28.708], [77.23175, 28.708], [77.23175, 28.708499999999997], [77.2305, 28.708499999999997]]]}, "properties": {"area_km2": 0.0474, "area_ha": 4.74}}, {"type": "Feature", "geometry": {"type": "Polygon", "coordinates": [[[77.3315, 28.531499999999998], [77.3315, 28.52975], [77.33200000000001, 28.52975], [77.33200000000001, 28.5295], [77.33275, 28.5295], [77.33275, 28.52875], [77.33325, 28.52875], [77.33325, 28.528499999999998], [77.33425000000001, 28.528499999999998], [77.33425000000001, 28.529249999999998], [77.33375000000001, 28.529249999999998], [77.33375000000001, 28.53025], [77.3335, 28.53025], [77.3335, 28.5305], [77.33250000000001, 28.5305], [77.33250000000001, 28.531], [77.33225, 28.531], [77.33225, 28.531499999999998], [77.3315, 28.531499999999998]]]}, "properties": {"area_km2": 0.0454, "area_ha": 4.54}}, {"type": "Feature", "geometry": {"type": "Polygon", "coordinates": [[[77.2325, 28.710749999999997], [77.2325, 28.7105], [77.23225000000001, 28.7105], [77.23225000000001, 28.71025], [77.23175, 28.71025], [77.23175, 28.709999999999997], [77.23150000000001, 28.709999999999997], [77.23150000000001, 28.709249999999997], [77.233, 28.709249999999997], [77.233, 28.709], [77.23375, 28.709], [77.23375, 28.709249999999997], [77.23400000000001, 28.709249999999997], [77.23400000000001, 28.709999999999997], [77.235, 28.709999999999997], [77.235, 28.710749999999997], [77.2325, 28.710749999999997]]]}, "properties": {"area_km2": 0.0453, "area_ha": 4.53}}, {"type": "Feature", "geometry": {"type": "Polygon", "coordinates": [[[77.33550000000001, 28.5275], [77.33550000000001, 28.52725], [77.3345, 28.52725], [77.3345, 28.5265], [77.33475, 28.5265], [77.33475, 28.526249999999997], [77.33500000000001, 28.526249999999997], [77.33500000000001, 28.526], [77.33525, 28.526], [77.33525, 28.525499999999997], [77.337, 28.525499999999997], [77.337, 28.526249999999997], [77.33675000000001, 28.526249999999997], [77.33675000000001, 28.52675], [77.33625, 28.52675], [77.33625, 28.5275], [77.33550000000001, 28.5275]]]}, "properties": {"area_km2": 0.038, "area_ha": 3.8}}, {"type": "Feature", "geometry": {"type": "Polygon", "coordinates": [[[77.10025, 28.559749999999998], [77.10025, 28.5595], [77.09875000000001, 28.5595], [77.09875000000001, 28.5585], [77.10075, 28.5585], [77.10075, 28.558], [77.1015, 28.558], [77.1015, 28.559749999999998], [77.10025, 28.559749999999998]]]}, "properties": {"area_km2": 0.0373, "area_ha": 3.73}}, {"type": "Feature", "geometry": {"type": "Polygon", "coordinates": [[[77.18375, 28.719749999999998], [77.18375, 28.7185], [77.18275000000001, 28.7185], [77.18275000000001, 28.71775], [77.185, 28.71775], [77.185, 28.718], [77.18525000000001, 28.718], [77.18525000000001, 28.718249999999998], [77.1855, 28.718249999999998], [77.1855, 28.718999999999998], [77.1845, 28.718999999999998], [77.1845, 28.719749999999998], [77.18375, 28.719749999999998]]]}, "properties": {"area_km2": 0.0359, "area_ha": 3.59}}, {"type": "Feature", "geometry": {"type": "Polygon", "coordinates": [[[77.3155, 28.546], [77.3155, 28.544749999999997], [77.31450000000001, 28.544749999999997], [77.31450000000001, 28.543499999999998], [77.31625000000001, 28.543499999999998], [77.31625000000001, 28.546], [77.3155, 28.546]]]}, "properties": {"area_km2": 0.0339, "area_ha": 3.39}}, {"type": "Feature", "geometry": {"type": "Polygon", "coordinates": [[[77.2305, 28.7015], [77.2305, 28.700499999999998], [77.23075, 28.700499999999998], [77.23075, 28.698999999999998], [77.23100000000001, 28.698999999999998], [77.23100000000001, 28.6985], [77.23175, 28.6985], [77.23175, 28.7015], [77.2305, 28.7015]]]}, "properties": {"area_km2": 0.0338, "area_ha": 3.38}}, {"type": "Feature", "geometry": {"type": "Polygon", "coordinates": [[[77.2335, 28.67525], [77.2335, 28.674999999999997], [77.233, 28.674999999999997], [77.233, 28.6745], [77.23275000000001, 28.6745], [77.23275000000001, 28.67375], [77.2335, 28.67375], [77.2335, 28.673499999999997], [77.23375, 28.673499999999997], [77.23375, 28.672749999999997], [77.23450000000001, 28.672749999999997], [77.23450000000001, 28.674249999999997], [77.23425, 28.674249999999997], [77.23425, 28.67525], [77.2335, 28.67525]]]}, "properties": {"area_km2": 0.0311, "area_ha": 3.11}}, {"type": "Feature", "geometry": {"type": "Polygon", "coordinates": [[[77.27725000000001, 28.589499999999997], [77.27725000000001, 28.588749999999997], [77.277, 28.588749999999997], [77.277, 28.587999999999997], [77.27850000000001, 28.587999999999997], [77.27850000000001, 28.58825], [77.27925, 28.58825], [77.27925, 28.589], [77.27875, 28.589], [77.27875, 28.589499999999997], [77.27725000000001, 28.589499999999997]]]}, "properties": {"area_km2": 0.0298, "area_ha": 2.98}}, {"type": "Feature", "geometry": {"type": "Polygon", "coordinates": [[[77.27025, 28.597749999999998], [77.27025, 28.59725], [77.26950000000001, 28.59725], [77.26950000000001, 28.595499999999998], [77.27075, 28.595499999999998], [77.27075, 28.596999999999998], [77.271, 28.596999999999998], [77.271, 28.597749999999998], [77.27025, 28.597749999999998]]]}, "properties": {"area_km2": 0.0285, "area_ha": 2.85}}, {"type": "Feature", "geometry": {"type": "Polygon", "coordinates": [[[77.05325, 28.72225], [77.05325, 28.721], [77.0545, 28.721], [77.0545, 28.721249999999998], [77.05525, 28.721249999999998], [77.05525, 28.72225], [77.05325, 28.72225]]]}, "properties": {"area_km2": 0.025, "area_ha": 2.5}}, {"type": "Feature", "geometry": {"type": "Polygon", "coordinates": [[[77.263, 28.64275], [77.263, 28.6405], [77.26375, 28.6405], [77.26375, 28.640749999999997], [77.26400000000001, 28.640749999999997], [77.26400000000001, 28.64275], [77.263, 28.64275]]]}, "properties": {"area_km2": 0.0237, "area_ha": 2.37}}, {"type": "Feature", "geometry": {"type": "Polygon", "coordinates": [[[77.313, 28.5565], [77.313, 28.55425], [77.31400000000001, 28.55425], [77.31400000000001, 28.555999999999997], [77.31375000000001, 28.555999999999997], [77.31375000000001, 28.5565], [77.313, 28.5565]]]}, "properties": {"area_km2": 0.023, "area_ha": 2.3}}, {"type": "Feature", "geometry": {"type": "Polygon", "coordinates": [[[77.25500000000001, 28.61675], [77.25500000000001, 28.615], [77.25575, 28.615], [77.25575, 28.61525], [77.256, 28.61525], [77.256, 28.616], [77.2565, 28.616], [77.2565, 28.61675], [77.25500000000001, 28.61675]]]}, "properties": {"area_km2": 0.0224, "area_ha": 2.24}}, {"type": "Feature", "geometry": {"type": "Polygon", "coordinates": [[[77.08025, 28.56025], [77.08025, 28.558999999999997], [77.081, 28.558999999999997], [77.081, 28.55875], [77.08175, 28.55875], [77.08175, 28.56025], [77.08025, 28.56025]]]}, "properties": {"area_km2": 0.0224, "area_ha": 2.24}}, {"type": "Feature", "geometry": {"type": "Polygon", "coordinates": [[[77.0815, 28.55475], [77.0815, 28.554499999999997], [77.08125000000001, 28.554499999999997], [77.08125000000001, 28.552999999999997], [77.08275, 28.552999999999997], [77.08275, 28.553749999999997], [77.08225, 28.553749999999997], [77.08225, 28.55475], [77.0815, 28.55475]]]}, "properties": {"area_km2": 0.0224, "area_ha": 2.24}}, {"type": "Feature", "geometry": {"type": "Polygon", "coordinates": [[[77.35350000000001, 28.496499999999997], [77.35350000000001, 28.4955], [77.354, 28.4955], [77.354, 28.49525], [77.35525000000001, 28.49525], [77.35525000000001, 28.496499999999997], [77.35350000000001, 28.496499999999997]]]}, "properties": {"area_km2": 0.0224, "area_ha": 2.24}}, {"type": "Feature", "geometry": {"type": "Polygon", "coordinates": [[[77.23625000000001, 28.716749999999998], [77.23625000000001, 28.715999999999998], [77.23700000000001, 28.715999999999998], [77.23700000000001, 28.71475], [77.23775, 28.71475], [77.23775, 28.716749999999998], [77.23625000000001, 28.716749999999998]]]}, "properties": {"area_km2": 0.0223, "area_ha": 2.23}}, {"type": "Feature", "geometry": {"type": "Polygon", "coordinates": [[[77.2335, 28.73475], [77.2335, 28.733749999999997], [77.23425, 28.733749999999997], [77.23425, 28.7335], [77.23525000000001, 28.7335], [77.23525000000001, 28.73475], [77.2335, 28.73475]]]}, "properties": {"area_km2": 0.0217, "area_ha": 2.17}}, {"type": "Feature", "geometry": {"type": "Polygon", "coordinates": [[[77.32775000000001, 28.485], [77.32775000000001, 28.483999999999998], [77.32975, 28.483999999999998], [77.32975, 28.48475], [77.32950000000001, 28.48475], [77.32950000000001, 28.485], [77.32775000000001, 28.485]]]}, "properties": {"area_km2": 0.021, "area_ha": 2.1}}, {"type": "Feature", "geometry": {"type": "Polygon", "coordinates": [[[77.35875, 28.7125], [77.35875, 28.712249999999997], [77.3575, 28.712249999999997], [77.3575, 28.71125], [77.35825000000001, 28.71125], [77.35825000000001, 28.711499999999997], [77.35950000000001, 28.711499999999997], [77.35950000000001, 28.7125], [77.35875, 28.7125]]]}, "properties": {"area_km2": 0.0203, "area_ha": 2.03}}, {"type": "Feature", "geometry": {"type": "Polygon", "coordinates": [[[77.29375, 28.575249999999997], [77.29375, 28.573249999999998], [77.295, 28.573249999999998], [77.295, 28.573999999999998], [77.2945, 28.573999999999998], [77.2945, 28.575249999999997], [77.29375, 28.575249999999997]]]}, "properties": {"area_km2": 0.0203, "area_ha": 2.03}}, {"type": "Feature", "geometry": {"type": "Polygon", "coordinates": [[[77.3045, 28.57275], [77.3045, 28.572499999999998], [77.304, 28.572499999999998], [77.304, 28.57125], [77.30475000000001, 28.57125], [77.30475000000001, 28.571499999999997], [77.30550000000001, 28.571499999999997], [77.30550000000001, 28.572499999999998], [77.30525, 28.572499999999998], [77.30525, 28.57275], [77.3045, 28.57275]]]}, "properties": {"area_km2": 0.0203, "area_ha": 2.03}}, {"type": "Feature", "geometry": {"type": "Polygon", "coordinates": [[[77.38675, 28.728499999999997], [77.38675, 28.727999999999998], [77.38650000000001, 28.727999999999998], [77.38650000000001, 28.72675], [77.38775000000001, 28.72675], [77.38775000000001, 28.7275], [77.3875, 28.7275], [77.3875, 28.728499999999997], [77.38675, 28.728499999999997]]]}, "properties": {"area_km2": 0.0196, "area_ha": 1.96}}, {"type": "Feature", "geometry": {"type": "Polygon", "coordinates": [[[77.239, 28.71875], [77.239, 28.7185], [77.23825000000001, 28.7185], [77.23825000000001, 28.718], [77.23775, 28.718], [77.23775, 28.71725], [77.2385, 28.71725], [77.2385, 28.71775], [77.23975, 28.71775], [77.23975, 28.71875], [77.239, 28.71875]]]}, "properties": {"area_km2": 0.0196, "area_ha": 1.96}}, {"type": "Feature", "geometry": {"type": "Polygon", "coordinates": [[[77.24000000000001, 28.729], [77.24000000000001, 28.727749999999997], [77.2415, 28.727749999999997], [77.2415, 28.728499999999997], [77.24125000000001, 28.728499999999997], [77.24125000000001, 28.729], [77.24000000000001, 28.729]]]}, "properties": {"area_km2": 0.0189, "area_ha": 1.89}}, {"type": "Feature", "geometry": {"type": "Polygon", "coordinates": [[[77.30900000000001, 28.5295], [77.30900000000001, 28.529249999999998], [77.30825, 28.529249999999998], [77.30825, 28.528499999999998], [77.30900000000001, 28.528499999999998], [77.30900000000001, 28.52875], [77.3105, 28.52875], [77.3105, 28.5295], [77.30900000000001, 28.5295]]]}, "properties": {"area_km2": 0.0183, "area_ha": 1.83}}, {"type": "Feature", "geometry": {"type": "Polygon", "coordinates": [[[77.33725000000001, 28.525], [77.33725000000001, 28.523999999999997], [77.337, 28.523999999999997], [77.337, 28.523249999999997], [77.33725000000001, 28.523249999999997], [77.33725000000001, 28.523], [77.33800000000001, 28.523], [77.33800000000001, 28.525], [77.33725000000001, 28.525]]]}, "properties": {"area_km2": 0.0183, "area_ha": 1.83}}, {"type": "Feature", "geometry": {"type": "Polygon", "coordinates": [[[77.31875000000001, 28.520999999999997], [77.31875000000001, 28.520249999999997], [77.32100000000001, 28.520249999999997], [77.32100000000001, 28.520999999999997], [77.31875000000001, 28.520999999999997]]]}, "properties": {"area_km2": 0.0183, "area_ha": 1.83}}, {"type": "Feature", "geometry": {"type": "Polygon", "coordinates": [[[77.29, 28.580499999999997], [77.29, 28.58], [77.28975000000001, 28.58], [77.28975000000001, 28.57925], [77.29, 28.57925], [77.29, 28.578999999999997], [77.29100000000001, 28.578999999999997], [77.29100000000001, 28.58], [77.29075, 28.58], [77.29075, 28.580499999999997], [77.29, 28.580499999999997]]]}, "properties": {"area_km2": 0.0169, "area_ha": 1.69}}, {"type": "Feature", "geometry": {"type": "Polygon", "coordinates": [[[77.17825, 28.730749999999997], [77.17825, 28.729499999999998], [77.17925000000001, 28.729499999999998], [77.17925000000001, 28.72975], [77.1795, 28.72975], [77.1795, 28.730749999999997], [77.17825, 28.730749999999997]]]}, "properties": {"area_km2": 0.0162, "area_ha": 1.62}}, {"type": "Feature", "geometry": {"type": "Polygon", "coordinates": [[[77.2385, 28.73125], [77.2385, 28.72975], [77.2395, 28.72975], [77.2395, 28.730999999999998], [77.23925000000001, 28.730999999999998], [77.23925000000001, 28.73125], [77.2385, 28.73125]]]}, "properties": {"area_km2": 0.0156, "area_ha": 1.56}}, {"type": "Feature", "geometry": {"type": "Polygon", "coordinates": [[[77.316, 28.521749999999997], [77.316, 28.520999999999997], [77.31625000000001, 28.520999999999997], [77.31625000000001, 28.52075], [77.31750000000001, 28.52075], [77.31750000000001, 28.521749999999997], [77.316, 28.521749999999997]]]}, "properties": {"area_km2": 0.0156, "area_ha": 1.56}}, {"type": "Feature", "geometry": {"type": "Polygon", "coordinates": [[[77.078, 28.726999999999997], [77.078, 28.726], [77.07825000000001, 28.726], [77.07825000000001, 28.725499999999997], [77.07900000000001, 28.725499999999997], [77.07900000000001, 28.726999999999997], [77.078, 28.726999999999997]]]}, "properties": {"area_km2": 0.0149, "area_ha": 1.49}}, {"type": "Feature", "geometry": {"type": "Polygon", "coordinates": [[[77.23625000000001, 28.668249999999997], [77.23625000000001, 28.66725], [77.2365, 28.66725], [77.2365, 28.666749999999997], [77.23725, 28.666749999999997], [77.23725, 28.668], [77.23700000000001, 28.668], [77.23700000000001, 28.668249999999997], [77.23625000000001, 28.668249999999997]]]}, "properties": {"area_km2": 0.0142, "area_ha": 1.42}}, {"type": "Feature", "geometry": {"type": "Polygon", "coordinates": [[[77.04050000000001, 28.546999999999997], [77.04050000000001, 28.545499999999997], [77.04125, 28.545499999999997], [77.04125, 28.545749999999998], [77.0415, 28.545749999999998], [77.0415, 28.546499999999998], [77.04125, 28.546499999999998], [77.04125, 28.546999999999997], [77.04050000000001, 28.546999999999997]]]}, "properties": {"area_km2": 0.0142, "area_ha": 1.42}}, {"type": "Feature", "geometry": {"type": "Polygon", "coordinates": [[[77.34275000000001, 28.5275], [77.34275000000001, 28.52575], [77.3435, 28.52575], [77.3435, 28.5275], [77.34275000000001, 28.5275]]]}, "properties": {"area_km2": 0.0142, "area_ha": 1.42}}, {"type": "Feature", "geometry": {"type": "Polygon", "coordinates": [[[77.27275, 28.591749999999998], [77.27275, 28.5905], [77.27375, 28.5905], [77.27375, 28.591749999999998], [77.27275, 28.591749999999998]]]}, "properties": {"area_km2": 0.0136, "area_ha": 1.36}}, {"type": "Feature", "geometry": {"type": "Polygon", "coordinates": [[[77.08875, 28.55875], [77.08875, 28.557499999999997], [77.08975000000001, 28.557499999999997], [77.08975000000001, 28.55875], [77.08875, 28.55875]]]}, "properties": {"area_km2": 0.0136, "area_ha": 1.36}}, {"type": "Feature", "geometry": {"type": "Polygon", "coordinates": [[[77.30875, 28.555249999999997], [77.30875, 28.554], [77.30975000000001, 28.554], [77.30975000000001, 28.555249999999997], [77.30875, 28.555249999999997]]]}, "properties": {"area_km2": 0.0136, "area_ha": 1.36}}, {"type": "Feature", "geometry": {"type": "Polygon", "coordinates": [[[77.23100000000001, 28.704749999999997], [77.23100000000001, 28.7035], [77.232, 28.7035], [77.232, 28.704749999999997], [77.23100000000001, 28.704749999999997]]]}, "properties": {"area_km2": 0.0135, "area_ha": 1.35}}, {"type": "Feature", "geometry": {"type": "Polygon", "coordinates": [[[77.15175, 28.63825], [77.15175, 28.636999999999997], [77.15275000000001, 28.636999999999997], [77.15275000000001, 28.63825], [77.15175, 28.63825]]]}, "properties": {"area_km2": 0.0135, "area_ha": 1.35}}, {"type": "Feature", "geometry": {"type": "Polygon", "coordinates": [[[77.25325000000001, 28.660999999999998], [77.25325000000001, 28.659499999999998], [77.254, 28.659499999999998], [77.254, 28.660999999999998], [77.25325000000001, 28.660999999999998]]]}, "properties": {"area_km2": 0.0122, "area_ha": 1.22}}, {"type": "Feature", "geometry": {"type": "Polygon", "coordinates": [[[77.25925000000001, 28.65625], [77.25925000000001, 28.6555], [77.2595, 28.6555], [77.2595, 28.654999999999998], [77.26025, 28.654999999999998], [77.26025, 28.65625], [77.25925000000001, 28.65625]]]}, "properties": {"area_km2": 0.0122, "area_ha": 1.22}}, {"type": "Feature", "geometry": {"type": "Polygon", "coordinates": [[[77.1165, 28.56675], [77.1165, 28.566], [77.11800000000001, 28.566], [77.11800000000001, 28.56675], [77.1165, 28.56675]]]}, "properties": {"area_km2": 0.0122, "area_ha": 1.22}}, {"type": "Feature", "geometry": {"type": "Polygon", "coordinates": [[[77.35025, 28.5065], [77.35025, 28.505], [77.35100000000001, 28.505], [77.35100000000001, 28.5065], [77.35025, 28.5065]]]}, "properties": {"area_km2": 0.0122, "area_ha": 1.22}}, {"type": "Feature", "geometry": {"type": "Polygon", "coordinates": [[[77.3675, 28.45525], [77.3675, 28.4545], [77.369, 28.4545], [77.369, 28.45525], [77.3675, 28.45525]]]}, "properties": {"area_km2": 0.0122, "area_ha": 1.22}}, {"type": "Feature", "geometry": {"type": "Polygon", "coordinates": [[[77.387, 28.71475], [77.387, 28.714499999999997], [77.38650000000001, 28.714499999999997], [77.38650000000001, 28.713749999999997], [77.3875, 28.713749999999997], [77.3875, 28.714], [77.38775000000001, 28.714], [77.38775000000001, 28.71475], [77.387, 28.71475]]]}, "properties": {"area_km2": 0.0115, "area_ha": 1.15}}, {"type": "Feature", "geometry": {"type": "Polygon", "coordinates": [[[77.38875, 28.71575], [77.38875, 28.7155], [77.38825, 28.7155], [77.38825, 28.71475], [77.38900000000001, 28.71475], [77.38900000000001, 28.715], [77.38950000000001, 28.715], [77.38950000000001, 28.71575], [77.38875, 28.71575]]]}, "properties": {"area_km2": 0.0108, "area_ha": 1.08}}, {"type": "Feature", "geometry": {"type": "Polygon", "coordinates": [[[77.30425000000001, 28.61525], [77.30425000000001, 28.6145], [77.30550000000001, 28.6145], [77.30550000000001, 28.61525], [77.30425000000001, 28.61525]]]}, "properties": {"area_km2": 0.0102, "area_ha": 1.02}}, {"type": "Feature", "geometry": {"type": "Polygon", "coordinates": [[[77.11500000000001, 28.567749999999997], [77.11500000000001, 28.5675], [77.11475, 28.5675], [77.11475, 28.56675], [77.11575, 28.56675], [77.11575, 28.567749999999997], [77.11500000000001, 28.567749999999997]]]}, "properties": {"area_km2": 0.0102, "area_ha": 1.02}}, {"type": "Feature", "geometry": {"type": "Polygon", "coordinates": [[[77.11425000000001, 28.564249999999998], [77.11425000000001, 28.563], [77.11500000000001, 28.563], [77.11500000000001, 28.564249999999998], [77.11425000000001, 28.564249999999998]]]}, "properties": {"area_km2": 0.0102, "area_ha": 1.02}}, {"type": "Feature", "geometry": {"type": "Polygon", "coordinates": [[[77.32425, 28.522], [77.32425, 28.52125], [77.3255, 28.52125], [77.3255, 28.522], [77.32425, 28.522]]]}, "properties": {"area_km2": 0.0102, "area_ha": 1.02}}, {"type": "Feature", "geometry": {"type": "Polygon", "coordinates": [[[77.37375, 28.449749999999998], [77.37375, 28.448999999999998], [77.375, 28.448999999999998], [77.375, 28.449749999999998], [77.37375, 28.449749999999998]]]}, "properties": {"area_km2": 0.0102, "area_ha": 1.02}}, {"type": "Feature", "geometry": {"type": "Polygon", "coordinates": [[[77.25625000000001, 28.6115], [77.25625000000001, 28.61075], [77.2565, 28.61075], [77.2565, 28.6105], [77.25725000000001, 28.6105], [77.25725000000001, 28.61125], [77.257, 28.61125], [77.257, 28.6115], [77.25625000000001, 28.6115]]]}, "properties": {"area_km2": 0.0095, "area_ha": 0.95}}, {"type": "Feature", "geometry": {"type": "Polygon", "coordinates": [[[77.30925, 28.56025], [77.30925, 28.5595], [77.3095, 28.5595], [77.3095, 28.55925], [77.31025000000001, 28.55925], [77.31025000000001, 28.56], [77.31, 28.56], [77.31, 28.56025], [77.30925, 28.56025]]]}, "properties": {"area_km2": 0.0095, "area_ha": 0.95}}, {"type": "Feature", "geometry": {"type": "Polygon", "coordinates": [[[77.0985, 28.539749999999998], [77.0985, 28.538999999999998], [77.09875000000001, 28.538999999999998], [77.09875000000001, 28.538749999999997], [77.0995, 28.538749999999997], [77.0995, 28.539499999999997], [77.09925000000001, 28.539499999999997], [77.09925000000001, 28.539749999999998], [77.0985, 28.539749999999998]]]}, "properties": {"area_km2": 0.0095, "area_ha": 0.95}}, {"type": "Feature", "geometry": {"type": "Polygon", "coordinates": [[[77.20175, 28.732], [77.20175, 28.73125], [77.20275000000001, 28.73125], [77.20275000000001, 28.732], [77.20175, 28.732]]]}, "properties": {"area_km2": 0.0081, "area_ha": 0.81}}, {"type": "Feature", "geometry": {"type": "Polygon", "coordinates": [[[77.21875, 28.72225], [77.21875, 28.7215], [77.21975, 28.7215], [77.21975, 28.72225], [77.21875, 28.72225]]]}, "properties": {"area_km2": 0.0081, "area_ha": 0.81}}, {"type": "Feature", "geometry": {"type": "Polygon", "coordinates": [[[77.25150000000001, 28.6615], [77.25150000000001, 28.6605], [77.25225, 28.6605], [77.25225, 28.6615], [77.25150000000001, 28.6615]]]}, "properties": {"area_km2": 0.0081, "area_ha": 0.81}}, {"type": "Feature", "geometry": {"type": "Polygon", "coordinates": [[[77.26050000000001, 28.65475], [77.26050000000001, 28.654], [77.26150000000001, 28.654], [77.26150000000001, 28.65475], [77.26050000000001, 28.65475]]]}, "properties": {"area_km2": 0.0081, "area_ha": 0.81}}, {"type": "Feature", "geometry": {"type": "Polygon", "coordinates": [[[77.244, 28.61725], [77.244, 28.616249999999997], [77.24475000000001, 28.616249999999997], [77.24475000000001, 28.61725], [77.244, 28.61725]]]}, "properties": {"area_km2": 0.0081, "area_ha": 0.81}}, {"type": "Feature", "geometry": {"type": "Polygon", "coordinates": [[[77.271, 28.59375], [77.271, 28.593], [77.272, 28.593], [77.272, 28.59375], [77.271, 28.59375]]]}, "properties": {"area_km2": 0.0081, "area_ha": 0.81}}, {"type": "Feature", "geometry": {"type": "Polygon", "coordinates": [[[77.292, 28.576749999999997], [77.292, 28.575999999999997], [77.293, 28.575999999999997], [77.293, 28.576749999999997], [77.292, 28.576749999999997]]]}, "properties": {"area_km2": 0.0081, "area_ha": 0.81}}, {"type": "Feature", "geometry": {"type": "Polygon", "coordinates": [[[77.08375000000001, 28.5615], [77.08375000000001, 28.56075], [77.08475, 28.56075], [77.08475, 28.5615], [77.08375000000001, 28.5615]]]}, "properties": {"area_km2": 0.0081, "area_ha": 0.81}}, {"type": "Feature", "geometry": {"type": "Polygon", "coordinates": [[[77.31175, 28.55775], [77.31175, 28.557], [77.31275000000001, 28.557], [77.31275000000001, 28.55775], [77.31175, 28.55775]]]}, "properties": {"area_km2": 0.0081, "area_ha": 0.81}}, {"type": "Feature", "geometry": {"type": "Polygon", "coordinates": [[[77.09100000000001, 28.549999999999997], [77.09100000000001, 28.549], [77.09175, 28.549], [77.09175, 28.549999999999997], [77.09100000000001, 28.549999999999997]]]}, "properties": {"area_km2": 0.0081, "area_ha": 0.81}}, {"type": "Feature", "geometry": {"type": "Polygon", "coordinates": [[[77.33175, 28.49675], [77.33175, 28.495749999999997], [77.33250000000001, 28.495749999999997], [77.33250000000001, 28.49675], [77.33175, 28.49675]]]}, "properties": {"area_km2": 0.0081, "area_ha": 0.81}}, {"type": "Feature", "geometry": {"type": "Polygon", "coordinates": [[[77.3575, 28.48775], [77.3575, 28.487], [77.3585, 28.487], [77.3585, 28.48775], [77.3575, 28.48775]]]}, "properties": {"area_km2": 0.0081, "area_ha": 0.81}}, {"type": "Feature", "geometry": {"type": "Polygon", "coordinates": [[[77.37675, 28.73575], [77.37675, 28.735], [77.37750000000001, 28.735], [77.37750000000001, 28.73575], [77.37675, 28.73575]]]}, "properties": {"area_km2": 0.0061, "area_ha": 0.61}}, {"type": "Feature", "geometry": {"type": "Polygon", "coordinates": [[[77.23025000000001, 28.689999999999998], [77.23025000000001, 28.689249999999998], [77.23100000000001, 28.689249999999998], [77.23100000000001, 28.689999999999998], [77.23025000000001, 28.689999999999998]]]}, "properties": {"area_km2": 0.0061, "area_ha": 0.61}}, {"type": "Feature", "geometry": {"type": "Polygon", "coordinates": [[[77.23875000000001, 28.66575], [77.23875000000001, 28.665], [77.2395, 28.665], [77.2395, 28.66575], [77.23875000000001, 28.66575]]]}, "properties": {"area_km2": 0.0061, "area_ha": 0.61}}, {"type": "Feature", "geometry": {"type": "Polygon", "coordinates": [[[77.2485, 28.662], [77.2485, 28.66125], [77.24925, 28.66125], [77.24925, 28.662], [77.2485, 28.662]]]}, "properties": {"area_km2": 0.0061, "area_ha": 0.61}}, {"type": "Feature", "geometry": {"type": "Polygon", "coordinates": [[[77.35575, 28.631249999999998], [77.35575, 28.630499999999998], [77.35650000000001, 28.630499999999998], [77.35650000000001, 28.631249999999998], [77.35575, 28.631249999999998]]]}, "properties": {"area_km2": 0.0061, "area_ha": 0.61}}, {"type": "Feature", "geometry": {"type": "Polygon", "coordinates": [[[77.245, 28.61675], [77.245, 28.616], [77.24575, 28.616], [77.24575, 28.61675], [77.245, 28.61675]]]}, "properties": {"area_km2": 0.0061, "area_ha": 0.61}}, {"type": "Feature", "geometry": {"type": "Polygon", "coordinates": [[[77.27525, 28.5995], [77.27525, 28.59875], [77.27600000000001, 28.59875], [77.27600000000001, 28.5995], [77.27525, 28.5995]]]}, "properties": {"area_km2": 0.0061, "area_ha": 0.61}}, {"type": "Feature", "geometry": {"type": "Polygon", "coordinates": [[[77.27000000000001, 28.5935], [77.27000000000001, 28.59275], [77.27075, 28.59275], [77.27075, 28.5935], [77.27000000000001, 28.5935]]]}, "properties": {"area_km2": 0.0061, "area_ha": 0.61}}, {"type": "Feature", "geometry": {"type": "Polygon", "coordinates": [[[77.08325, 28.562749999999998], [77.08325, 28.561999999999998], [77.084, 28.561999999999998], [77.084, 28.562749999999998], [77.08325, 28.562749999999998]]]}, "properties": {"area_km2": 0.0061, "area_ha": 0.61}}, {"type": "Feature", "geometry": {"type": "Polygon", "coordinates": [[[77.08900000000001, 28.5615], [77.08900000000001, 28.56075], [77.08975000000001, 28.56075], [77.08975000000001, 28.5615], [77.08900000000001, 28.5615]]]}, "properties": {"area_km2": 0.0061, "area_ha": 0.61}}, {"type": "Feature", "geometry": {"type": "Polygon", "coordinates": [[[77.1145, 28.558999999999997], [77.1145, 28.558249999999997], [77.11525, 28.558249999999997], [77.11525, 28.558999999999997], [77.1145, 28.558999999999997]]]}, "properties": {"area_km2": 0.0061, "area_ha": 0.61}}, {"type": "Feature", "geometry": {"type": "Polygon", "coordinates": [[[77.07975, 28.556749999999997], [77.07975, 28.555999999999997], [77.0805, 28.555999999999997], [77.0805, 28.556749999999997], [77.07975, 28.556749999999997]]]}, "properties": {"area_km2": 0.0061, "area_ha": 0.61}}, {"type": "Feature", "geometry": {"type": "Polygon", "coordinates": [[[77.08625, 28.5505], [77.08625, 28.54975], [77.087, 28.54975], [77.087, 28.5505], [77.08625, 28.5505]]]}, "properties": {"area_km2": 0.0061, "area_ha": 0.61}}, {"type": "Feature", "geometry": {"type": "Polygon", "coordinates": [[[77.30900000000001, 28.54825], [77.30900000000001, 28.5475], [77.30975000000001, 28.5475], [77.30975000000001, 28.54825], [77.30900000000001, 28.54825]]]}, "properties": {"area_km2": 0.0061, "area_ha": 0.61}}, {"type": "Feature", "geometry": {"type": "Polygon", "coordinates": [[[77.07875, 28.54525], [77.07875, 28.5445], [77.07950000000001, 28.5445], [77.07950000000001, 28.54525], [77.07875, 28.54525]]]}, "properties": {"area_km2": 0.0061, "area_ha": 0.61}}, {"type": "Feature", "geometry": {"type": "Polygon", "coordinates": [[[77.29075, 28.509749999999997], [77.29075, 28.508999999999997], [77.2915, 28.508999999999997], [77.2915, 28.509749999999997], [77.29075, 28.509749999999997]]]}, "properties": {"area_km2": 0.0061, "area_ha": 0.61}}, {"type": "Feature", "geometry": {"type": "Polygon", "coordinates": [[[77.38375, 28.45425], [77.38375, 28.4535], [77.3845, 28.4535], [77.3845, 28.45425], [77.38375, 28.45425]]]}, "properties": {"area_km2": 0.0061, "area_ha": 0.61}}]}