{"type": "FeatureCollection", "name": "flood_pass-20260901-00", "features": [{"type": "Feature", "geometry": {"type": "Polygon", "coordinates": [[[77.29925, 28.569], [77.29925, 28.568499999999997], [77.29725, 28.568499999999997], [77.29725, 28.567249999999998], [77.29575000000001, 28.567249999999998], [77.29575000000001, 28.565749999999998], [77.29650000000001, 28.565749999999998], [77.29650000000001, 28.56375], [77.29675, 28.56375], [77.29675, 28.563], [77.29700000000001, 28.563], [77.29700000000001, 28.5625], [77.29725, 28.5625], [77.29725, 28.561999999999998], [77.298, 28.561999999999998], [77.298, 28.562749999999998], [77.29950000000001, 28.562749999999998], [77.29950000000001, 28.561249999999998], [77.30000000000001, 28.561249999999998], [77.30000000000001, 28.56], [77.29950000000001, 28.56], [77.29950000000001, 28.55925], [77.299, 28.55925], [77.299, 28.558999999999997], [77.29725, 28.558999999999997], [77.29725, 28.557499999999997], [77.2975, 28.557499999999997], [77.2975, 28.55725], [77.30025, 28.55725], [77.30025, 28.55775], [77.30175000000001, 28.55775], [77.30175000000001, 28.5565], [77.30075000000001, 28.5565], [77.30075000000001, 28.5555], [77.29925, 28.5555], [77.29925, 28.55475], [77.3015, 28.55475], [77.3015, 28.55325], [77.302, 28.55325], [77.302, 28.552999999999997], [77.30225, 28.552999999999997], [77.30225, 28.551], [77.30425000000001, 28.551], [77.30425000000001, 28.55175], [77.30525, 28.55175], [77.30525, 28.55275], [77.30325, 28.55275], [77.30325, 28.55425], [77.3035, 28.55425], [77.3035, 28.5555], [77.30325, 28.5555], [77.30325, 28.5565], [77.30275, 28.5565], [77.30275, 28.558249999999997], [77.30250000000001, 28.558249999999997], [77.30250000000001, 28.558999999999997], [77.30225, 28.558999999999997], [77.30225, 28.560499999999998], [77.30175000000001, 28.560499999999998], [77.30175000000001, 28.561249999999998], [77.3015, 28.561249999999998], [77.3015, 28.5625], [77.30125000000001, 28.5625], [77.30125000000001, 28.564999999999998], [77.30250000000001, 28.564999999999998], [77.30250000000001, 28.56625], [77.30225, 28.56625], [77.30225, 28.567249999999998], [77.301, 28.567249999999998], [77.301, 28.5675], [77.30075000000001, 28.5675], [77.30075000000001, 28.569], [77.29925, 28.569]]]}, "properties": {"area_km2": 0.669, "area_ha": 66.9}}, {"type": "Feature", "geometry": {"type": "Polygon", "coordinates": [[[77.32675, 28.535], [77.32675, 28.53425], [77.32700000000001, 28.53425], [77.32700000000001, 28.534], [77.32775000000001, 28.534], [77.32775000000001, 28.533749999999998], [77.328, 28.533749999999998], [77.328, 28.5335], [77.3285, 28.5335], [77.3285, 28.53325], [77.32925, 28.53325], [77.32925, 28.53175], [77.33025, 28.53175], [77.33025, 28.53125], [77.33125000000001, 28.53125], [77.33125000000001, 28.529999999999998], [77.3315, 28.529999999999998], [77.3315, 28.52975], [77.33200000000001, 28.52975], [77.33200000000001, 28.5295], [77.33250000000001, 28.5295], [77.33250000000001, 28.528499999999998], [77.33325, 28.528499999999998], [77.33325, 28.5275], [77.33475, 28.5275], [77.33475, 28.5265], [77.33525, 28.5265], [77.33525, 28.526249999999997], [77.33550000000001, 28.526249999999997], [77.33550000000001, 28.52525], [77.33575, 28.52525], [77.33575, 28.525], [77.3365, 28.525], [77.3365, 28.52375], [77.33725000000001, 28.52375], [77.33725000000001, 28.523249999999997], [77.3375, 28.523249999999997], [77.3375, 28.523], [77.33775, 28.523], [77.33775, 28.52275], [77.33850000000001, 28.52275], [77.33850000000001, 28.5215], [77.34025000000001, 28.5215], [77.34025000000001, 28.52], [77.3405, 28.52], [77.3405, 28.51975], [77.34125, 28.51975], [77.34125, 28.519499999999997], [77.34150000000001, 28.519499999999997], [77.34150000000001, 28.518749999999997], [77.34225, 28.518749999999997], [77.34225, 28.5185], [77.34275000000001, 28.5185], [77.34275000000001, 28.517249999999997], [77.34325000000001, 28.517249999999997], [77.34325000000001, 28.51675], [77.3435, 28.51675], [77.3435, 28.516499999999997], [77.34375, 28.516499999999997], [77.34375, 28.514999999999997], [77.34450000000001, 28.514999999999997], [77.34450000000001, 28.51475], [77.34475, 28.51475], [77.34475, 28.514249999999997], [77.3455, 28.514249999999997], [77.3455, 28.513749999999998], [77.34575000000001, 28.513749999999998], [77.34575000000001, 28.51325], [77.3465, 28.51325], [77.3465, 28.514999999999997], [77.34625000000001, 28.514999999999997], [77.34625000000001, 28.516], [77.3455, 28.516], [77.3455, 28.51675], [77.34525000000001, 28.51675], [77.34525000000001, 28.517], [77.34500000000001, 28.517], [77.34500000000001, 28.5175], [77.3435, 28.5175], [77.3435, 28.519], [77.34325000000001, 28.519], [77.34325000000001, 28.51975], [77.3425, 28.51975], [77.3425, 28.52], [77.34225, 28.52], [77.34225, 28.520249999999997], [77.34200000000001, 28.520249999999997], [77.34200000000001, 28.52125], [77.34125, 28.52125], [77.34125, 28.522], [77.3405, 28.522], [77.3405, 28.52225], [77.3395, 28.52225], [77.3395, 28.523], [77.33925, 28.523], [77.33925, 28.523249999999997], [77.33900000000001, 28.523249999999997], [77.33900000000001, 28.52375], [77.33850000000001, 28.52375], [77.33850000000001, 28.523999999999997], [77.33800000000001, 28.523999999999997], [77.33800000000001, 28.524749999999997], [77.33775, 28.524749999999997], [77.33775, 28.525], [77.3375, 28.525], [77.3375, 28.526], [77.33725000000001, 28.526], [77.33725000000001, 28.527749999999997], [77.33550000000001, 28.527749999999997], [77.33550000000001, 28.52825], [77.33475, 28.52825], [77.33475, 28.529249999999998], [77.334, 28.529249999999998], [77.334, 28.529999999999998], [77.3335, 28.529999999999998], [77.3335, 28.53025], [77.33325, 28.53025], [77.33325, 28.5305], [77.33250000000001, 28.5305], [77.33250000000001, 28.531499999999998], [77.33125000000001, 28.531499999999998], [77.33125000000001, 28.532], [77.3305, 28.532], [77.3305, 28.532999999999998], [77.33000000000001, 28.532999999999998], [77.33000000000001, 28.53425], [77.32950000000001, 28.53425], [77.32950000000001, 28.534499999999998], [77.32775000000001, 28.534499999999998], [77.32775000000001, 28.53475], [77.3275, 28.53475], [77.3275, 28.535], [77.32675, 28.535]]]}, "properties": {"area_km2": 0.4204, "area_ha": 42.04}}, {"type": "Feature", "geometry": {"type": "Polygon", "coordinates": [[[77.34925000000001, 28.508499999999998], [77.34925000000001, 28.506749999999997], [77.3495, 28.506749999999997], [77.3495, 28.506249999999998], [77.34975, 28.506249999999998], [77.34975, 28.50575], [77.35000000000001, 28.50575], [77.35000000000001, 28.505499999999998], [77.35025, 28.505499999999998], [77.35025, 28.50375], [77.35075, 28.50375], [77.35075, 28.503], [77.35100000000001, 28.503], [77.35100000000001, 28.50225], [77.35125000000001, 28.50225], [77.35125000000001, 28.502], [77.3515, 28.502], [77.3515, 28.5015], [77.352, 28.5015], [77.352, 28.499], [77.35275, 28.499], [77.35275, 28.497249999999998], [77.35300000000001, 28.497249999999998], [77.35300000000001, 28.496499999999997], [77.35325, 28.496499999999997], [77.35325, 28.49625], [77.35350000000001, 28.49625], [77.35350000000001, 28.496], [77.35375, 28.496], [77.35375, 28.4955], [77.354, 28.4955], [77.354, 28.494999999999997], [77.35425000000001, 28.494999999999997], [77.35425000000001, 28.49475], [77.3545, 28.49475], [77.3545, 28.4945], [77.35475000000001, 28.4945], [77.35475000000001, 28.493499999999997], [77.355, 28.493499999999997], [77.355, 28.493], [77.3555, 28.493], [77.3555, 28.4925], [77.35575, 28.4925], [77.35575, 28.491], [77.35525000000001, 28.491], [77.35525000000001, 28.49], [77.35625, 28.49], [77.35625, 28.489749999999997], [77.35650000000001, 28.489749999999997], [77.35650000000001, 28.488999999999997], [77.357, 28.488999999999997], [77.357, 28.487499999999997], [77.35725000000001, 28.487499999999997], [77.35725000000001, 28.48725], [77.3575, 28.48725], [77.3575, 28.486749999999997], [77.3585, 28.486749999999997], [77.3585, 28.488249999999997], [77.35825000000001, 28.488249999999997], [77.35825000000001, 28.4885], [77.358, 28.4885], [77.358, 28.488999999999997], [77.35775000000001, 28.488999999999997], [77.35775000000001, 28.493], [77.35675, 28.493], [77.35675, 28.4945], [77.35650000000001, 28.4945], [77.35650000000001, 28.4955], [77.35600000000001, 28.4955], [77.35600000000001, 28.495749999999997], [77.35575, 28.495749999999997], [77.35575, 28.497], [77.35375, 28.497], [77.35375, 28.4985], [77.35425000000001, 28.4985], [77.35425000000001, 28.5], [77.35375, 28.5], [77.35375, 28.50125], [77.35300000000001, 28.50125], [77.35300000000001, 28.503], [77.35325, 28.503], [77.35325, 28.50375], [77.35225000000001, 28.50375], [77.35225000000001, 28.503999999999998], [77.35175000000001, 28.503999999999998], [77.35175000000001, 28.50425], [77.3515, 28.50425], [77.3515, 28.505], [77.35125000000001, 28.505], [77.35125000000001, 28.505249999999997], [77.35100000000001, 28.505249999999997], [77.35100000000001, 28.50725], [77.35050000000001, 28.50725], [77.35050000000001, 28.508], [77.35025, 28.508], [77.35025, 28.508249999999997], [77.35000000000001, 28.508249999999997], [77.35000000000001, 28.508499999999998], [77.34925000000001, 28.508499999999998]]]}, "properties": {"area_km2": 0.4022, "area_ha": 40.22}}, {"type": "Feature", "geometry": {"type": "Polygon", "coordinates": [[[77.04325, 28.7195], [77.04325, 28.71925], [77.043, 28.71925], [77.043, 28.71875], [77.0415, 28.71875], [77.0415, 28.718999999999998], [77.04050000000001, 28.718999999999998], [77.04050000000001, 28.714499999999997], [77.04075, 28.714499999999997], [77.04075, 28.714], [77.04225000000001, 28.714], [77.04225000000001, 28.7135], [77.04375, 28.7135], [77.04375, 28.714], [77.04400000000001, 28.714], [77.04400000000001, 28.71425], [77.04425, 28.71425], [77.04425, 28.7155], [77.04525000000001, 28.7155], [77.04525000000001, 28.715999999999998], [77.04725, 28.715999999999998], [77.04725, 28.71575], [77.0485, 28.71575], [77.0485, 28.715999999999998], [77.049, 28.715999999999998], [77.049, 28.717499999999998], [77.04925, 28.717499999999998], [77.04925, 28.71925], [77.048, 28.71925], [77.048, 28.718999999999998], [77.04775000000001, 28.718999999999998], [77.04775000000001, 28.71725], [77.04650000000001, 28.71725], [77.04650000000001, 28.71875], [77.0445, 28.71875], [77.0445, 28.7195], [77.04325, 28.7195]]]}, "properties": {"area_km2": 0.354, "area_ha": 35.4}}, {"type": "Feature", "geometry": {"type": "Polygon", "coordinates": [[[77.28125, 28.58775], [77.28125, 28.5875], [77.2805, 28.5875], [77.2805, 28.58675], [77.281, 28.58675], [77.281, 28.5855], [77.28200000000001, 28.5855], [77.28200000000001, 28.584249999999997], [77.28250000000001, 28.584249999999997], [77.28250000000001, 28.58375], [77.283, 28.58375], [77.283, 28.583499999999997], [77.28375000000001, 28.583499999999997], [77.28375000000001, 28.583], [77.2865, 28.583], [77.2865, 28.5825], [77.28675000000001, 28.5825], [77.28675000000001, 28.58225], [77.287, 28.58225], [77.287, 28.5815], [77.28775, 28.5815], [77.28775, 28.582749999999997], [77.28825, 28.582749999999997], [77.28825, 28.584], [77.28800000000001, 28.584], [77.28800000000001, 28.58525], [77.287, 28.58525], [77.287, 28.586499999999997], [77.28500000000001, 28.586499999999997], [77.28500000000001, 28.587], [77.28450000000001, 28.587], [77.28450000000001, 28.5875], [77.28275000000001, 28.5875], [77.28275000000001, 28.58775], [77.28125, 28.58775]]]}, "properties": {"area_km2": 0.2785, "area_ha": 27.85}}, {"type": "Feature", "geometry": {"type": "Polygon", "coordinates": [[[77.37775, 28.4575], [77.37775, 28.45675], [77.37750000000001, 28.45675], [77.37750000000001, 28.456249999999997], [77.37700000000001, 28.456249999999997], [77.37700000000001, 28.45525], [77.37775, 28.45525], [77.37775, 28.453999999999997], [77.37750000000001, 28.453999999999997], [77.37750000000001, 28.45375], [77.3755, 28.45375], [77.3755, 28.453999999999997], [77.37475, 28.453999999999997], [77.37475, 28.45375], [77.37450000000001, 28.45375], [77.37450000000001, 28.453], [77.37425, 28.453], [77.37425, 28.452749999999998], [77.373, 28.452749999999998], [77.373, 28.451749999999997], [77.37375, 28.451749999999997], [77.37375, 28.4515], [77.37400000000001, 28.4515], [77.37400000000001, 28.450249999999997], [77.3735, 28.450249999999997], [77.3735, 28.44925], [77.375, 28.44925], [77.375, 28.450499999999998], [77.3755, 28.450499999999998], [77.3755, 28.450999999999997], [77.37575000000001, 28.450999999999997], [77.37575000000001, 28.4515], [77.376, 28.4515], [77.376, 28.451999999999998], [77.37650000000001, 28.451999999999998], [77.37650000000001, 28.45225], [77.37750000000001, 28.45225], [77.37750000000001, 28.452499999999997], [77.38050000000001, 28.452499999999997], [77.38050000000001, 28.452749999999998], [77.38175000000001, 28.452749999999998], [77.38175000000001, 28.453249999999997], [77.38300000000001, 28.453249999999997], [77.38300000000001, 28.4535], [77.38475000000001, 28.4535], [77.38475000000001, 28.4545], [77.384, 28.4545], [77.384, 28.45425], [77.3815, 28.45425], [77.3815, 28.4545], [77.38075, 28.4545], [77.38075, 28.45425], [77.37875000000001, 28.45425], [77.37875000000001, 28.4565], [77.37925000000001, 28.4565], [77.37925000000001, 28.45725], [77.37875000000001, 28.45725], [77.37875000000001, 28.4575], [77.37775, 28.4575]]]}, "properties": {"area_km2": 0.2775, "area_ha": 27.75}}, {"type": "Feature", "geometry": {"type": "Polygon", "coordinates": [[[77.328, 28.488249999999997], [77.328, 28.487499999999997], [77.32600000000001, 28.487499999999997], [77.32600000000001, 28.48725], [77.32275, 28.48725], [77.32275, 28.48625], [77.32425, 28.48625], [77.32425, 28.48575], [77.3245, 28.48575], [77.3245, 28.48475], [77.3255, 28.48475], [77.3255, 28.483999999999998], [77.32950000000001, 28.483999999999998], [77.32950000000001, 28.4855], [77.33025, 28.4855], [77.33025, 28.48575], [77.331, 28.48575], [77.331, 28.4865], [77.33025, 28.4865], [77.33025, 28.486749999999997], [77.33000000000001, 28.486749999999997], [77.33000000000001, 28.487499999999997], [77.32925, 28.487499999999997], [77.32925, 28.488249999999997], [77.328, 28.488249999999997]]]}, "properties": {"area_km2": 0.2286, "area_ha": 22.86}}, {"type": "Feature", "geometry": {"type": "Polygon", "coordinates": [[[77.31775, 28.543], [77.31775, 28.541749999999997], [77.319, 28.541749999999997], [77.319, 28.54], [77.3195, 28.54], [77.3195, 28.539749999999998], [77.32025, 28.539749999999998], [77.32025, 28.538999999999998], [77.32100000000001, 28.538999999999998], [77.32100000000001, 28.538749999999997], [77.32175000000001, 28.538749999999997], [77.32175000000001, 28.538249999999998], [77.322, 28.538249999999998], [77.322, 28.537999999999997], [77.32300000000001, 28.537999999999997], [77.32300000000001, 28.537], [77.32325, 28.537], [77.32325, 28.536499999999997], [77.32400000000001, 28.536499999999997], [77.32400000000001, 28.53625], [77.32425, 28.53625], [77.32425, 28.53575], [77.32475000000001, 28.53575], [77.32475000000001, 28.5355], [77.32650000000001, 28.5355], [77.32650000000001, 28.53625], [77.32600000000001, 28.53625], [77.32600000000001, 28.537249999999997], [77.32575, 28.537249999999997], [77.32575, 28.537499999999998], [77.32475000000001, 28.537499999999998], [77.32475000000001, 28.537999999999997], [77.32400000000001, 28.537999999999997], [77.32400000000001, 28.539499999999997], [77.32350000000001, 28.539499999999997], [77.32350000000001, 28.539749999999998], [77.32225000000001, 28.539749999999998], [77.32225000000001, 28.540249999999997], [77.32175000000001, 28.540249999999997], [77.32175000000001, 28.541749999999997], [77.3215, 28.541749999999997], [77.3215, 28.542499999999997], [77.32125, 28.542499999999997], [77.32125, 28.542749999999998], [77.32050000000001, 28.542749999999998], [77.32050000000001, 28.543], [77.31775, 28.543]]]}, "properties": {"area_km2": 0.2257, "area_ha": 22.57}}, {"type": "Feature", "geometry": {"type": "Polygon", "coordinates": [[[77.25675000000001, 28.632749999999998], [77.25675000000001, 28.6315], [77.25575, 28.6315], [77.25575, 28.62875], [77.25550000000001, 28.62875], [77.25550000000001, 28.62775], [77.25375000000001, 28.62775], [77.25375000000001, 28.6265], [77.25325000000001, 28.6265], [77.25325000000001, 28.62575], [77.254, 28.62575], [77.254, 28.62425], [77.2535, 28.62425], [77.2535, 28.62325], [77.253, 28.62325], [77.253, 28.62125], [77.25425000000001, 28.62125], [77.25425000000001, 28.622], [77.25450000000001, 28.622], [77.25450000000001, 28.6235], [77.25525, 28.6235], [77.25525, 28.624], [77.25550000000001, 28.624], [77.25550000000001, 28.625249999999998], [77.2565, 28.625249999999998], [77.2565, 28.62625], [77.25675000000001, 28.62625], [77.25675000000001, 28.62725], [77.2565, 28.62725], [77.2565, 28.6285], [77.25725000000001, 28.6285], [77.25725000000001, 28.6295], [77.25750000000001, 28.6295], [77.25750000000001, 28.631249999999998], [77.25800000000001, 28.631249999999998], [77.25800000000001, 28.631999999999998], [77.25750000000001, 28.631999999999998], [77.25750000000001, 28.632749999999998], [77.25675000000001, 28.632749999999998]]]}, "properties": {"area_km2": 0.2215, "area_ha": 22.15}}, {"type": "Feature", "geometry": {"type": "Polygon", "coordinates": [[[77.384, 28.7395], [77.384, 28.738999999999997], [77.38325, 28.738999999999997], [77.38325, 28.738], [77.38175000000001, 28.738], [77.38175000000001, 28.737], [77.382, 28.737], [77.382, 28.736749999999997], [77.38250000000001, 28.736749999999997], [77.38250000000001, 28.7365], [77.38375, 28.7365], [77.38375, 28.735249999999997], [77.38250000000001, 28.735249999999997], [77.38250000000001, 28.733249999999998], [77.38275, 28.733249999999998], [77.38275, 28.732999999999997], [77.38300000000001, 28.732999999999997], [77.38300000000001, 28.731749999999998], [77.38275, 28.731749999999998], [77.38275, 28.730999999999998], [77.385, 28.730999999999998], [77.385, 28.732499999999998], [77.38525, 28.732499999999998], [77.38525, 28.73275], [77.38600000000001, 28.73275], [77.38600000000001, 28.733999999999998], [77.388, 28.733999999999998], [77.388, 28.735], [77.38775000000001, 28.735], [77.38775000000001, 28.735249999999997], [77.38675, 28.735249999999997], [77.38675, 28.735], [77.38575, 28.735], [77.38575, 28.73475], [77.3845, 28.73475], [77.3845, 28.737], [77.38425000000001, 28.737], [77.38425000000001, 28.73875], [77.38475000000001, 28.73875], [77.38475000000001, 28.7395], [77.384, 28.7395]]]}, "properties": {"area_km2": 0.2159, "area_ha": 21.59}}, {"type": "Feature", "geometry": {"type": "Polygon", "coordinates": [[[77.25, 28.6615], [77.25, 28.66075], [77.251, 28.66075], [77.251, 28.660249999999998], [77.25150000000001, 28.660249999999998], [77.25150000000001, 28.66], [77.25175, 28.66], [77.25175, 28.659499999999998], [77.254, 28.659499999999998], [77.254, 28.658749999999998], [77.25450000000001, 28.658749999999998], [77.25450000000001, 28.6585], [77.25500000000001, 28.6585], [77.25500000000001, 28.65825], [77.25550000000001, 28.65825], [77.25550000000001, 28.657999999999998], [77.256, 28.657999999999998], [77.256, 28.65775], [77.25625000000001, 28.65775], [77.25625000000001, 28.6575], [77.25675000000001, 28.6575], [77.25675000000001, 28.657249999999998], [77.257, 28.657249999999998], [77.257, 28.657], [77.25725000000001, 28.657], [77.25725000000001, 28.65675], [77.25750000000001, 28.65675], [77.25750000000001, 28.656499999999998], [77.25800000000001, 28.656499999999998], [77.25800000000001, 28.65625], [77.25825, 28.65625], [77.25825, 28.656], [77.25850000000001, 28.656], [77.25850000000001, 28.655749999999998], [77.2595, 28.655749999999998], [77.2595, 28.656499999999998], [77.25975000000001, 28.656499999999998], [77.25975000000001, 28.6575], [77.2595, 28.6575], [77.2595, 28.65775], [77.25850000000001, 28.65775], [77.25850000000001, 28.659], [77.25825, 28.659], [77.25825, 28.65925], [77.25800000000001, 28.65925], [77.25800000000001, 28.66], [77.257, 28.66], [77.257, 28.660249999999998], [77.256, 28.660249999999998], [77.256, 28.6605], [77.25475, 28.6605], [77.25475, 28.66075], [77.253, 28.66075], [77.253, 28.660999999999998], [77.25225, 28.660999999999998], [77.25225, 28.66125], [77.25125000000001, 28.66125], [77.25125000000001, 28.6615], [77.25, 28.6615]]]}, "properties": {"area_km2": 0.2072, "area_ha": 20.72}}, {"type": "Feature", "geometry": {"type": "Polygon", "coordinates": [[[77.31150000000001, 28.563], [77.31150000000001, 28.5615], [77.31175, 28.5615], [77.31175, 28.561], [77.31225, 28.561], [77.31225, 28.560499999999998], [77.31275000000001, 28.560499999999998], [77.31275000000001, 28.56025], [77.3135, 28.56025], [77.3135, 28.558999999999997], [77.31425, 28.558999999999997], [77.31425, 28.55875], [77.31450000000001, 28.55875], [77.31450000000001, 28.558], [77.31475, 28.558], [77.31475, 28.557499999999997], [77.3155, 28.557499999999997], [77.3155, 28.55725], [77.31575000000001, 28.55725], [77.31575000000001, 28.555249999999997], [77.31625000000001, 28.555249999999997], [77.31625000000001, 28.554499999999997], [77.31825, 28.554499999999997], [77.31825, 28.55575], [77.31800000000001, 28.55575], [77.31800000000001, 28.55625], [77.31725, 28.55625], [77.31725, 28.556749999999997], [77.31700000000001, 28.556749999999997], [77.31700000000001, 28.558], [77.31675000000001, 28.558], [77.31675000000001, 28.55875], [77.31625000000001, 28.55875], [77.31625000000001, 28.55925], [77.31575000000001, 28.55925], [77.31575000000001, 28.5595], [77.3155, 28.5595], [77.3155, 28.56075], [77.31450000000001, 28.56075], [77.31450000000001, 28.5615], [77.31425, 28.5615], [77.31425, 28.56175], [77.31375000000001, 28.56175], [77.31375000000001, 28.56225], [77.3135, 28.56225], [77.3135, 28.562749999999998], [77.3125, 28.562749999999998], [77.3125, 28.563], [77.31150000000001, 28.563]]]}, "properties": {"area_km2": 0.1972, "area_ha": 19.72}}, {"type": "Feature", "geometry": {"type": "Polygon", "coordinates": [[[77.23225000000001, 28.711], [77.23225000000001, 28.709999999999997], [77.23125, 28.709999999999997], [77.23125, 28.70825], [77.23, 28.70825], [77.23, 28.7075], [77.2305, 28.7075], [77.2305, 28.70425], [77.23075, 28.70425], [77.23075, 28.703999999999997], [77.23175, 28.703999999999997], [77.23175, 28.705], [77.23150000000001, 28.705], [77.23150000000001, 28.706249999999997], [77.2325, 28.706249999999997], [77.2325, 28.70825], [77.23275000000001, 28.70825], [77.23275000000001, 28.708499999999997], [77.233, 28.708499999999997], [77.233, 28.70875], [77.2335, 28.70875], [77.2335, 28.709], [77.23375, 28.709], [77.23375, 28.709249999999997], [77.23450000000001, 28.709249999999997], [77.23450000000001, 28.7095], [77.23525000000001, 28.7095], [77.23525000000001, 28.7105], [77.235, 28.7105], [77.235, 28.710749999999997], [77.23450000000001, 28.710749999999997], [77.23450000000001, 28.711], [77.23225000000001, 28.711]]]}, "properties": {"area_km2": 0.1557, "area_ha": 15.57}}, {"type": "Feature", "geometry": {"type": "Polygon", "coordinates": [[[77.29350000000001, 28.572499999999998], [77.29350000000001, 28.571749999999998], [77.29375, 28.571749999999998], [77.29375, 28.570999999999998], [77.2945, 28.570999999999998], [77.2945, 28.569499999999998], [77.29425, 28.569499999999998], [77.29425, 28.568499999999997], [77.295, 28.568499999999997], [77.295, 28.5675], [77.296, 28.5675], [77.296, 28.569], [77.29725, 28.569], [77.29725, 28.5705], [77.29700000000001, 28.5705], [77.29700000000001, 28.572499999999998], [77.29350000000001, 28.572499999999998]]]}, "properties": {"area_km2": 0.1349, "area_ha": 13.49}}, {"type": "Feature", "geometry": {"type": "Polygon", "coordinates": [[[77.27925, 28.591749999999998], [77.27925, 28.5915], [77.27775000000001, 28.5915], [77.27775000000001, 28.59], [77.277, 28.59], [77.277, 28.58925], [77.2775, 28.58925], [77.2775, 28.5885], [77.27825, 28.5885], [77.27825, 28.587999999999997], [77.27850000000001, 28.587999999999997], [77.27850000000001, 28.58775], [77.27875, 28.58775], [77.27875, 28.587249999999997], [77.28, 28.587249999999997], [77.28, 28.58925], [77.28075000000001, 28.58925], [77.28075000000001, 28.589499999999997], [77.28150000000001, 28.589499999999997], [77.28150000000001, 28.5905], [77.281, 28.5905], [77.281, 28.5915], [77.28, 28.5915], [77.28, 28.591749999999998], [77.27925, 28.591749999999998]]]}, "properties": {"area_km2": 0.1328, "area_ha": 13.28}}, {"type": "Feature", "geometry": {"type": "Polygon", "coordinates": [[[77.37450000000001, 28.472749999999998], [77.37450000000001, 28.471999999999998], [77.375, 28.471999999999998], [77.375, 28.471], [77.37525000000001, 28.471], [77.37525000000001, 28.470499999999998], [77.3755, 28.470499999999998], [77.3755, 28.47025], [77.37700000000001, 28.47025], [77.37700000000001, 28.47], [77.37750000000001, 28.47], [77.37750000000001, 28.46925], [77.37775, 28.46925], [77.37775, 28.4685], [77.37875000000001, 28.4685], [77.37875000000001, 28.46875], [77.38050000000001, 28.46875], [77.38050000000001, 28.4695], [77.38025, 28.4695], [77.38025, 28.470499999999998], [77.38000000000001, 28.470499999999998], [77.38000000000001, 28.47075], [77.379, 28.47075], [77.379, 28.471], [77.37825000000001, 28.471], [77.37825000000001, 28.471249999999998], [77.37775, 28.471249999999998], [77.37775, 28.4715], [77.37675, 28.4715], [77.37675, 28.47175], [77.37625000000001, 28.47175], [77.37625000000001, 28.471999999999998], [77.376, 28.471999999999998], [77.376, 28.47225], [77.37575000000001, 28.47225], [77.37575000000001, 28.4725], [77.37525000000001, 28.4725], [77.37525000000001, 28.472749999999998], [77.37450000000001, 28.472749999999998]]]}, "properties": {"area_km2": 0.1194, "area_ha": 11.94}}, {"type": "Feature", "geometry": {"type": "Polygon", "coordinates": [[[77.38425000000001, 28.467499999999998], [77.38425000000001, 28.465999999999998], [77.38550000000001, 28.465999999999998], [77.38550000000001, 28.46575], [77.38650000000001, 28.46575], [77.38650000000001, 28.4655], [77.38950000000001, 28.4655], [77.38950000000001, 28.467], [77.3875, 28.467], [77.3875, 28.46725], [77.38600000000001, 28.46725], [77.38600000000001, 28.467499999999998], [77.38425000000001, 28.467499999999998]]]}, "properties": {"area_km2": 0.0895, "area_ha": 8.95}}, {"type": "Feature", "geometry": {"type": "Polygon", "coordinates": [[[77.32425, 28.523], [77.32425, 28.52225], [77.32350000000001, 28.52225], [77.32350000000001, 28.520999999999997], [77.32000000000001, 28.520999999999997], [77.32000000000001, 28.520249999999997], [77.32350000000001, 28.520249999999997], [77.32350000000001, 28.52075], [77.325, 28.52075], [77.325, 28.520999999999997], [77.32600000000001, 28.520999999999997], [77.32600000000001, 28.522499999999997], [77.325, 28.522499999999997], [77.325, 28.523], [77.32425, 28.523]]]}, "properties": {"area_km2": 0.0753, "area_ha": 7.53}}, {"type": "Feature", "geometry": {"type": "Polygon", "coordinates": [[[77.38850000000001, 28.71575], [77.38850000000001, 28.7155], [77.38825, 28.7155], [77.38825, 28.715249999999997], [77.38775000000001, 28.715249999999997], [77.38775000000001, 28.715], [77.387, 28.715], [77.387, 28.714499999999997], [77.38625, 28.714499999999997], [77.38625, 28.71275], [77.38575, 28.71275], [77.38575, 28.712], [77.38600000000001, 28.712], [77.38600000000001, 28.71175], [77.38725000000001, 28.71175], [77.38725000000001, 28.7135], [77.38875, 28.7135], [77.38875, 28.71475], [77.38925, 28.71475], [77.38925, 28.715], [77.38950000000001, 28.715], [77.38950000000001, 28.71575], [77.38850000000001, 28.71575]]]}, "properties": {"area_km2": 0.0724, "area_ha": 7.24}}, {"type": "Feature", "geometry": {"type": "Polygon", "coordinates": [[[77.3165, 28.55325], [77.3165, 28.5525], [77.3155, 28.5525], [77.3155, 28.550749999999997], [77.31525, 28.550749999999997], [77.31525, 28.549999999999997], [77.31575000000001, 28.549999999999997], [77.31575000000001, 28.54975], [77.3165, 28.54975], [77.3165, 28.55025], [77.31700000000001, 28.55025], [77.31700000000001, 28.551], [77.31775, 28.551], [77.31775, 28.55125], [77.31800000000001, 28.55125], [77.31800000000001, 28.55325], [77.3165, 28.55325]]]}, "properties": {"area_km2": 0.0712, "area_ha": 7.12}}, {"type": "Feature", "geometry": {"type": "Polygon", "coordinates": [[[77.23, 28.702749999999998], [77.23, 28.700999999999997], [77.23100000000001, 28.700999999999997], [77.23100000000001, 28.699749999999998], [77.23075, 28.699749999999998], [77.23075, 28.699499999999997], [77.2305, 28.699499999999997], [77.2305, 28.6985], [77.232, 28.6985], [77.232, 28.702749999999998], [77.23, 28.702749999999998]]]}, "properties": {"area_km2": 0.0711, "area_ha": 7.11}}, {"type": "Feature", "geometry": {"type": "Polygon", "coordinates": [[[77.055, 28.723], [77.055, 28.722749999999998], [77.0535, 28.722749999999998], [77.0535, 28.7225], [77.05275, 28.7225], [77.05275, 28.721249999999998], [77.0515, 28.721249999999998], [77.0515, 28.720499999999998], [77.054, 28.720499999999998], [77.054, 28.721], [77.05425000000001, 28.721], [77.05425000000001, 28.721249999999998], [77.05550000000001, 28.721249999999998], [77.05550000000001, 28.7215], [77.05575, 28.7215], [77.05575, 28.723], [77.055, 28.723]]]}, "properties": {"area_km2": 0.069, "area_ha": 6.9}}, {"type": "Feature", "geometry": {"type": "Polygon", "coordinates": [[[77.08225, 28.564249999999998], [77.08225, 28.563499999999998], [77.08200000000001, 28.563499999999998], [77.08200000000001, 28.56225], [77.08225, 28.56225], [77.08225, 28.56075], [77.0845, 28.56075], [77.0845, 28.5615], [77.0835, 28.5615], [77.0835, 28.564], [77.08300000000001, 28.564], [77.08300000000001, 28.564249999999998], [77.08225, 28.564249999999998]]]}, "properties": {"area_km2": 0.0576, "area_ha": 5.76}}, {"type": "Feature", "geometry": {"type": "Polygon", "coordinates": [[[77.23025000000001, 28.696749999999998], [77.23025000000001, 28.696499999999997], [77.23, 28.696499999999997], [77.23, 28.69325], [77.22975000000001, 28.69325], [77.22975000000001, 28.6925], [77.23100000000001, 28.6925], [77.23100000000001, 28.694999999999997], [77.23150000000001, 28.694999999999997], [77.23150000000001, 28.696749999999998], [77.23025000000001, 28.696749999999998]]]}, "properties": {"area_km2": 0.0569, "area_ha": 5.69}}, {"type": "Feature", "geometry": {"type": "Polygon", "coordinates": [[[77.36575, 28.47825], [77.36575, 28.4775], [77.3665, 28.4775], [77.3665, 28.476499999999998], [77.3675, 28.476499999999998], [77.3675, 28.476], [77.36775, 28.476], [77.36775, 28.475749999999998], [77.36825, 28.475749999999998], [77.36825, 28.474999999999998], [77.36975000000001, 28.474999999999998], [77.36975000000001, 28.476], [77.36850000000001, 28.476], [77.36850000000001, 28.476999999999997], [77.36800000000001, 28.476999999999997], [77.36800000000001, 28.4775], [77.36775, 28.4775], [77.36775, 28.477749999999997], [77.3675, 28.477749999999997], [77.3675, 28.477999999999998], [77.36725000000001, 28.477999999999998], [77.36725000000001, 28.47825], [77.36575, 28.47825]]]}, "properties": {"area_km2": 0.0563, "area_ha": 5.63}}, {"type": "Feature", "geometry": {"type": "Polygon", "coordinates": [[[77.18325, 28.72], [77.18325, 28.7185], [77.183, 28.7185], [77.183, 28.71775], [77.18325, 28.71775], [77.18325, 28.717499999999998], [77.18425, 28.717499999999998], [77.18425, 28.71775], [77.18525000000001, 28.71775], [77.18525000000001, 28.718], [77.1855, 28.718], [77.1855, 28.718249999999998], [77.18575000000001, 28.718249999999998], [77.18575000000001, 28.7185], [77.186, 28.7185], [77.186, 28.71925], [77.1845, 28.71925], [77.1845, 28.72], [77.18325, 28.72]]]}, "properties": {"area_km2": 0.0555, "area_ha": 5.55}}, {"type": "Feature", "geometry": {"type": "Polygon", "coordinates": [[[77.38650000000001, 28.728749999999998], [77.38650000000001, 28.726999999999997], [77.38675, 28.726999999999997], [77.38675, 28.726249999999997], [77.387, 28.726249999999997], [77.387, 28.7245], [77.388, 28.7245], [77.388, 28.72525], [77.38825, 28.72525], [77.38825, 28.7275], [77.38775000000001, 28.7275], [77.38775000000001, 28.727749999999997], [77.38725000000001, 28.727749999999997], [77.38725000000001, 28.728749999999998], [77.38650000000001, 28.728749999999998]]]}, "properties": {"area_km2": 0.0548, "area_ha": 5.48}}, {"type": "Feature", "geometry": {"type": "Polygon", "coordinates": [[[77.3875, 28.70825], [77.3875, 28.705499999999997], [77.388, 28.705499999999997], [77.388, 28.7045], [77.38875, 28.7045], [77.38875, 28.70675], [77.38950000000001, 28.70675], [77.38950000000001, 28.7075], [77.38925, 28.7075], [77.38925, 28.707749999999997], [77.38875, 28.707749999999997], [77.38875, 28.70825], [77.3875, 28.70825]]]}, "properties": {"area_km2": 0.0528, "area_ha": 5.28}}, {"type": "Feature", "geometry": {"type": "Polygon", "coordinates": [[[77.26875000000001, 28.593999999999998], [77.26875000000001, 28.5935], [77.26750000000001, 28.5935], [77.26750000000001, 28.59275], [77.268, 28.59275], [77.268, 28.59225], [77.26950000000001, 28.59225], [77.26950000000001, 28.592], [77.27075, 28.592], [77.27075, 28.59225], [77.271, 28.59225], [77.271, 28.593249999999998], [77.26975, 28.593249999999998], [77.26975, 28.59375], [77.26950000000001, 28.59375], [77.26950000000001, 28.593999999999998], [77.26875000000001, 28.593999999999998]]]}, "properties": {"area_km2": 0.0495, "area_ha": 4.95}}, {"type": "Feature", "geometry": {"type": "Polygon", "coordinates": [[[77.23625000000001, 28.668], [77.23625000000001, 28.66725], [77.23700000000001, 28.66725], [77.23700000000001, 28.666749999999997], [77.23750000000001, 28.666749999999997], [77.23750000000001, 28.66575], [77.23825000000001, 28.66575], [77.23825000000001, 28.665499999999998], [77.2385, 28.665499999999998], [77.2385, 28.664749999999998], [77.23875000000001, 28.664749999999998], [77.23875000000001, 28.664499999999997], [77.2395, 28.664499999999997], [77.2395, 28.665999999999997], [77.239, 28.665999999999997], [77.239, 28.666249999999998], [77.2385, 28.666249999999998], [77.2385, 28.666749999999997], [77.238, 28.666749999999997], [77.238, 28.667499999999997], [77.23750000000001, 28.667499999999997], [77.23750000000001, 28.668], [77.23625000000001, 28.668]]]}, "properties": {"area_km2": 0.0454, "area_ha": 4.54}}, {"type": "Feature", "geometry": {"type": "Polygon", "coordinates": [[[77.3155, 28.546249999999997], [77.3155, 28.546], [77.31425, 28.546], [77.31425, 28.545749999999998], [77.31400000000001, 28.545749999999998], [77.31400000000001, 28.544249999999998], [77.31450000000001, 28.544249999999998], [77.31450000000001, 28.543499999999998], [77.3155, 28.543499999999998], [77.3155, 28.54525], [77.31625000000001, 28.54525], [77.31625000000001, 28.546249999999997], [77.3155, 28.546249999999997]]]}, "properties": {"area_km2": 0.0441, "area_ha": 4.41}}, {"type": "Feature", "geometry": {"type": "Polygon", "coordinates": [[[77.373, 28.7395], [77.373, 28.73925], [77.37275000000001, 28.73925], [77.37275000000001, 28.7365], [77.37375, 28.7365], [77.37375, 28.738], [77.37425, 28.738], [77.37425, 28.7385], [77.37450000000001, 28.7385], [77.37450000000001, 28.7395], [77.373, 28.7395]]]}, "properties": {"area_km2": 0.0426, "area_ha": 4.26}}, {"type": "Feature", "geometry": {"type": "Polygon", "coordinates": [[[77.37100000000001, 28.46175], [77.37100000000001, 28.45975], [77.37325000000001, 28.45975], [77.37325000000001, 28.4595], [77.37425, 28.4595], [77.37425, 28.46025], [77.3735, 28.46025], [77.3735, 28.460749999999997], [77.37175, 28.460749999999997], [77.37175, 28.46175], [77.37100000000001, 28.46175]]]}, "properties": {"area_km2": 0.0421, "area_ha": 4.21}}, {"type": "Feature", "geometry": {"type": "Polygon", "coordinates": [[[77.15400000000001, 28.63975], [77.15400000000001, 28.638749999999998], [77.15425, 28.638749999999998], [77.15425, 28.637249999999998], [77.15450000000001, 28.637249999999998], [77.15450000000001, 28.636999999999997], [77.1555, 28.636999999999997], [77.1555, 28.63975], [77.15400000000001, 28.63975]]]}, "properties": {"area_km2": 0.0393, "area_ha": 3.93}}, {"type": "Feature", "geometry": {"type": "Polygon", "coordinates": [[[77.31125, 28.549999999999997], [77.31125, 28.548499999999997], [77.31075000000001, 28.548499999999997], [77.31075000000001, 28.5475], [77.311, 28.5475], [77.311, 28.54725], [77.31125, 28.54725], [77.31125, 28.546999999999997], [77.31200000000001, 28.546999999999997], [77.31200000000001, 28.548], [77.3125, 28.548], [77.3125, 28.5495], [77.31225, 28.5495], [77.31225, 28.54975], [77.31200000000001, 28.54975], [77.31200000000001, 28.549999999999997], [77.31125, 28.549999999999997]]]}, "properties": {"area_km2": 0.0393, "area_ha": 3.93}}, {"type": "Feature", "geometry": {"type": "Polygon", "coordinates": [[[77.30775000000001, 28.524749999999997], [77.30775000000001, 28.52425], [77.30675000000001, 28.52425], [77.30675000000001, 28.523249999999997], [77.3075, 28.523249999999997], [77.3075, 28.522499999999997], [77.30850000000001, 28.522499999999997], [77.30850000000001, 28.52275], [77.30875, 28.52275], [77.30875, 28.524749999999997], [77.30775000000001, 28.524749999999997]]]}, "properties": {"area_km2": 0.0366, "area_ha": 3.66}}, {"type": "Feature", "geometry": {"type": "Polygon", "coordinates": [[[77.0805, 28.55425], [77.0805, 28.554], [77.08000000000001, 28.554], [77.08000000000001, 28.5525], [77.0815, 28.5525], [77.0815, 28.55275], [77.08200000000001, 28.55275], [77.08200000000001, 28.55425], [77.0805, 28.55425]]]}, "properties": {"area_km2": 0.0352, "area_ha": 3.52}}, {"type": "Feature", "geometry": {"type": "Polygon", "coordinates": [[[77.26375, 28.645999999999997], [77.26375, 28.64575], [77.26325, 28.64575], [77.26325, 28.6455], [77.263, 28.6455], [77.263, 28.644], [77.26450000000001, 28.644], [77.26450000000001, 28.64425], [77.26475, 28.64425], [77.26475, 28.645999999999997], [77.26375, 28.645999999999997]]]}, "properties": {"area_km2": 0.0345, "area_ha": 3.45}}, {"type": "Feature", "geometry": {"type": "Polygon", "coordinates": [[[77.24075, 28.665249999999997], [77.24075, 28.6635], [77.24275, 28.6635], [77.24275, 28.664749999999998], [77.242, 28.664749999999998], [77.242, 28.665249999999997], [77.24075, 28.665249999999997]]]}, "properties": {"area_km2": 0.0339, "area_ha": 3.39}}, {"type": "Feature", "geometry": {"type": "Polygon", "coordinates": [[[77.361, 28.732249999999997], [77.361, 28.730749999999997], [77.36325000000001, 28.730749999999997], [77.36325000000001, 28.731499999999997], [77.36275, 28.731499999999997], [77.36275, 28.732249999999997], [77.361, 28.732249999999997]]]}, "properties": {"area_km2": 0.0325, "area_ha": 3.25}}, {"type": "Feature", "geometry": {"type": "Polygon", "coordinates": [[[77.23225000000001, 28.71425], [77.23225000000001, 28.714], [77.23175, 28.714], [77.23175, 28.71325], [77.23225000000001, 28.71325], [77.23225000000001, 28.712249999999997], [77.23375, 28.712249999999997], [77.23375, 28.7125], [77.23425, 28.7125], [77.23425, 28.71325], [77.233, 28.71325], [77.233, 28.71425], [77.23225000000001, 28.71425]]]}, "properties": {"area_km2": 0.0325, "area_ha": 3.25}}, {"type": "Feature", "geometry": {"type": "Polygon", "coordinates": [[[77.09875000000001, 28.54075], [77.09875000000001, 28.54], [77.09825000000001, 28.54], [77.09825000000001, 28.53925], [77.0985, 28.53925], [77.0985, 28.538749999999997], [77.0995, 28.538749999999997], [77.0995, 28.538999999999998], [77.10025, 28.538999999999998], [77.10025, 28.540249999999997], [77.09975, 28.540249999999997], [77.09975, 28.540499999999998], [77.0995, 28.540499999999998], [77.0995, 28.54075], [77.09875000000001, 28.54075]]]}, "properties": {"area_km2": 0.0325, "area_ha": 3.25}}, {"type": "Feature", "geometry": {"type": "Polygon", "coordinates": [[[77.078, 28.545749999999998], [77.078, 28.54525], [77.07725, 28.54525], [77.07725, 28.544249999999998], [77.07825000000001, 28.544249999999998], [77.07825000000001, 28.5445], [77.08000000000001, 28.5445], [77.08000000000001, 28.54525], [77.07925, 28.54525], [77.07925, 28.545749999999998], [77.078, 28.545749999999998]]]}, "properties": {"area_km2": 0.0319, "area_ha": 3.19}}, {"type": "Feature", "geometry": {"type": "Polygon", "coordinates": [[[77.05075000000001, 28.7185], [77.05075000000001, 28.71775], [77.051, 28.71775], [77.051, 28.717], [77.05225, 28.717], [77.05225, 28.717499999999998], [77.05275, 28.717499999999998], [77.05275, 28.71775], [77.05325, 28.71775], [77.05325, 28.7185], [77.05075000000001, 28.7185]]]}, "properties": {"area_km2": 0.0318, "area_ha": 3.18}}, {"type": "Feature", "geometry": {"type": "Polygon", "coordinates": [[[77.25575, 28.610999999999997], [77.25575, 28.610249999999997], [77.2565, 28.610249999999997], [77.2565, 28.6085], [77.25725000000001, 28.6085], [77.25725000000001, 28.608999999999998], [77.25750000000001, 28.608999999999998], [77.25750000000001, 28.610999999999997], [77.25575, 28.610999999999997]]]}, "properties": {"area_km2": 0.0318, "area_ha": 3.18}}, {"type": "Feature", "geometry": {"type": "Polygon", "coordinates": [[[77.11250000000001, 28.567249999999998], [77.11250000000001, 28.567], [77.11175, 28.567], [77.11175, 28.566499999999998], [77.1115, 28.566499999999998], [77.1115, 28.5655], [77.11250000000001, 28.5655], [77.11250000000001, 28.565749999999998], [77.1135, 28.565749999999998], [77.1135, 28.567249999999998], [77.11250000000001, 28.567249999999998]]]}, "properties": {"area_km2": 0.0312, "area_ha": 3.12}}, {"type": "Feature", "geometry": {"type": "Polygon", "coordinates": [[[77.37700000000001, 28.73725], [77.37700000000001, 28.7365], [77.37650000000001, 28.7365], [77.37650000000001, 28.73625], [77.37625000000001, 28.73625], [77.37625000000001, 28.7355], [77.37650000000001, 28.7355], [77.37650000000001, 28.735], [77.37775, 28.735], [77.37775, 28.735249999999997], [77.378, 28.735249999999997], [77.378, 28.73625], [77.37775, 28.73625], [77.37775, 28.73725], [77.37700000000001, 28.73725]]]}, "properties": {"area_km2": 0.0311, "area_ha": 3.11}}, {"type": "Feature", "geometry": {"type": "Polygon", "coordinates": [[[77.11475, 28.567249999999998], [77.11475, 28.56625], [77.11550000000001, 28.56625], [77.11550000000001, 28.565749999999998], [77.117, 28.565749999999998], [77.117, 28.566499999999998], [77.11675000000001, 28.566499999999998], [77.11675000000001, 28.567249999999998], [77.11475, 28.567249999999998]]]}, "properties": {"area_km2": 0.0305, "area_ha": 3.05}}, {"type": "Feature", "geometry": {"type": "Polygon", "coordinates": [[[77.22975000000001, 28.69125], [77.22975000000001, 28.68975], [77.23, 28.68975], [77.23, 28.688499999999998], [77.23075, 28.688499999999998], [77.23075, 28.689], [77.23100000000001, 28.689], [77.23100000000001, 28.689999999999998], [77.23075, 28.689999999999998], [77.23075, 28.69125], [77.22975000000001, 28.69125]]]}, "properties": {"area_km2": 0.0291, "area_ha": 2.91}}, {"type": "Feature", "geometry": {"type": "Polygon", "coordinates": [[[77.37825000000001, 28.448999999999998], [77.37825000000001, 28.448749999999997], [77.37750000000001, 28.448749999999997], [77.37750000000001, 28.44775], [77.37775, 28.44775], [77.37775, 28.447249999999997], [77.37875000000001, 28.447249999999997], [77.37875000000001, 28.447999999999997], [77.37950000000001, 28.447999999999997], [77.37950000000001, 28.448999999999998], [77.37825000000001, 28.448999999999998]]]}, "properties": {"area_km2": 0.0285, "area_ha": 2.85}}, {"type": "Feature", "geometry": {"type": "Polygon", "coordinates": [[[77.05075000000001, 28.6555], [77.05075000000001, 28.65525], [77.0505, 28.65525], [77.0505, 28.654], [77.051, 28.654], [77.051, 28.65375], [77.05175000000001, 28.65375], [77.05175000000001, 28.654249999999998], [77.05225, 28.654249999999998], [77.05225, 28.6555], [77.05075000000001, 28.6555]]]}, "properties": {"area_km2": 0.0284, "area_ha": 2.84}}, {"type": "Feature", "geometry": {"type": "Polygon", "coordinates": [[[77.08325, 28.551499999999997], [77.08325, 28.55125], [77.08250000000001, 28.55125], [77.08250000000001, 28.54975], [77.08275, 28.54975], [77.08275, 28.5495], [77.08375000000001, 28.5495], [77.08375000000001, 28.55025], [77.084, 28.55025], [77.084, 28.551499999999997], [77.08325, 28.551499999999997]]]}, "properties": {"area_km2": 0.0278, "area_ha": 2.78}}, {"type": "Feature", "geometry": {"type": "Polygon", "coordinates": [[[77.0965, 28.5495], [77.0965, 28.54875], [77.09675, 28.54875], [77.09675, 28.547749999999997], [77.09800000000001, 28.547749999999997], [77.09800000000001, 28.548499999999997], [77.09825000000001, 28.548499999999997], [77.09825000000001, 28.549249999999997], [77.09775, 28.549249999999997], [77.09775, 28.5495], [77.0965, 28.5495]]]}, "properties": {"area_km2": 0.0271, "area_ha": 2.71}}, {"type": "Feature", "geometry": {"type": "Polygon", "coordinates": [[[77.07325, 28.546999999999997], [77.07325, 28.54525], [77.07350000000001, 28.54525], [77.07350000000001, 28.544249999999998], [77.07475000000001, 28.544249999999998], [77.07475000000001, 28.544999999999998], [77.0745, 28.544999999999998], [77.0745, 28.54525], [77.07400000000001, 28.54525], [77.07400000000001, 28.546999999999997], [77.07325, 28.546999999999997]]]}, "properties": {"area_km2": 0.0271, "area_ha": 2.71}}, {"type": "Feature", "geometry": {"type": "Polygon", "coordinates": [[[77.34750000000001, 28.511249999999997], [77.34750000000001, 28.50875], [77.34875000000001, 28.50875], [77.34875000000001, 28.509999999999998], [77.34825000000001, 28.509999999999998], [77.34825000000001, 28.511249999999997], [77.34750000000001, 28.511249999999997]]]}, "properties": {"area_km2": 0.0271, "area_ha": 2.71}}, {"type": "Feature", "geometry": {"type": "Polygon", "coordinates": [[[77.37, 28.474999999999998], [77.37, 28.473999999999997], [77.37025000000001, 28.473999999999997], [77.37025000000001, 28.47375], [77.37100000000001, 28.47375], [77.37100000000001, 28.473499999999998], [77.37225000000001, 28.473499999999998], [77.37225000000001, 28.474249999999998], [77.372, 28.474249999999998], [77.372, 28.4745], [77.37125, 28.4745], [77.37125, 28.47475], [77.37100000000001, 28.47475], [77.37100000000001, 28.474999999999998], [77.37, 28.474999999999998]]]}, "properties": {"area_km2": 0.0265, "area_ha": 2.65}}, {"type": "Feature", "geometry": {"type": "Polygon", "coordinates": [[[77.15125, 28.638499999999997], [77.15125, 28.6375], [77.15150000000001, 28.6375], [77.15150000000001, 28.637249999999998], [77.15175, 28.637249999999998], [77.15175, 28.63675], [77.1525, 28.63675], [77.1525, 28.636999999999997], [77.153, 28.636999999999997], [77.153, 28.637999999999998], [77.15275000000001, 28.637999999999998], [77.15275000000001, 28.63825], [77.1525, 28.63825], [77.1525, 28.638499999999997], [77.15125, 28.638499999999997]]]}, "properties": {"area_km2": 0.0264, "area_ha": 2.64}}, {"type": "Feature", "geometry": {"type": "Polygon", "coordinates": [[[77.27375, 28.59275], [77.27375, 28.592499999999998], [77.27350000000001, 28.592499999999998], [77.27350000000001, 28.590999999999998], [77.275, 28.590999999999998], [77.275, 28.59225], [77.27475000000001, 28.59225], [77.27475000000001, 28.59275], [77.27375, 28.59275]]]}, "properties": {"area_km2": 0.0264, "area_ha": 2.64}}, {"type": "Feature", "geometry": {"type": "Polygon", "coordinates": [[[77.10975, 28.565749999999998], [77.10975, 28.564999999999998], [77.10875, 28.564999999999998], [77.10875, 28.564249999999998], [77.1105, 28.564249999999998], [77.1105, 28.5645], [77.11075000000001, 28.5645], [77.11075000000001, 28.56475], [77.111, 28.56475], [77.111, 28.565749999999998], [77.10975, 28.565749999999998]]]}, "properties": {"area_km2": 0.0264, "area_ha": 2.64}}, {"type": "Feature", "geometry": {"type": "Polygon", "coordinates": [[[77.2565, 28.607249999999997], [77.2565, 28.605999999999998], [77.25725000000001, 28.605999999999998], [77.25725000000001, 28.60625], [77.25825, 28.60625], [77.25825, 28.606499999999997], [77.25875, 28.606499999999997], [77.25875, 28.607249999999997], [77.2565, 28.607249999999997]]]}, "properties": {"area_km2": 0.0251, "area_ha": 2.51}}, {"type": "Feature", "geometry": {"type": "Polygon", "coordinates": [[[77.38075, 28.46875], [77.38075, 28.468], [77.381, 28.468], [77.381, 28.46775], [77.382, 28.46775], [77.382, 28.467499999999998], [77.38275, 28.467499999999998], [77.38275, 28.468], [77.38300000000001, 28.468], [77.38300000000001, 28.46875], [77.38075, 28.46875]]]}, "properties": {"area_km2": 0.0251, "area_ha": 2.51}}, {"type": "Feature", "geometry": {"type": "Polygon", "coordinates": [[[77.24000000000001, 28.727999999999998], [77.24000000000001, 28.7275], [77.23975, 28.7275], [77.23975, 28.72675], [77.24050000000001, 28.72675], [77.24050000000001, 28.726499999999998], [77.2415, 28.726499999999998], [77.2415, 28.727999999999998], [77.24000000000001, 28.727999999999998]]]}, "properties": {"area_km2": 0.025, "area_ha": 2.5}}, {"type": "Feature", "geometry": {"type": "Polygon", "coordinates": [[[77.05550000000001, 28.715], [77.05550000000001, 28.71475], [77.05525, 28.71475], [77.05525, 28.714499999999997], [77.055, 28.714499999999997], [77.055, 28.71325], [77.05625, 28.71325], [77.05625, 28.713749999999997], [77.0565, 28.713749999999997], [77.0565, 28.715], [77.05550000000001, 28.715]]]}, "properties": {"area_km2": 0.025, "area_ha": 2.5}}, {"type": "Feature", "geometry": {"type": "Polygon", "coordinates": [[[77.26025, 28.65475], [77.26025, 28.65375], [77.26050000000001, 28.65375], [77.26050000000001, 28.653499999999998], [77.26100000000001, 28.653499999999998], [77.26100000000001, 28.653], [77.2625, 28.653], [77.2625, 28.65375], [77.26125, 28.65375], [77.26125, 28.65475], [77.26025, 28.65475]]]}, "properties": {"area_km2": 0.0244, "area_ha": 2.44}}, {"type": "Feature", "geometry": {"type": "Polygon", "coordinates": [[[77.37275000000001, 28.448749999999997], [77.37275000000001, 28.446749999999998], [77.37425, 28.446749999999998], [77.37425, 28.44775], [77.3735, 28.44775], [77.3735, 28.448749999999997], [77.37275000000001, 28.448749999999997]]]}, "properties": {"area_km2": 0.0244, "area_ha": 2.44}}, {"type": "Feature", "geometry": {"type": "Polygon", "coordinates": [[[77.36850000000001, 28.445249999999998], [77.36850000000001, 28.444999999999997], [77.36825, 28.444999999999997], [77.36825, 28.443749999999998], [77.369, 28.443749999999998], [77.369, 28.444249999999997], [77.37025000000001, 28.444249999999997], [77.37025000000001, 28.444999999999997], [77.37, 28.444999999999997], [77.37, 28.445249999999998], [77.36850000000001, 28.445249999999998]]]}, "properties": {"area_km2": 0.0244, "area_ha": 2.44}}, {"type": "Feature", "geometry": {"type": "Polygon", "coordinates": [[[77.35925, 28.4855], [77.35925, 28.48475], [77.35950000000001, 28.48475], [77.35950000000001, 28.483249999999998], [77.3605, 28.483249999999998], [77.3605, 28.48475], [77.36025000000001, 28.48475], [77.36025000000001, 28.485249999999997], [77.36, 28.485249999999997], [77.36, 28.4855], [77.35925, 28.4855]]]}, "properties": {"area_km2": 0.0237, "area_ha": 2.37}}, {"type": "Feature", "geometry": {"type": "Polygon", "coordinates": [[[77.35475000000001, 28.44925], [77.35475000000001, 28.448999999999998], [77.3545, 28.448999999999998], [77.3545, 28.447499999999998], [77.35575, 28.447499999999998], [77.35575, 28.44925], [77.35475000000001, 28.44925]]]}, "properties": {"area_km2": 0.0231, "area_ha": 2.31}}, {"type": "Feature", "geometry": {"type": "Polygon", "coordinates": [[[77.2595, 28.63525], [77.2595, 28.633999999999997], [77.26075, 28.633999999999997], [77.26075, 28.6345], [77.26150000000001, 28.6345], [77.26150000000001, 28.63525], [77.2595, 28.63525]]]}, "properties": {"area_km2": 0.023, "area_ha": 2.3}}, {"type": "Feature", "geometry": {"type": "Polygon", "coordinates": [[[77.308, 28.55575], [77.308, 28.555], [77.30825, 28.555], [77.30825, 28.55475], [77.30875, 28.55475], [77.30875, 28.554], [77.30975000000001, 28.554], [77.30975000000001, 28.555249999999997], [77.30925, 28.555249999999997], [77.30925, 28.5555], [77.30875, 28.5555], [77.30875, 28.55575], [77.308, 28.55575]]]}, "properties": {"area_km2": 0.0224, "area_ha": 2.24}}, {"type": "Feature", "geometry": {"type": "Polygon", "coordinates": [[[77.24025, 28.72175], [77.24025, 28.72025], [77.2415, 28.72025], [77.2415, 28.72075], [77.24175000000001, 28.72075], [77.24175000000001, 28.7215], [77.2415, 28.7215], [77.2415, 28.72175], [77.24025, 28.72175]]]}, "properties": {"area_km2": 0.0223, "area_ha": 2.23}}, {"type": "Feature", "geometry": {"type": "Polygon", "coordinates": [[[77.11425000000001, 28.564], [77.11425000000001, 28.562749999999998], [77.116, 28.562749999999998], [77.116, 28.56375], [77.11525, 28.56375], [77.11525, 28.564], [77.11425000000001, 28.564]]]}, "properties": {"area_km2": 0.0217, "area_ha": 2.17}}, {"type": "Feature", "geometry": {"type": "Polygon", "coordinates": [[[77.30425000000001, 28.572999999999997], [77.30425000000001, 28.572249999999997], [77.304, 28.572249999999997], [77.304, 28.571499999999997], [77.30525, 28.571499999999997], [77.30525, 28.571749999999998], [77.30550000000001, 28.571749999999998], [77.30550000000001, 28.57275], [77.30525, 28.57275], [77.30525, 28.572999999999997], [77.30425000000001, 28.572999999999997]]]}, "properties": {"area_km2": 0.021, "area_ha": 2.1}}, {"type": "Feature", "geometry": {"type": "Polygon", "coordinates": [[[77.10475000000001, 28.449499999999997], [77.10475000000001, 28.448749999999997], [77.10725000000001, 28.448749999999997], [77.10725000000001, 28.449499999999997], [77.10475000000001, 28.449499999999997]]]}, "properties": {"area_km2": 0.0204, "area_ha": 2.04}}, {"type": "Feature", "geometry": {"type": "Polygon", "coordinates": [[[77.36925000000001, 28.735999999999997], [77.36925000000001, 28.73475], [77.37075, 28.73475], [77.37075, 28.735999999999997], [77.36925000000001, 28.735999999999997]]]}, "properties": {"area_km2": 0.0203, "area_ha": 2.03}}, {"type": "Feature", "geometry": {"type": "Polygon", "coordinates": [[[77.23700000000001, 28.732249999999997], [77.23700000000001, 28.731499999999997], [77.23750000000001, 28.731499999999997], [77.23750000000001, 28.730999999999998], [77.238, 28.730999999999998], [77.238, 28.730749999999997], [77.239, 28.730749999999997], [77.239, 28.731749999999998], [77.23775, 28.731749999999998], [77.23775, 28.732249999999997], [77.23700000000001, 28.732249999999997]]]}, "properties": {"area_km2": 0.0203, "area_ha": 2.03}}, {"type": "Feature", "geometry": {"type": "Polygon", "coordinates": [[[77.3105, 28.552999999999997], [77.3105, 28.552249999999997], [77.311, 28.552249999999997], [77.311, 28.55125], [77.31175, 28.55125], [77.31175, 28.552249999999997], [77.31200000000001, 28.552249999999997], [77.31200000000001, 28.552999999999997], [77.3105, 28.552999999999997]]]}, "properties": {"area_km2": 0.0203, "area_ha": 2.03}}, {"type": "Feature", "geometry": {"type": "Polygon", "coordinates": [[[77.316, 28.522499999999997], [77.316, 28.520999999999997], [77.31625000000001, 28.520999999999997], [77.31625000000001, 28.52075], [77.31725, 28.52075], [77.31725, 28.5215], [77.31700000000001, 28.5215], [77.31700000000001, 28.52225], [77.31675000000001, 28.52225], [77.31675000000001, 28.522499999999997], [77.316, 28.522499999999997]]]}, "properties": {"area_km2": 0.0197, "area_ha": 1.97}}, {"type": "Feature", "geometry": {"type": "Polygon", "coordinates": [[[77.10300000000001, 28.539749999999998], [77.10300000000001, 28.538749999999997], [77.10350000000001, 28.538749999999997], [77.10350000000001, 28.5385], [77.10475000000001, 28.5385], [77.10475000000001, 28.53925], [77.104, 28.53925], [77.104, 28.539749999999998], [77.10300000000001, 28.539749999999998]]]}, "properties": {"area_km2": 0.0183, "area_ha": 1.83}}, {"type": "Feature", "geometry": {"type": "Polygon", "coordinates": [[[77.367, 28.442999999999998], [77.367, 28.442249999999998], [77.36775, 28.442249999999998], [77.36775, 28.441499999999998], [77.36850000000001, 28.441499999999998], [77.36850000000001, 28.442999999999998], [77.367, 28.442999999999998]]]}, "properties": {"area_km2": 0.0183, "area_ha": 1.83}}, {"type": "Feature", "geometry": {"type": "Polygon", "coordinates": [[[77.25500000000001, 28.6165], [77.25500000000001, 28.61525], [77.25625000000001, 28.61525], [77.25625000000001, 28.6165], [77.25500000000001, 28.6165]]]}, "properties": {"area_km2": 0.0169, "area_ha": 1.69}}, {"type": "Feature", "geometry": {"type": "Polygon", "coordinates": [[[77.28975000000001, 28.58075], [77.28975000000001, 28.57875], [77.29050000000001, 28.57875], [77.29050000000001, 28.58075], [77.28975000000001, 28.58075]]]}, "properties": {"area_km2": 0.0163, "area_ha": 1.63}}, {"type": "Feature", "geometry": {"type": "Polygon", "coordinates": [[[77.08825, 28.562749999999998], [77.08825, 28.561249999999998], [77.08925, 28.561249999999998], [77.08925, 28.562749999999998], [77.08825, 28.562749999999998]]]}, "properties": {"area_km2": 0.0163, "area_ha": 1.63}}, {"type": "Feature", "geometry": {"type": "Polygon", "coordinates": [[[77.159, 28.453], [77.159, 28.451249999999998], [77.15975, 28.451249999999998], [77.15975, 28.4515], [77.16000000000001, 28.4515], [77.16000000000001, 28.45225], [77.15975, 28.45225], [77.15975, 28.453], [77.159, 28.453]]]}, "properties": {"area_km2": 0.0163, "area_ha": 1.63}}, {"type": "Feature", "geometry": {"type": "Polygon", "coordinates": [[[77.20175, 28.732999999999997], [77.20175, 28.731499999999997], [77.20275000000001, 28.731499999999997], [77.20275000000001, 28.732999999999997], [77.20175, 28.732999999999997]]]}, "properties": {"area_km2": 0.0162, "area_ha": 1.62}}, {"type": "Feature", "geometry": {"type": "Polygon", "coordinates": [[[77.2325, 28.67525], [77.2325, 28.674], [77.23375, 28.674], [77.23375, 28.674999999999997], [77.2335, 28.674999999999997], [77.2335, 28.67525], [77.2325, 28.67525]]]}, "properties": {"area_km2": 0.0162, "area_ha": 1.62}}, {"type": "Feature", "geometry": {"type": "Polygon", "coordinates": [[[77.313, 28.55625], [77.313, 28.55475], [77.31400000000001, 28.55475], [77.31400000000001, 28.555999999999997], [77.31375000000001, 28.555999999999997], [77.31375000000001, 28.55625], [77.313, 28.55625]]]}, "properties": {"area_km2": 0.0156, "area_ha": 1.56}}, {"type": "Feature", "geometry": {"type": "Polygon", "coordinates": [[[77.30925, 28.5295], [77.30925, 28.529249999999998], [77.30875, 28.529249999999998], [77.30875, 28.528499999999998], [77.31025000000001, 28.528499999999998], [77.31025000000001, 28.5295], [77.30925, 28.5295]]]}, "properties": {"area_km2": 0.0149, "area_ha": 1.49}}, {"type": "Feature", "geometry": {"type": "Polygon", "coordinates": [[[77.36075000000001, 28.48275], [77.36075000000001, 28.482], [77.361, 28.482], [77.361, 28.481749999999998], [77.36225, 28.481749999999998], [77.36225, 28.482499999999998], [77.36200000000001, 28.482499999999998], [77.36200000000001, 28.48275], [77.36075000000001, 28.48275]]]}, "properties": {"area_km2": 0.0149, "area_ha": 1.49}}, {"type": "Feature", "geometry": {"type": "Polygon", "coordinates": [[[77.36975000000001, 28.453249999999997], [77.36975000000001, 28.452499999999997], [77.37150000000001, 28.452499999999997], [77.37150000000001, 28.453249999999997], [77.36975000000001, 28.453249999999997]]]}, "properties": {"area_km2": 0.0142, "area_ha": 1.42}}, {"type": "Feature", "geometry": {"type": "Polygon", "coordinates": [[[77.378, 28.7395], [77.378, 28.738249999999997], [77.379, 28.738249999999997], [77.379, 28.7395], [77.378, 28.7395]]]}, "properties": {"area_km2": 0.0135, "area_ha": 1.35}}, {"type": "Feature", "geometry": {"type": "Polygon", "coordinates": [[[77.159, 28.641], [77.159, 28.63975], [77.16000000000001, 28.63975], [77.16000000000001, 28.641], [77.159, 28.641]]]}, "properties": {"area_km2": 0.0135, "area_ha": 1.35}}, {"type": "Feature", "geometry": {"type": "Polygon", "coordinates": [[[77.07075, 28.7355], [77.07075, 28.73475], [77.07100000000001, 28.73475], [77.07100000000001, 28.734499999999997], [77.072, 28.734499999999997], [77.072, 28.7355], [77.07075, 28.7355]]]}, "properties": {"area_km2": 0.0129, "area_ha": 1.29}}, {"type": "Feature", "geometry": {"type": "Polygon", "coordinates": [[[77.1785, 28.730749999999997], [77.1785, 28.729499999999998], [77.17925000000001, 28.729499999999998], [77.17925000000001, 28.72975], [77.1795, 28.72975], [77.1795, 28.730749999999997], [77.1785, 28.730749999999997]]]}, "properties": {"area_km2": 0.0129, "area_ha": 1.29}}, {"type": "Feature", "geometry": {"type": "Polygon", "coordinates": [[[77.23975, 28.723499999999998], [77.23975, 28.7225], [77.24000000000001, 28.7225], [77.24000000000001, 28.72225], [77.24075, 28.72225], [77.24075, 28.723499999999998], [77.23975, 28.723499999999998]]]}, "properties": {"area_km2": 0.0129, "area_ha": 1.29}}, {"type": "Feature", "geometry": {"type": "Polygon", "coordinates": [[[77.042, 28.539749999999998], [77.042, 28.538749999999997], [77.043, 28.538749999999997], [77.043, 28.538999999999998], [77.04325, 28.538999999999998], [77.04325, 28.539749999999998], [77.042, 28.539749999999998]]]}, "properties": {"area_km2": 0.0129, "area_ha": 1.29}}, {"type": "Feature", "geometry": {"type": "Polygon", "coordinates": [[[77.04050000000001, 28.72225], [77.04050000000001, 28.72075], [77.04125, 28.72075], [77.04125, 28.72225], [77.04050000000001, 28.72225]]]}, "properties": {"area_km2": 0.0122, "area_ha": 1.22}}, {"type": "Feature", "geometry": {"type": "Polygon", "coordinates": [[[77.08025, 28.560499999999998], [77.08025, 28.559749999999998], [77.08175, 28.559749999999998], [77.08175, 28.560499999999998], [77.08025, 28.560499999999998]]]}, "properties": {"area_km2": 0.0122, "area_ha": 1.22}}, {"type": "Feature", "geometry": {"type": "Polygon", "coordinates": [[[77.04050000000001, 28.546499999999998], [77.04050000000001, 28.54525], [77.04125, 28.54525], [77.04125, 28.545749999999998], [77.0415, 28.545749999999998], [77.0415, 28.546499999999998], [77.04050000000001, 28.546499999999998]]]}, "properties": {"area_km2": 0.0122, "area_ha": 1.22}}, {"type": "Feature", "geometry": {"type": "Polygon", "coordinates": [[[77.15575000000001, 28.642249999999997], [77.15575000000001, 28.641499999999997], [77.156, 28.641499999999997], [77.156, 28.641], [77.15675, 28.641], [77.15675, 28.642], [77.15650000000001, 28.642], [77.15650000000001, 28.642249999999997], [77.15575000000001, 28.642249999999997]]]}, "properties": {"area_km2": 0.0115, "area_ha": 1.15}}, {"type": "Feature", "geometry": {"type": "Polygon", "coordinates": [[[77.0445, 28.732249999999997], [77.0445, 28.73125], [77.0455, 28.73125], [77.0455, 28.732249999999997], [77.0445, 28.732249999999997]]]}, "properties": {"area_km2": 0.0108, "area_ha": 1.08}}, {"type": "Feature", "geometry": {"type": "Polygon", "coordinates": [[[77.34625000000001, 28.511999999999997], [77.34625000000001, 28.511], [77.34725, 28.511], [77.34725, 28.511999999999997], [77.34625000000001, 28.511999999999997]]]}, "properties": {"area_km2": 0.0108, "area_ha": 1.08}}, {"type": "Feature", "geometry": {"type": "Polygon", "coordinates": [[[77.23450000000001, 28.735249999999997], [77.23450000000001, 28.734499999999997], [77.23575000000001, 28.734499999999997], [77.23575000000001, 28.735249999999997], [77.23450000000001, 28.735249999999997]]]}, "properties": {"area_km2": 0.0102, "area_ha": 1.02}}, {"type": "Feature", "geometry": {"type": "Polygon", "coordinates": [[[77.384, 28.72825], [77.384, 28.7275], [77.38525, 28.7275], [77.38525, 28.72825], [77.384, 28.72825]]]}, "properties": {"area_km2": 0.0102, "area_ha": 1.02}}, {"type": "Feature", "geometry": {"type": "Polygon", "coordinates": [[[77.24725000000001, 28.662499999999998], [77.24725000000001, 28.661749999999998], [77.2485, 28.661749999999998], [77.2485, 28.662499999999998], [77.24725000000001, 28.662499999999998]]]}, "properties": {"area_km2": 0.0102, "area_ha": 1.02}}, {"type": "Feature", "geometry": {"type": "Polygon", "coordinates": [[[77.11475, 28.662], [77.11475, 28.66075], [77.11550000000001, 28.66075], [77.11550000000001, 28.662], [77.11475, 28.662]]]}, "properties": {"area_km2": 0.0102, "area_ha": 1.02}}, {"type": "Feature", "geometry": {"type": "Polygon", "coordinates": [[[77.26375, 28.64875], [77.26375, 28.64775], [77.26475, 28.64775], [77.26475, 28.6485], [77.26450000000001, 28.6485], [77.26450000000001, 28.64875], [77.26375, 28.64875]]]}, "properties": {"area_km2": 0.0102, "area_ha": 1.02}}, {"type": "Feature", "geometry": {"type": "Polygon", "coordinates": [[[77.29175000000001, 28.576749999999997], [77.29175000000001, 28.575999999999997], [77.293, 28.575999999999997], [77.293, 28.576749999999997], [77.29175000000001, 28.576749999999997]]]}, "properties": {"area_km2": 0.0102, "area_ha": 1.02}}, {"type": "Feature", "geometry": {"type": "Polygon", "coordinates": [[[77.1915, 28.5555], [77.1915, 28.55475], [77.19275, 28.55475], [77.19275, 28.5555], [77.1915, 28.5555]]]}, "properties": {"area_km2": 0.0102, "area_ha": 1.02}}, {"type": "Feature", "geometry": {"type": "Polygon", "coordinates": [[[77.1105, 28.53775], [77.1105, 28.537], [77.11175, 28.537], [77.11175, 28.53775], [77.1105, 28.53775]]]}, "properties": {"area_km2": 0.0102, "area_ha": 1.02}}, {"type": "Feature", "geometry": {"type": "Polygon", "coordinates": [[[77.36275, 28.48125], [77.36275, 28.480249999999998], [77.36375000000001, 28.480249999999998], [77.36375000000001, 28.480999999999998], [77.3635, 28.480999999999998], [77.3635, 28.48125], [77.36275, 28.48125]]]}, "properties": {"area_km2": 0.0102, "area_ha": 1.02}}, {"type": "Feature", "geometry": {"type": "Polygon", "coordinates": [[[77.373, 28.47375], [77.373, 28.473], [77.37325000000001, 28.473], [77.37325000000001, 28.472749999999998], [77.37400000000001, 28.472749999999998], [77.37400000000001, 28.47375], [77.373, 28.47375]]]}, "properties": {"area_km2": 0.0102, "area_ha": 1.02}}, {"type": "Feature", "geometry": {"type": "Polygon", "coordinates": [[[77.37475, 28.464499999999997], [77.37475, 28.4635], [77.37575000000001, 28.4635], [77.37575000000001, 28.46425], [77.3755, 28.46425], [77.3755, 28.464499999999997], [77.37475, 28.464499999999997]]]}, "properties": {"area_km2": 0.0102, "area_ha": 1.02}}, {"type": "Feature", "geometry": {"type": "Polygon", "coordinates": [[[77.11025000000001, 28.448999999999998], [77.11025000000001, 28.448249999999998], [77.1115, 28.448249999999998], [77.1115, 28.448999999999998], [77.11025000000001, 28.448999999999998]]]}, "properties": {"area_km2": 0.0102, "area_ha": 1.02}}, {"type": "Feature", "geometry": {"type": "Polygon", "coordinates": [[[77.20425, 28.7215], [77.20425, 28.72075], [77.20450000000001, 28.72075], [77.20450000000001, 28.720499999999998], [77.20525, 28.720499999999998], [77.20525, 28.721249999999998], [77.20500000000001, 28.721249999999998], [77.20500000000001, 28.7215], [77.20425, 28.7215]]]}, "properties": {"area_km2": 0.0095, "area_ha": 0.95}}, {"type": "Feature", "geometry": {"type": "Polygon", "coordinates": [[[77.046, 28.7135], [77.046, 28.7125], [77.04675, 28.7125], [77.04675, 28.7135], [77.046, 28.7135]]]}, "properties": {"area_km2": 0.0081, "area_ha": 0.81}}, {"type": "Feature", "geometry": {"type": "Polygon", "coordinates": [[[77.23975, 28.691], [77.23975, 28.69025], [77.24075, 28.69025], [77.24075, 28.691], [77.23975, 28.691]]]}, "properties": {"area_km2": 0.0081, "area_ha": 0.81}}, {"type": "Feature", "geometry": {"type": "Polygon", "coordinates": [[[77.2305, 28.68575], [77.2305, 28.685], [77.23150000000001, 28.685], [77.23150000000001, 28.68575], [77.2305, 28.68575]]]}, "properties": {"area_km2": 0.0081, "area_ha": 0.81}}, {"type": "Feature", "geometry": {"type": "Polygon", "coordinates": [[[77.31225, 28.663999999999998], [77.31225, 28.663249999999998], [77.31325000000001, 28.663249999999998], [77.31325000000001, 28.663999999999998], [77.31225, 28.663999999999998]]]}, "properties": {"area_km2": 0.0081, "area_ha": 0.81}}, {"type": "Feature", "geometry": {"type": "Polygon", "coordinates": [[[77.069, 28.648249999999997], [77.069, 28.64725], [77.06975000000001, 28.64725], [77.06975000000001, 28.648249999999997], [77.069, 28.648249999999997]]]}, "properties": {"area_km2": 0.0081, "area_ha": 0.81}}, {"type": "Feature", "geometry": {"type": "Polygon", "coordinates": [[[77.244, 28.616999999999997], [77.244, 28.616249999999997], [77.245, 28.616249999999997], [77.245, 28.616999999999997], [77.244, 28.616999999999997]]]}, "properties": {"area_km2": 0.0081, "area_ha": 0.81}}, {"type": "Feature", "geometry": {"type": "Polygon", "coordinates": [[[77.10000000000001, 28.56], [77.10000000000001, 28.558999999999997], [77.10075, 28.558999999999997], [77.10075, 28.56], [77.10000000000001, 28.56]]]}, "properties": {"area_km2": 0.0081, "area_ha": 0.81}}, {"type": "Feature", "geometry": {"type": "Polygon", "coordinates": [[[77.06700000000001, 28.5535], [77.06700000000001, 28.5525], [77.06775, 28.5525], [77.06775, 28.5535], [77.06700000000001, 28.5535]]]}, "properties": {"area_km2": 0.0081, "area_ha": 0.81}}, {"type": "Feature", "geometry": {"type": "Polygon", "coordinates": [[[77.063, 28.548], [77.063, 28.54725], [77.06400000000001, 28.54725], [77.06400000000001, 28.548], [77.063, 28.548]]]}, "properties": {"area_km2": 0.0081, "area_ha": 0.81}}, {"type": "Feature", "geometry": {"type": "Polygon", "coordinates": [[[77.05250000000001, 28.54225], [77.05250000000001, 28.5415], [77.0535, 28.5415], [77.0535, 28.54225], [77.05250000000001, 28.54225]]]}, "properties": {"area_km2": 0.0081, "area_ha": 0.81}}, {"type": "Feature", "geometry": {"type": "Polygon", "coordinates": [[[77.12650000000001, 28.5], [77.12650000000001, 28.49925], [77.12750000000001, 28.49925], [77.12750000000001, 28.5], [77.12650000000001, 28.5]]]}, "properties": {"area_km2": 0.0081, "area_ha": 0.81}}, {"type": "Feature", "geometry": {"type": "Polygon", "coordinates": [[[77.33200000000001, 28.497249999999998], [77.33200000000001, 28.49625], [77.33275, 28.49625], [77.33275, 28.497249999999998], [77.33200000000001, 28.497249999999998]]]}, "properties": {"area_km2": 0.0081, "area_ha": 0.81}}, {"type": "Feature", "geometry": {"type": "Polygon", "coordinates": [[[77.183, 28.482999999999997], [77.183, 28.482249999999997], [77.18400000000001, 28.482249999999997], [77.18400000000001, 28.482999999999997], [77.183, 28.482999999999997]]]}, "properties": {"area_km2": 0.0081, "area_ha": 0.81}}, {"type": "Feature", "geometry": {"type": "Polygon", "coordinates": [[[77.37375, 28.458499999999997], [77.37375, 28.457749999999997], [77.37475, 28.457749999999997], [77.37475, 28.458499999999997], [77.37375, 28.458499999999997]]]}, "properties": {"area_km2": 0.0081, "area_ha": 0.81}}, {"type": "Feature", "geometry": {"type": "Polygon", "coordinates": [[[77.361, 28.435], [77.361, 28.433999999999997], [77.36175, 28.433999999999997], [77.36175, 28.435], [77.361, 28.435]]]}, "properties": {"area_km2": 0.0081, "area_ha": 0.81}}, {"type": "Feature", "geometry": {"type": "Polygon", "coordinates": [[[77.23150000000001, 28.737499999999997], [77.23150000000001, 28.736749999999997], [77.23225000000001, 28.736749999999997], [77.23225000000001, 28.737499999999997], [77.23150000000001, 28.737499999999997]]]}, "properties": {"area_km2": 0.0061, "area_ha": 0.61}}, {"type": "Feature", "geometry": {"type": "Polygon", "coordinates": [[[77.0725, 28.73575], [77.0725, 28.735], [77.07325, 28.735], [77.07325, 28.73575], [77.0725, 28.73575]]]}, "properties": {"area_km2": 0.0061, "area_ha": 0.61}}, {"type": "Feature", "geometry": {"type": "Polygon", "coordinates": [[[77.239, 28.730249999999998], [77.239, 28.729499999999998], [77.23975, 28.729499999999998], [77.23975, 28.730249999999998], [77.239, 28.730249999999998]]]}, "properties": {"area_km2": 0.0061, "area_ha": 0.61}}, {"type": "Feature", "geometry": {"type": "Polygon", "coordinates": [[[77.05225, 28.71325], [77.05225, 28.7125], [77.05300000000001, 28.7125], [77.05300000000001, 28.71325], [77.05225, 28.71325]]]}, "properties": {"area_km2": 0.0061, "area_ha": 0.61}}, {"type": "Feature", "geometry": {"type": "Polygon", "coordinates": [[[77.24875, 28.662], [77.24875, 28.66125], [77.24950000000001, 28.66125], [77.24950000000001, 28.662], [77.24875, 28.662]]]}, "properties": {"area_km2": 0.0061, "area_ha": 0.61}}, {"type": "Feature", "geometry": {"type": "Polygon", "coordinates": [[[77.26325, 28.641499999999997], [77.26325, 28.640749999999997], [77.26400000000001, 28.640749999999997], [77.26400000000001, 28.641499999999997], [77.26325, 28.641499999999997]]]}, "properties": {"area_km2": 0.0061, "area_ha": 0.61}}, {"type": "Feature", "geometry": {"type": "Polygon", "coordinates": [[[77.269, 28.579749999999997], [77.269, 28.578999999999997], [77.26975, 28.578999999999997], [77.26975, 28.579749999999997], [77.269, 28.579749999999997]]]}, "properties": {"area_km2": 0.0061, "area_ha": 0.61}}, {"type": "Feature", "geometry": {"type": "Polygon", "coordinates": [[[77.1075, 28.566499999999998], [77.1075, 28.565749999999998], [77.10825000000001, 28.565749999999998], [77.10825000000001, 28.566499999999998], [77.1075, 28.566499999999998]]]}, "properties": {"area_km2": 0.0061, "area_ha": 0.61}}, {"type": "Feature", "geometry": {"type": "Polygon", "coordinates": [[[77.08925, 28.55875], [77.08925, 28.558], [77.09, 28.558], [77.09, 28.55875], [77.08925, 28.55875]]]}, "properties": {"area_km2": 0.0061, "area_ha": 0.61}}, {"type": "Feature", "geometry": {"type": "Polygon", "coordinates": [[[77.30850000000001, 28.54825], [77.30850000000001, 28.5475], [77.30925, 28.5475], [77.30925, 28.54825], [77.30850000000001, 28.54825]]]}, "properties": {"area_km2": 0.0061, "area_ha": 0.61}}, {"type": "Feature", "geometry": {"type": "Polygon", "coordinates": [[[77.07050000000001, 28.548], [77.07050000000001, 28.54725], [77.07125, 28.54725], [77.07125, 28.548], [77.07050000000001, 28.548]]]}, "properties": {"area_km2": 0.0061, "area_ha": 0.61}}, {"type": "Feature", "geometry": {"type": "Polygon", "coordinates": [[[77.08025, 28.544749999999997], [77.08025, 28.543999999999997], [77.081, 28.543999999999997], [77.081, 28.544749999999997], [77.08025, 28.544749999999997]]]}, "properties": {"area_km2": 0.0061, "area_ha": 0.61}}, {"type": "Feature", "geometry": {"type": "Polygon", "coordinates": [[[77.06525, 28.53475], [77.06525, 28.534], [77.066, 28.534], [77.066, 28.53475], [77.06525, 28.53475]]]}, "properties": {"area_km2": 0.0061, "area_ha": 0.61}}, {"type": "Feature", "geometry": {"type": "Polygon", "coordinates": [[[77.31325000000001, 28.519499999999997], [77.31325000000001, 28.518749999999997], [77.31400000000001, 28.518749999999997], [77.31400000000001, 28.519499999999997], [77.31325000000001, 28.519499999999997]]]}, "properties": {"area_km2": 0.0061, "area_ha": 0.61}}, {"type": "Feature", "geometry": {"type": "Polygon", "coordinates": [[[77.29075, 28.509749999999997], [77.29075, 28.508999999999997], [77.2915, 28.508999999999997], [77.2915, 28.509749999999997], [77.29075, 28.509749999999997]]]}, "properties": {"area_km2": 0.0061, "area_ha": 0.61}}, {"type": "Feature", "geometry": {"type": "Polygon", "coordinates": [[[77.05275, 28.49825], [77.05275, 28.4975], [77.0535, 28.4975], [77.0535, 28.49825], [77.05275, 28.49825]]]}, "properties": {"area_km2": 0.0061, "area_ha": 0.61}}, {"type": "Feature", "geometry": {"type": "Polygon", "coordinates": [[[77.36375000000001, 28.480249999999998], [77.36375000000001, 28.479499999999998], [77.3645, 28.479499999999998], [77.3645, 28.480249999999998], [77.36375000000001, 28.480249999999998]]]}, "properties": {"area_km2": 0.0061, "area_ha": 0.61}}, {"type": "Feature", "geometry": {"type": "Polygon", "coordinates": [[[77.38600000000001, 28.459999999999997], [77.38600000000001, 28.459249999999997], [77.38675, 28.459249999999997], [77.38675, 28.459999999999997], [77.38600000000001, 28.459999999999997]]]}, "properties": {"area_km2": 0.0061, "area_ha": 0.61}}, {"type": "Feature", "geometry": {"type": "Polygon", "coordinates": [[[77.36200000000001, 28.442], [77.36200000000001, 28.44125], [77.36275, 28.44125], [77.36275, 28.442], [77.36200000000001, 28.442]]]}, "properties": {"area_km2": 0.0061, "area_ha": 0.61}}, {"type": "Feature", "geometry": {"type": "Polygon", "coordinates": [[[77.37750000000001, 28.440749999999998], [77.37750000000001, 28.439999999999998], [77.37825000000001, 28.439999999999998], [77.37825000000001, 28.440749999999998], [77.37750000000001, 28.440749999999998]]]}, "properties": {"area_km2": 0.0061, "area_ha": 0.61}}]}