{"type": "FeatureCollection", "name": "flood_pass-20260917-12", "features": [{"type": "Feature", "geometry": {"type": "Polygon", "coordinates": [[[77.32025, 28.543499999999998], [77.32025, 28.543249999999997], [77.32000000000001, 28.543249999999997], [77.32000000000001, 28.543], [77.31875000000001, 28.543], [77.31875000000001, 28.543249999999997], [77.31775, 28.543249999999997], [77.31775, 28.542749999999998], [77.31750000000001, 28.542749999999998], [77.31750000000001, 28.541999999999998], [77.31800000000001, 28.541999999999998], [77.31800000000001, 28.5415], [77.32000000000001, 28.5415], [77.32000000000001, 28.540249999999997], [77.3195, 28.540249999999997], [77.3195, 28.53925], [77.31975000000001, 28.53925], [77.31975000000001, 28.538999999999998], [77.32075, 28.538999999999998], [77.32075, 28.5385], [77.32225000000001, 28.5385], [77.32225000000001, 28.537], [77.32375, 28.537], [77.32375, 28.536749999999998], [77.32400000000001, 28.536749999999998], [77.32400000000001, 28.53575], [77.32425, 28.53575], [77.32425, 28.5355], [77.3255, 28.5355], [77.3255, 28.534], [77.32725, 28.534], [77.32725, 28.533749999999998], [77.32775000000001, 28.533749999999998], [77.32775000000001, 28.532999999999998], [77.328, 28.532999999999998], [77.328, 28.531499999999998], [77.32950000000001, 28.531499999999998], [77.32950000000001, 28.53175], [77.33075000000001, 28.53175], [77.33075000000001, 28.5305], [77.3305, 28.5305], [77.3305, 28.53025], [77.33025, 28.53025], [77.33025, 28.5295], [77.33000000000001, 28.5295], [77.33000000000001, 28.52875], [77.32975, 28.52875], [77.32975, 28.528], [77.3305, 28.528], [77.3305, 28.5275], [77.33125000000001, 28.5275], [77.33125000000001, 28.529249999999998], [77.33275, 28.529249999999998], [77.33275, 28.52725], [77.33475, 28.52725], [77.33475, 28.526249999999997], [77.33575, 28.526249999999997], [77.33575, 28.52575], [77.33625, 28.52575], [77.33625, 28.5245], [77.33675000000001, 28.5245], [77.33675000000001, 28.5235], [77.33775, 28.5235], [77.33775, 28.52125], [77.33900000000001, 28.52125], [77.33900000000001, 28.520999999999997], [77.33975000000001, 28.520999999999997], [77.33975000000001, 28.519], [77.34150000000001, 28.519], [77.34150000000001, 28.51825], [77.3425, 28.51825], [77.3425, 28.5175], [77.34275000000001, 28.5175], [77.34275000000001, 28.517249999999997], [77.34325000000001, 28.517249999999997], [77.34325000000001, 28.516], [77.343, 28.516], [77.343, 28.514999999999997], [77.34325000000001, 28.514999999999997], [77.34325000000001, 28.514499999999998], [77.3435, 28.514499999999998], [77.3435, 28.514249999999997], [77.34375, 28.514249999999997], [77.34375, 28.514], [77.34475, 28.514], [77.34475, 28.512749999999997], [77.34500000000001, 28.512749999999997], [77.34500000000001, 28.5125], [77.34625000000001, 28.5125], [77.34625000000001, 28.512249999999998], [77.3465, 28.512249999999998], [77.3465, 28.51025], [77.34725, 28.51025], [77.34725, 28.5095], [77.34750000000001, 28.5095], [77.34750000000001, 28.508249999999997], [77.34825000000001, 28.508249999999997], [77.34825000000001, 28.506999999999998], [77.34800000000001, 28.506999999999998], [77.34800000000001, 28.506249999999998], [77.35000000000001, 28.506249999999998], [77.35000000000001, 28.50575], [77.35025, 28.50575], [77.35025, 28.5045], [77.35000000000001, 28.5045], [77.35000000000001, 28.5035], [77.35075, 28.5035], [77.35075, 28.50225], [77.35100000000001, 28.50225], [77.35100000000001, 28.502], [77.35175000000001, 28.502], [77.35175000000001, 28.5005], [77.35225000000001, 28.5005], [77.35225000000001, 28.498749999999998], [77.3525, 28.498749999999998], [77.3525, 28.49825], [77.35275, 28.49825], [77.35275, 28.497999999999998], [77.35300000000001, 28.497999999999998], [77.35300000000001, 28.4975], [77.35475000000001, 28.4975], [77.35475000000001, 28.499], [77.3545, 28.499], [77.3545, 28.49975], [77.35425000000001, 28.49975], [77.35425000000001, 28.50075], [77.354, 28.50075], [77.354, 28.500999999999998], [77.35375, 28.500999999999998], [77.35375, 28.502], [77.35350000000001, 28.502], [77.35350000000001, 28.502499999999998], [77.35300000000001, 28.502499999999998], [77.35300000000001, 28.50375], [77.35275, 28.50375], [77.35275, 28.50425], [77.3525, 28.50425], [77.3525, 28.504749999999998], [77.35225000000001, 28.504749999999998], [77.35225000000001, 28.505], [77.352, 28.505], [77.352, 28.505499999999998], [77.3515, 28.505499999999998], [77.3515, 28.506749999999997], [77.35100000000001, 28.506749999999997], [77.35100000000001, 28.50725], [77.35050000000001, 28.50725], [77.35050000000001, 28.507499999999997], [77.35025, 28.507499999999997], [77.35025, 28.509249999999998], [77.34925000000001, 28.509249999999998], [77.34925000000001, 28.5095], [77.349, 28.5095], [77.349, 28.509749999999997], [77.34875000000001, 28.509749999999997], [77.34875000000001, 28.51025], [77.3485, 28.51025], [77.3485, 28.511249999999997], [77.34825000000001, 28.511249999999997], [77.34825000000001, 28.51175], [77.34775, 28.51175], [77.34775, 28.511999999999997], [77.34750000000001, 28.511999999999997], [77.34750000000001, 28.513499999999997], [77.3465, 28.513499999999997], [77.3465, 28.51475], [77.34625000000001, 28.51475], [77.34625000000001, 28.515749999999997], [77.346, 28.515749999999997], [77.346, 28.516], [77.3455, 28.516], [77.3455, 28.51775], [77.34450000000001, 28.51775], [77.34450000000001, 28.517999999999997], [77.34325000000001, 28.517999999999997], [77.34325000000001, 28.52], [77.34225, 28.52], [77.34225, 28.5205], [77.34200000000001, 28.5205], [77.34200000000001, 28.52075], [77.34175, 28.52075], [77.34175, 28.520999999999997], [77.34150000000001, 28.520999999999997], [77.34150000000001, 28.522499999999997], [77.34100000000001, 28.522499999999997], [77.34100000000001, 28.523249999999997], [77.3405, 28.523249999999997], [77.3405, 28.5235], [77.34025000000001, 28.5235], [77.34025000000001, 28.52375], [77.34, 28.52375], [77.34, 28.523999999999997], [77.3395, 28.523999999999997], [77.3395, 28.5245], [77.33775, 28.5245], [77.33775, 28.526249999999997], [77.33875, 28.526249999999997], [77.33875, 28.5265], [77.33975000000001, 28.5265], [77.33975000000001, 28.52725], [77.33925, 28.52725], [77.33925, 28.52825], [77.33850000000001, 28.52825], [77.33850000000001, 28.5275], [77.33725000000001, 28.5275], [77.33725000000001, 28.527749999999997], [77.33575, 28.527749999999997], [77.33575, 28.528], [77.33500000000001, 28.528], [77.33500000000001, 28.529], [77.33475, 28.529], [77.33475, 28.529249999999998], [77.33375000000001, 28.529249999999998], [77.33375000000001, 28.5305], [77.33325, 28.5305], [77.33325, 28.530749999999998], [77.33300000000001, 28.530749999999998], [77.33300000000001, 28.53125], [77.33250000000001, 28.53125], [77.33250000000001, 28.53175], [77.3315, 28.53175], [77.3315, 28.5325], [77.33025, 28.5325], [77.33025, 28.534], [77.32900000000001, 28.534], [77.32900000000001, 28.534499999999998], [77.3285, 28.534499999999998], [77.3285, 28.535], [77.328, 28.535], [77.328, 28.535249999999998], [77.32725, 28.535249999999998], [77.32725, 28.53575], [77.32675, 28.53575], [77.32675, 28.53625], [77.32650000000001, 28.53625], [77.32650000000001, 28.537], [77.32600000000001, 28.537], [77.32600000000001, 28.537249999999997], [77.3245, 28.537249999999997], [77.3245, 28.53775], [77.32425, 28.53775], [77.32425, 28.537999999999997], [77.32400000000001, 28.537999999999997], [77.32400000000001, 28.540499999999998], [77.32300000000001, 28.540499999999998], [77.32300000000001, 28.54075], [77.32275, 28.54075], [77.32275, 28.541999999999998], [77.3225, 28.541999999999998], [77.3225, 28.54225], [77.32225000000001, 28.54225], [77.32225000000001, 28.542499999999997], [77.32175000000001, 28.542499999999997], [77.32175000000001, 28.542749999999998], [77.3215, 28.542749999999998], [77.3215, 28.543], [77.32100000000001, 28.543], [77.32100000000001, 28.543499999999998], [77.32025, 28.543499999999998]]]}, "properties": {"area_km2": 1.3682, "area_ha": 136.82}}, {"type": "Feature", "geometry": {"type": "Polygon", "coordinates": [[[77.27675, 28.592], [77.27675, 28.59075], [77.27775000000001, 28.59075], [77.27775000000001, 28.589499999999997], [77.27600000000001, 28.589499999999997], [77.27600000000001, 28.5885], [77.27625, 28.5885], [77.27625, 28.58825], [77.278, 28.58825], [77.278, 28.587249999999997], [77.27875, 28.587249999999997], [77.27875, 28.586], [77.27950000000001, 28.586], [77.27950000000001, 28.58525], [77.28025000000001, 28.58525], [77.28025000000001, 28.58475], [77.28225, 28.58475], [77.28225, 28.584], [77.28375000000001, 28.584], [77.28375000000001, 28.58325], [77.28450000000001, 28.58325], [77.28450000000001, 28.583499999999997], [77.28575000000001, 28.583499999999997], [77.28575000000001, 28.58225], [77.2865, 28.58225], [77.2865, 28.5825], [77.28825, 28.5825], [77.28825, 28.58225], [77.28925000000001, 28.58225], [77.28925000000001, 28.58375], [77.28875000000001, 28.58375], [77.28875000000001, 28.584], [77.28825, 28.584], [77.28825, 28.584249999999997], [77.28750000000001, 28.584249999999997], [77.28750000000001, 28.584], [77.28625000000001, 28.584], [77.28625000000001, 28.5855], [77.287, 28.5855], [77.287, 28.58625], [77.28575000000001, 28.58625], [77.28575000000001, 28.5875], [77.28250000000001, 28.5875], [77.28250000000001, 28.586], [77.281, 28.586], [77.281, 28.587249999999997], [77.28200000000001, 28.587249999999997], [77.28200000000001, 28.589], [77.28250000000001, 28.589], [77.28250000000001, 28.58975], [77.28275000000001, 28.58975], [77.28275000000001, 28.59075], [77.28200000000001, 28.59075], [77.28200000000001, 28.590999999999998], [77.28175, 28.590999999999998], [77.28175, 28.592], [77.27675, 28.592]]]}, "properties": {"area_km2": 0.5482, "area_ha": 54.82}}, {"type": "Feature", "geometry": {"type": "Polygon", "coordinates": [[[77.29975, 28.568499999999997], [77.29975, 28.56825], [77.29925, 28.56825], [77.29925, 28.567999999999998], [77.29700000000001, 28.567999999999998], [77.29700000000001, 28.567249999999998], [77.29575000000001, 28.567249999999998], [77.29575000000001, 28.5655], [77.29625, 28.5655], [77.29625, 28.564], [77.29675, 28.564], [77.29675, 28.56375], [77.29725, 28.56375], [77.29725, 28.561999999999998], [77.29825000000001, 28.561999999999998], [77.29825000000001, 28.56175], [77.2985, 28.56175], [77.2985, 28.56025], [77.30025, 28.56025], [77.30025, 28.560499999999998], [77.302, 28.560499999999998], [77.302, 28.56175], [77.30125000000001, 28.56175], [77.30125000000001, 28.563], [77.3015, 28.563], [77.3015, 28.564999999999998], [77.302, 28.564999999999998], [77.302, 28.56525], [77.30300000000001, 28.56525], [77.30300000000001, 28.56625], [77.30275, 28.56625], [77.30275, 28.566499999999998], [77.30250000000001, 28.566499999999998], [77.30250000000001, 28.567], [77.30175000000001, 28.567], [77.30175000000001, 28.567249999999998], [77.30125000000001, 28.567249999999998], [77.30125000000001, 28.567749999999997], [77.30075000000001, 28.567749999999997], [77.30075000000001, 28.567999999999998], [77.3005, 28.567999999999998], [77.3005, 28.568499999999997], [77.29975, 28.568499999999997]]]}, "properties": {"area_km2": 0.4114, "area_ha": 41.14}}, {"type": "Feature", "geometry": {"type": "Polygon", "coordinates": [[[77.3705, 28.47475], [77.3705, 28.473499999999998], [77.37075, 28.473499999999998], [77.37075, 28.47325], [77.37100000000001, 28.47325], [77.37100000000001, 28.473], [77.37125, 28.473], [77.37125, 28.472749999999998], [77.373, 28.472749999999998], [77.373, 28.4715], [77.3725, 28.4715], [77.3725, 28.471249999999998], [77.372, 28.471249999999998], [77.372, 28.470499999999998], [77.3735, 28.470499999999998], [77.3735, 28.471], [77.3755, 28.471], [77.3755, 28.470499999999998], [77.37725, 28.470499999999998], [77.37725, 28.4695], [77.37750000000001, 28.4695], [77.37750000000001, 28.46925], [77.378, 28.46925], [77.378, 28.468999999999998], [77.37975, 28.468999999999998], [77.37975, 28.46875], [77.381, 28.46875], [77.381, 28.468249999999998], [77.38125000000001, 28.468249999999998], [77.38125000000001, 28.468], [77.38275, 28.468], [77.38275, 28.46875], [77.382, 28.46875], [77.382, 28.46925], [77.3815, 28.46925], [77.3815, 28.4695], [77.38050000000001, 28.4695], [77.38050000000001, 28.47], [77.37925000000001, 28.47], [77.37925000000001, 28.471249999999998], [77.379, 28.471249999999998], [77.379, 28.4715], [77.37825000000001, 28.4715], [77.37825000000001, 28.471999999999998], [77.37700000000001, 28.471999999999998], [77.37700000000001, 28.4725], [77.376, 28.4725], [77.376, 28.47175], [77.37475, 28.47175], [77.37475, 28.47375], [77.37450000000001, 28.47375], [77.37450000000001, 28.473999999999997], [77.3725, 28.473999999999997], [77.3725, 28.474249999999998], [77.37150000000001, 28.474249999999998], [77.37150000000001, 28.47475], [77.3705, 28.47475]]]}, "properties": {"area_km2": 0.2442, "area_ha": 24.42}}, {"type": "Feature", "geometry": {"type": "Polygon", "coordinates": [[[77.38075, 28.454749999999997], [77.38075, 28.45425], [77.38025, 28.45425], [77.38025, 28.453999999999997], [77.378, 28.453999999999997], [77.378, 28.45425], [77.37650000000001, 28.45425], [77.37650000000001, 28.4535], [77.37525000000001, 28.4535], [77.37525000000001, 28.452499999999997], [77.37275000000001, 28.452499999999997], [77.37275000000001, 28.451749999999997], [77.37400000000001, 28.451749999999997], [77.37400000000001, 28.451249999999998], [77.37425, 28.451249999999998], [77.37425, 28.45], [77.37375, 28.45], [77.37375, 28.449749999999998], [77.3735, 28.449749999999998], [77.3735, 28.44775], [77.37425, 28.44775], [77.37425, 28.448749999999997], [77.37575000000001, 28.448749999999997], [77.37575000000001, 28.452499999999997], [77.37750000000001, 28.452499999999997], [77.37750000000001, 28.453249999999997], [77.37875000000001, 28.453249999999997], [77.37875000000001, 28.452749999999998], [77.38025, 28.452749999999998], [77.38025, 28.452499999999997], [77.382, 28.452499999999997], [77.382, 28.451999999999998], [77.38275, 28.451999999999998], [77.38275, 28.4535], [77.38475000000001, 28.4535], [77.38475000000001, 28.4545], [77.3815, 28.4545], [77.3815, 28.454749999999997], [77.38075, 28.454749999999997]]]}, "properties": {"area_km2": 0.2375, "area_ha": 23.75}}, {"type": "Feature", "geometry": {"type": "Polygon", "coordinates": [[[77.2305, 28.738999999999997], [77.2305, 28.737], [77.23150000000001, 28.737], [77.23150000000001, 28.73625], [77.23325000000001, 28.73625], [77.23325000000001, 28.73575], [77.23425, 28.73575], [77.23425, 28.73625], [77.23750000000001, 28.73625], [77.23750000000001, 28.73575], [77.23825000000001, 28.73575], [77.23825000000001, 28.73475], [77.2385, 28.73475], [77.2385, 28.734499999999997], [77.2395, 28.734499999999997], [77.2395, 28.733249999999998], [77.239, 28.733249999999998], [77.239, 28.732499999999998], [77.24075, 28.732499999999998], [77.24075, 28.733249999999998], [77.24050000000001, 28.733249999999998], [77.24050000000001, 28.734499999999997], [77.24075, 28.734499999999997], [77.24075, 28.735249999999997], [77.24050000000001, 28.735249999999997], [77.24050000000001, 28.7355], [77.24025, 28.7355], [77.24025, 28.73575], [77.23975, 28.73575], [77.23975, 28.73625], [77.2395, 28.73625], [77.2395, 28.7365], [77.23750000000001, 28.7365], [77.23750000000001, 28.737], [77.23625000000001, 28.737], [77.23625000000001, 28.73725], [77.23575000000001, 28.73725], [77.23575000000001, 28.737499999999997], [77.235, 28.737499999999997], [77.235, 28.73725], [77.23375, 28.73725], [77.23375, 28.73775], [77.23325000000001, 28.73775], [77.23325000000001, 28.738], [77.2325, 28.738], [77.2325, 28.73875], [77.23150000000001, 28.73875], [77.23150000000001, 28.738999999999997], [77.2305, 28.738999999999997]]]}, "properties": {"area_km2": 0.1922, "area_ha": 19.22}}, {"type": "Feature", "geometry": {"type": "Polygon", "coordinates": [[[77.30250000000001, 28.558249999999997], [77.30250000000001, 28.557499999999997], [77.30125000000001, 28.557499999999997], [77.30125000000001, 28.555999999999997], [77.3015, 28.555999999999997], [77.3015, 28.55475], [77.30025, 28.55475], [77.30025, 28.552999999999997], [77.30175000000001, 28.552999999999997], [77.30175000000001, 28.55325], [77.30300000000001, 28.55325], [77.30300000000001, 28.552], [77.30225, 28.552], [77.30225, 28.551], [77.30325, 28.551], [77.30325, 28.551499999999997], [77.30425000000001, 28.551499999999997], [77.30425000000001, 28.552249999999997], [77.30475000000001, 28.552249999999997], [77.30475000000001, 28.552999999999997], [77.3045, 28.552999999999997], [77.3045, 28.554], [77.304, 28.554], [77.304, 28.5555], [77.30375000000001, 28.5555], [77.30375000000001, 28.5565], [77.30325, 28.5565], [77.30325, 28.558249999999997], [77.30250000000001, 28.558249999999997]]]}, "properties": {"area_km2": 0.181, "area_ha": 18.1}}, {"type": "Feature", "geometry": {"type": "Polygon", "coordinates": [[[77.35475000000001, 28.497], [77.35475000000001, 28.49625], [77.354, 28.49625], [77.354, 28.4955], [77.35425000000001, 28.4955], [77.35425000000001, 28.494], [77.354, 28.494], [77.354, 28.49325], [77.355, 28.49325], [77.355, 28.492749999999997], [77.35525000000001, 28.492749999999997], [77.35525000000001, 28.491999999999997], [77.3555, 28.491999999999997], [77.3555, 28.490499999999997], [77.35600000000001, 28.490499999999997], [77.35600000000001, 28.49], [77.35725000000001, 28.49], [77.35725000000001, 28.489749999999997], [77.3575, 28.489749999999997], [77.3575, 28.487499999999997], [77.35775000000001, 28.487499999999997], [77.35775000000001, 28.48725], [77.3585, 28.48725], [77.3585, 28.488999999999997], [77.35825000000001, 28.488999999999997], [77.35825000000001, 28.49075], [77.358, 28.49075], [77.358, 28.491], [77.35775000000001, 28.491], [77.35775000000001, 28.491999999999997], [77.3575, 28.491999999999997], [77.3575, 28.492749999999997], [77.35725000000001, 28.492749999999997], [77.35725000000001, 28.49325], [77.35675, 28.49325], [77.35675, 28.494], [77.35625, 28.494], [77.35625, 28.49475], [77.35600000000001, 28.49475], [77.35600000000001, 28.49525], [77.3555, 28.49525], [77.3555, 28.497], [77.35475000000001, 28.497]]]}, "properties": {"area_km2": 0.1784, "area_ha": 17.84}}, {"type": "Feature", "geometry": {"type": "Polygon", "coordinates": [[[77.31150000000001, 28.563499999999998], [77.31150000000001, 28.561999999999998], [77.31200000000001, 28.561999999999998], [77.31200000000001, 28.5615], [77.31225, 28.5615], [77.31225, 28.561249999999998], [77.31275000000001, 28.561249999999998], [77.31275000000001, 28.560499999999998], [77.313, 28.560499999999998], [77.313, 28.56025], [77.3135, 28.56025], [77.3135, 28.5595], [77.31375000000001, 28.5595], [77.31375000000001, 28.558999999999997], [77.31475, 28.558999999999997], [77.31475, 28.558], [77.31500000000001, 28.558], [77.31500000000001, 28.55775], [77.3155, 28.55775], [77.3155, 28.556749999999997], [77.31575000000001, 28.556749999999997], [77.31575000000001, 28.5565], [77.316, 28.5565], [77.316, 28.55625], [77.31700000000001, 28.55625], [77.31700000000001, 28.555], [77.31625000000001, 28.555], [77.31625000000001, 28.55425], [77.31750000000001, 28.55425], [77.31750000000001, 28.554], [77.31825, 28.554], [77.31825, 28.55425], [77.3185, 28.55425], [77.3185, 28.55575], [77.31825, 28.55575], [77.31825, 28.55625], [77.31725, 28.55625], [77.31725, 28.55725], [77.3165, 28.55725], [77.3165, 28.5585], [77.316, 28.5585], [77.316, 28.558999999999997], [77.31575000000001, 28.558999999999997], [77.31575000000001, 28.56], [77.31500000000001, 28.56], [77.31500000000001, 28.56075], [77.31425, 28.56075], [77.31425, 28.5615], [77.31400000000001, 28.5615], [77.31400000000001, 28.56175], [77.3135, 28.56175], [77.3135, 28.5625], [77.3125, 28.5625], [77.3125, 28.563499999999998], [77.31150000000001, 28.563499999999998]]]}, "properties": {"area_km2": 0.1654, "area_ha": 16.54}}, {"type": "Feature", "geometry": {"type": "Polygon", "coordinates": [[[77.26475, 28.598999999999997], [77.26475, 28.59675], [77.26525000000001, 28.59675], [77.26525000000001, 28.596], [77.26575000000001, 28.596], [77.26575000000001, 28.595], [77.266, 28.595], [77.266, 28.594749999999998], [77.26650000000001, 28.594749999999998], [77.26650000000001, 28.593999999999998], [77.26750000000001, 28.593999999999998], [77.26750000000001, 28.593], [77.2685, 28.593], [77.2685, 28.59225], [77.26975, 28.59225], [77.26975, 28.593], [77.26950000000001, 28.593], [77.26950000000001, 28.59375], [77.26875000000001, 28.59375], [77.26875000000001, 28.594749999999998], [77.2685, 28.594749999999998], [77.2685, 28.595], [77.26825000000001, 28.595], [77.26825000000001, 28.59525], [77.26775, 28.59525], [77.26775, 28.596], [77.26700000000001, 28.596], [77.26700000000001, 28.59675], [77.26675, 28.59675], [77.26675, 28.598], [77.26700000000001, 28.598], [77.26700000000001, 28.59875], [77.26675, 28.59875], [77.26675, 28.598999999999997], [77.26475, 28.598999999999997]]]}, "properties": {"area_km2": 0.143, "area_ha": 14.3}}, {"type": "Feature", "geometry": {"type": "Polygon", "coordinates": [[[77.25575, 28.66], [77.25575, 28.65975], [77.25425000000001, 28.65975], [77.25425000000001, 28.658749999999998], [77.25475, 28.658749999999998], [77.25475, 28.6585], [77.25575, 28.6585], [77.25575, 28.657999999999998], [77.256, 28.657999999999998], [77.256, 28.65775], [77.25675000000001, 28.65775], [77.25675000000001, 28.6575], [77.25725000000001, 28.6575], [77.25725000000001, 28.657249999999998], [77.25775, 28.657249999999998], [77.25775, 28.65675], [77.25875, 28.65675], [77.25875, 28.655749999999998], [77.25975000000001, 28.655749999999998], [77.25975000000001, 28.65475], [77.26050000000001, 28.65475], [77.26050000000001, 28.65625], [77.26025, 28.65625], [77.26025, 28.657249999999998], [77.26, 28.657249999999998], [77.26, 28.657999999999998], [77.25850000000001, 28.657999999999998], [77.25850000000001, 28.65925], [77.25775, 28.65925], [77.25775, 28.659499999999998], [77.25750000000001, 28.659499999999998], [77.25750000000001, 28.65975], [77.257, 28.65975], [77.257, 28.66], [77.25575, 28.66]]]}, "properties": {"area_km2": 0.1361, "area_ha": 13.61}}, {"type": "Feature", "geometry": {"type": "Polygon", "coordinates": [[[77.38525, 28.468249999999998], [77.38525, 28.468], [77.384, 28.468], [77.384, 28.466749999999998], [77.38425000000001, 28.466749999999998], [77.38425000000001, 28.46625], [77.38550000000001, 28.46625], [77.38550000000001, 28.465999999999998], [77.38575, 28.465999999999998], [77.38575, 28.46575], [77.38675, 28.46575], [77.38675, 28.4655], [77.38925, 28.4655], [77.38925, 28.4665], [77.38950000000001, 28.4665], [77.38950000000001, 28.467499999999998], [77.388, 28.467499999999998], [77.388, 28.468], [77.38775000000001, 28.468], [77.38775000000001, 28.468249999999998], [77.38525, 28.468249999999998]]]}, "properties": {"area_km2": 0.1275, "area_ha": 12.75}}, {"type": "Feature", "geometry": {"type": "Polygon", "coordinates": [[[77.325, 28.487499999999997], [77.325, 28.486749999999997], [77.3245, 28.486749999999997], [77.3245, 28.485], [77.32475000000001, 28.485], [77.32475000000001, 28.48475], [77.3255, 28.48475], [77.3255, 28.484499999999997], [77.32625, 28.484499999999997], [77.32625, 28.48475], [77.32650000000001, 28.48475], [77.32650000000001, 28.485], [77.3285, 28.485], [77.3285, 28.483999999999998], [77.32950000000001, 28.483999999999998], [77.32950000000001, 28.485249999999997], [77.32875, 28.485249999999997], [77.32875, 28.4865], [77.328, 28.4865], [77.328, 28.487499999999997], [77.325, 28.487499999999997]]]}, "properties": {"area_km2": 0.1228, "area_ha": 12.28}}, {"type": "Feature", "geometry": {"type": "Polygon", "coordinates": [[[77.2325, 28.710749999999997], [77.2325, 28.71025], [77.232, 28.71025], [77.232, 28.709999999999997], [77.23175, 28.709999999999997], [77.23175, 28.70975], [77.23100000000001, 28.70975], [77.23100000000001, 28.70875], [77.23075, 28.70875], [77.23075, 28.7065], [77.23175, 28.7065], [77.23175, 28.706249999999997], [77.2325, 28.706249999999997], [77.2325, 28.707749999999997], [77.2335, 28.707749999999997], [77.2335, 28.709249999999997], [77.23400000000001, 28.709249999999997], [77.23400000000001, 28.7095], [77.23525000000001, 28.7095], [77.23525000000001, 28.7105], [77.23325000000001, 28.7105], [77.23325000000001, 28.710749999999997], [77.2325, 28.710749999999997]]]}, "properties": {"area_km2": 0.1164, "area_ha": 11.64}}, {"type": "Feature", "geometry": {"type": "Polygon", "coordinates": [[[77.274, 28.599249999999998], [77.274, 28.598999999999997], [77.27250000000001, 28.598999999999997], [77.27250000000001, 28.598499999999998], [77.27075, 28.598499999999998], [77.27075, 28.59725], [77.26950000000001, 28.59725], [77.26950000000001, 28.5975], [77.2685, 28.5975], [77.2685, 28.5965], [77.26975, 28.5965], [77.26975, 28.595499999999998], [77.27125000000001, 28.595499999999998], [77.27125000000001, 28.5965], [77.27175000000001, 28.5965], [77.27175000000001, 28.59675], [77.27275, 28.59675], [77.27275, 28.59825], [77.2745, 28.59825], [77.2745, 28.598499999999998], [77.27600000000001, 28.598499999999998], [77.27600000000001, 28.599249999999998], [77.274, 28.599249999999998]]]}, "properties": {"area_km2": 0.1071, "area_ha": 10.71}}, {"type": "Feature", "geometry": {"type": "Polygon", "coordinates": [[[77.2365, 28.716749999999998], [77.2365, 28.71575], [77.23525000000001, 28.71575], [77.23525000000001, 28.7155], [77.235, 28.7155], [77.235, 28.714], [77.23425, 28.714], [77.23425, 28.71325], [77.233, 28.71325], [77.233, 28.71425], [77.23225000000001, 28.71425], [77.23225000000001, 28.71275], [77.2325, 28.71275], [77.2325, 28.712249999999997], [77.23475, 28.712249999999997], [77.23475, 28.712999999999997], [77.2355, 28.712999999999997], [77.2355, 28.71325], [77.23575000000001, 28.71325], [77.23575000000001, 28.713749999999997], [77.2365, 28.713749999999997], [77.2365, 28.714499999999997], [77.23675, 28.714499999999997], [77.23675, 28.71475], [77.23725, 28.71475], [77.23725, 28.715249999999997], [77.238, 28.715249999999997], [77.238, 28.716749999999998], [77.2365, 28.716749999999998]]]}, "properties": {"area_km2": 0.1069, "area_ha": 10.69}}, {"type": "Feature", "geometry": {"type": "Polygon", "coordinates": [[[77.29225000000001, 28.575999999999997], [77.29225000000001, 28.575], [77.2925, 28.575], [77.2925, 28.57425], [77.29325, 28.57425], [77.29325, 28.573249999999998], [77.29400000000001, 28.573249999999998], [77.29400000000001, 28.57125], [77.29525000000001, 28.57125], [77.29525000000001, 28.571499999999997], [77.29675, 28.571499999999997], [77.29675, 28.572999999999997], [77.2955, 28.572999999999997], [77.2955, 28.573999999999998], [77.29525000000001, 28.573999999999998], [77.29525000000001, 28.57425], [77.29425, 28.57425], [77.29425, 28.574749999999998], [77.29375, 28.574749999999998], [77.29375, 28.575999999999997], [77.29225000000001, 28.575999999999997]]]}, "properties": {"area_km2": 0.105, "area_ha": 10.5}}, {"type": "Feature", "geometry": {"type": "Polygon", "coordinates": [[[77.11075000000001, 28.567749999999997], [77.11075000000001, 28.566499999999998], [77.1115, 28.566499999999998], [77.1115, 28.564999999999998], [77.11025000000001, 28.564999999999998], [77.11025000000001, 28.56475], [77.11, 28.56475], [77.11, 28.564], [77.1135, 28.564], [77.1135, 28.563499999999998], [77.1145, 28.563499999999998], [77.1145, 28.564249999999998], [77.1135, 28.564249999999998], [77.1135, 28.5655], [77.11375000000001, 28.5655], [77.11375000000001, 28.566499999999998], [77.11225, 28.566499999999998], [77.11225, 28.567249999999998], [77.11175, 28.567249999999998], [77.11175, 28.567749999999997], [77.11075000000001, 28.567749999999997]]]}, "properties": {"area_km2": 0.0983, "area_ha": 9.83}}, {"type": "Feature", "geometry": {"type": "Polygon", "coordinates": [[[77.22975000000001, 28.696749999999998], [77.22975000000001, 28.695749999999997], [77.229, 28.695749999999997], [77.229, 28.69475], [77.23, 28.69475], [77.23, 28.691], [77.23025000000001, 28.691], [77.23025000000001, 28.6895], [77.23100000000001, 28.6895], [77.23100000000001, 28.68975], [77.23125, 28.68975], [77.23125, 28.690749999999998], [77.23100000000001, 28.690749999999998], [77.23100000000001, 28.693499999999997], [77.23125, 28.693499999999997], [77.23125, 28.695749999999997], [77.23100000000001, 28.695749999999997], [77.23100000000001, 28.696749999999998], [77.22975000000001, 28.696749999999998]]]}, "properties": {"area_km2": 0.0968, "area_ha": 9.68}}, {"type": "Feature", "geometry": {"type": "Polygon", "coordinates": [[[77.31125, 28.552], [77.31125, 28.549249999999997], [77.31175, 28.549249999999997], [77.31175, 28.548], [77.31, 28.548], [77.31, 28.547749999999997], [77.30925, 28.547749999999997], [77.30925, 28.546999999999997], [77.31, 28.546999999999997], [77.31, 28.546499999999998], [77.31075000000001, 28.546499999999998], [77.31075000000001, 28.546999999999997], [77.3125, 28.546999999999997], [77.3125, 28.548], [77.31325000000001, 28.548], [77.31325000000001, 28.5495], [77.31275000000001, 28.5495], [77.31275000000001, 28.5505], [77.3125, 28.5505], [77.3125, 28.550749999999997], [77.31225, 28.550749999999997], [77.31225, 28.551499999999997], [77.31200000000001, 28.551499999999997], [77.31200000000001, 28.552], [77.31125, 28.552]]]}, "properties": {"area_km2": 0.0949, "area_ha": 9.49}}, {"type": "Feature", "geometry": {"type": "Polygon", "coordinates": [[[77.23150000000001, 28.681749999999997], [77.23150000000001, 28.679499999999997], [77.232, 28.679499999999997], [77.232, 28.67775], [77.23225000000001, 28.67775], [77.23225000000001, 28.67625], [77.233, 28.67625], [77.233, 28.6755], [77.23375, 28.6755], [77.23375, 28.67775], [77.2335, 28.67775], [77.2335, 28.6785], [77.23325000000001, 28.6785], [77.23325000000001, 28.679], [77.233, 28.679], [77.233, 28.680249999999997], [77.23275000000001, 28.680249999999997], [77.23275000000001, 28.68075], [77.23225000000001, 28.68075], [77.23225000000001, 28.681749999999997], [77.23150000000001, 28.681749999999997]]]}, "properties": {"area_km2": 0.0819, "area_ha": 8.19}}, {"type": "Feature", "geometry": {"type": "Polygon", "coordinates": [[[77.18400000000001, 28.72025], [77.18400000000001, 28.72], [77.18325, 28.72], [77.18325, 28.71875], [77.183, 28.71875], [77.183, 28.718], [77.18325, 28.718], [77.18325, 28.71775], [77.18375, 28.71775], [77.18375, 28.717499999999998], [77.18475000000001, 28.717499999999998], [77.18475000000001, 28.71775], [77.18525000000001, 28.71775], [77.18525000000001, 28.718], [77.1855, 28.718], [77.1855, 28.718249999999998], [77.18575000000001, 28.718249999999998], [77.18575000000001, 28.7185], [77.186, 28.7185], [77.186, 28.71875], [77.18625, 28.71875], [77.18625, 28.719749999999998], [77.18475000000001, 28.719749999999998], [77.18475000000001, 28.72025], [77.18400000000001, 28.72025]]]}, "properties": {"area_km2": 0.069, "area_ha": 6.9}}, {"type": "Feature", "geometry": {"type": "Polygon", "coordinates": [[[77.23100000000001, 28.7015], [77.23100000000001, 28.699749999999998], [77.22975000000001, 28.699749999999998], [77.22975000000001, 28.698249999999998], [77.2305, 28.698249999999998], [77.2305, 28.697249999999997], [77.23175, 28.697249999999997], [77.23175, 28.697999999999997], [77.232, 28.697999999999997], [77.232, 28.700499999999998], [77.23175, 28.700499999999998], [77.23175, 28.7015], [77.23100000000001, 28.7015]]]}, "properties": {"area_km2": 0.067, "area_ha": 6.7}}, {"type": "Feature", "geometry": {"type": "Polygon", "coordinates": [[[77.38875, 28.715999999999998], [77.38875, 28.71575], [77.38850000000001, 28.71575], [77.38850000000001, 28.7155], [77.38775000000001, 28.7155], [77.38775000000001, 28.715249999999997], [77.3875, 28.715249999999997], [77.3875, 28.71475], [77.387, 28.71475], [77.387, 28.714499999999997], [77.38650000000001, 28.714499999999997], [77.38650000000001, 28.7125], [77.38725000000001, 28.7125], [77.38725000000001, 28.713749999999997], [77.38850000000001, 28.713749999999997], [77.38850000000001, 28.712999999999997], [77.38950000000001, 28.712999999999997], [77.38950000000001, 28.713749999999997], [77.38875, 28.713749999999997], [77.38875, 28.715], [77.38950000000001, 28.715], [77.38950000000001, 28.715999999999998], [77.38875, 28.715999999999998]]]}, "properties": {"area_km2": 0.0596, "area_ha": 5.96}}, {"type": "Feature", "geometry": {"type": "Polygon", "coordinates": [[[77.08200000000001, 28.563], [77.08200000000001, 28.56225], [77.08275, 28.56225], [77.08275, 28.56075], [77.08325, 28.56075], [77.08325, 28.560499999999998], [77.08375000000001, 28.560499999999998], [77.08375000000001, 28.56025], [77.0845, 28.56025], [77.0845, 28.56075], [77.08500000000001, 28.56075], [77.08500000000001, 28.5625], [77.08475, 28.5625], [77.08475, 28.562749999999998], [77.08275, 28.562749999999998], [77.08275, 28.563], [77.08200000000001, 28.563]]]}, "properties": {"area_km2": 0.0596, "area_ha": 5.96}}, {"type": "Feature", "geometry": {"type": "Polygon", "coordinates": [[[77.08075000000001, 28.554499999999997], [77.08075000000001, 28.55425], [77.07975, 28.55425], [77.07975, 28.55275], [77.07950000000001, 28.55275], [77.07950000000001, 28.552], [77.08125000000001, 28.552], [77.08125000000001, 28.5525], [77.08175, 28.5525], [77.08175, 28.55275], [77.08225, 28.55275], [77.08225, 28.55425], [77.0815, 28.55425], [77.0815, 28.554499999999997], [77.08075000000001, 28.554499999999997]]]}, "properties": {"area_km2": 0.0583, "area_ha": 5.83}}, {"type": "Feature", "geometry": {"type": "Polygon", "coordinates": [[[77.289, 28.5815], [77.289, 28.58075], [77.2895, 28.58075], [77.2895, 28.579749999999997], [77.29, 28.579749999999997], [77.29, 28.57875], [77.29100000000001, 28.57875], [77.29100000000001, 28.577499999999997], [77.29175000000001, 28.577499999999997], [77.29175000000001, 28.5795], [77.29100000000001, 28.5795], [77.29100000000001, 28.581], [77.28975000000001, 28.581], [77.28975000000001, 28.5815], [77.289, 28.5815]]]}, "properties": {"area_km2": 0.0529, "area_ha": 5.29}}, {"type": "Feature", "geometry": {"type": "Polygon", "coordinates": [[[77.38725000000001, 28.728749999999998], [77.38725000000001, 28.72825], [77.38575, 28.72825], [77.38575, 28.727749999999997], [77.38550000000001, 28.727749999999997], [77.38550000000001, 28.726249999999997], [77.38625, 28.726249999999997], [77.38625, 28.726499999999998], [77.38650000000001, 28.726499999999998], [77.38650000000001, 28.72675], [77.38825, 28.72675], [77.38825, 28.727749999999997], [77.388, 28.727749999999997], [77.388, 28.728749999999998], [77.38725000000001, 28.728749999999998]]]}, "properties": {"area_km2": 0.0508, "area_ha": 5.08}}, {"type": "Feature", "geometry": {"type": "Polygon", "coordinates": [[[77.09925000000001, 28.560499999999998], [77.09925000000001, 28.55875], [77.10175000000001, 28.55875], [77.10175000000001, 28.558999999999997], [77.1025, 28.558999999999997], [77.1025, 28.56], [77.1015, 28.56], [77.1015, 28.56025], [77.10025, 28.56025], [77.10025, 28.560499999999998], [77.09925000000001, 28.560499999999998]]]}, "properties": {"area_km2": 0.0508, "area_ha": 5.08}}, {"type": "Feature", "geometry": {"type": "Polygon", "coordinates": [[[77.10225000000001, 28.574749999999998], [77.10225000000001, 28.573749999999997], [77.10300000000001, 28.573749999999997], [77.10300000000001, 28.572999999999997], [77.10375, 28.572999999999997], [77.10375, 28.573249999999998], [77.10525000000001, 28.573249999999998], [77.10525000000001, 28.573999999999998], [77.1055, 28.573999999999998], [77.1055, 28.574749999999998], [77.10225000000001, 28.574749999999998]]]}, "properties": {"area_km2": 0.0488, "area_ha": 4.88}}, {"type": "Feature", "geometry": {"type": "Polygon", "coordinates": [[[77.3155, 28.546499999999998], [77.3155, 28.545499999999997], [77.31400000000001, 28.545499999999997], [77.31400000000001, 28.544999999999998], [77.31325000000001, 28.544999999999998], [77.31325000000001, 28.544249999999998], [77.3135, 28.544249999999998], [77.3135, 28.543999999999997], [77.31500000000001, 28.543999999999997], [77.31500000000001, 28.54375], [77.31575000000001, 28.54375], [77.31575000000001, 28.544999999999998], [77.31625000000001, 28.544999999999998], [77.31625000000001, 28.546499999999998], [77.3155, 28.546499999999998]]]}, "properties": {"area_km2": 0.0488, "area_ha": 4.88}}, {"type": "Feature", "geometry": {"type": "Polygon", "coordinates": [[[77.08025, 28.558249999999997], [77.08025, 28.558], [77.07975, 28.558], [77.07975, 28.5565], [77.07875, 28.5565], [77.07875, 28.55625], [77.0785, 28.55625], [77.0785, 28.555], [77.07925, 28.555], [77.07925, 28.55575], [77.08025, 28.55575], [77.08025, 28.555999999999997], [77.08075000000001, 28.555999999999997], [77.08075000000001, 28.556749999999997], [77.08125000000001, 28.556749999999997], [77.08125000000001, 28.558249999999997], [77.08025, 28.558249999999997]]]}, "properties": {"area_km2": 0.0481, "area_ha": 4.81}}, {"type": "Feature", "geometry": {"type": "Polygon", "coordinates": [[[77.24075, 28.72525], [77.24075, 28.724749999999997], [77.24050000000001, 28.724749999999997], [77.24050000000001, 28.72325], [77.24000000000001, 28.72325], [77.24000000000001, 28.7225], [77.242, 28.7225], [77.242, 28.724999999999998], [77.24175000000001, 28.724999999999998], [77.24175000000001, 28.72525], [77.24075, 28.72525]]]}, "properties": {"area_km2": 0.0467, "area_ha": 4.67}}, {"type": "Feature", "geometry": {"type": "Polygon", "coordinates": [[[77.25875, 28.604499999999998], [77.25875, 28.603749999999998], [77.25850000000001, 28.603749999999998], [77.25850000000001, 28.602749999999997], [77.25875, 28.602749999999997], [77.25875, 28.601999999999997], [77.25975000000001, 28.601999999999997], [77.25975000000001, 28.602249999999998], [77.26100000000001, 28.602249999999998], [77.26100000000001, 28.602999999999998], [77.26050000000001, 28.602999999999998], [77.26050000000001, 28.603749999999998], [77.26, 28.603749999999998], [77.26, 28.604249999999997], [77.2595, 28.604249999999997], [77.2595, 28.604499999999998], [77.25875, 28.604499999999998]]]}, "properties": {"area_km2": 0.0467, "area_ha": 4.67}}, {"type": "Feature", "geometry": {"type": "Polygon", "coordinates": [[[77.099, 28.540999999999997], [77.099, 28.54075], [77.09875000000001, 28.54075], [77.09875000000001, 28.54], [77.09800000000001, 28.54], [77.09800000000001, 28.5385], [77.10000000000001, 28.5385], [77.10000000000001, 28.540999999999997], [77.099, 28.540999999999997]]]}, "properties": {"area_km2": 0.0454, "area_ha": 4.54}}, {"type": "Feature", "geometry": {"type": "Polygon", "coordinates": [[[77.369, 28.4515], [77.369, 28.450999999999997], [77.36775, 28.450999999999997], [77.36775, 28.450249999999997], [77.36800000000001, 28.450249999999997], [77.36800000000001, 28.45], [77.36925000000001, 28.45], [77.36925000000001, 28.448749999999997], [77.37, 28.448749999999997], [77.37, 28.450499999999998], [77.3705, 28.450499999999998], [77.3705, 28.4515], [77.369, 28.4515]]]}, "properties": {"area_km2": 0.0448, "area_ha": 4.48}}, {"type": "Feature", "geometry": {"type": "Polygon", "coordinates": [[[77.078, 28.546], [77.078, 28.544749999999997], [77.07875, 28.544749999999997], [77.07875, 28.5445], [77.07975, 28.5445], [77.07975, 28.544249999999998], [77.081, 28.544249999999998], [77.081, 28.544999999999998], [77.08025, 28.544999999999998], [77.08025, 28.545499999999997], [77.08000000000001, 28.545499999999997], [77.08000000000001, 28.546], [77.078, 28.546]]]}, "properties": {"area_km2": 0.0407, "area_ha": 4.07}}, {"type": "Feature", "geometry": {"type": "Polygon", "coordinates": [[[77.38175000000001, 28.726249999999997], [77.38175000000001, 28.72525], [77.38250000000001, 28.72525], [77.38250000000001, 28.723499999999998], [77.38350000000001, 28.723499999999998], [77.38350000000001, 28.724], [77.38375, 28.724], [77.38375, 28.724999999999998], [77.38350000000001, 28.724999999999998], [77.38350000000001, 28.726249999999997], [77.38175000000001, 28.726249999999997]]]}, "properties": {"area_km2": 0.0406, "area_ha": 4.06}}, {"type": "Feature", "geometry": {"type": "Polygon", "coordinates": [[[77.38725000000001, 28.7105], [77.38725000000001, 28.70975], [77.38600000000001, 28.70975], [77.38600000000001, 28.708499999999997], [77.388, 28.708499999999997], [77.388, 28.709249999999997], [77.38850000000001, 28.709249999999997], [77.38850000000001, 28.7105], [77.38725000000001, 28.7105]]]}, "properties": {"area_km2": 0.0399, "area_ha": 3.99}}, {"type": "Feature", "geometry": {"type": "Polygon", "coordinates": [[[77.24075, 28.732499999999998], [77.24075, 28.73125], [77.24125000000001, 28.73125], [77.24125000000001, 28.729499999999998], [77.24225000000001, 28.729499999999998], [77.24225000000001, 28.732499999999998], [77.24075, 28.732499999999998]]]}, "properties": {"area_km2": 0.0392, "area_ha": 3.92}}, {"type": "Feature", "geometry": {"type": "Polygon", "coordinates": [[[77.27375, 28.5915], [77.27375, 28.59075], [77.272, 28.59075], [77.272, 28.59], [77.27250000000001, 28.59], [77.27250000000001, 28.589499999999997], [77.27375, 28.589499999999997], [77.27375, 28.5905], [77.27525, 28.5905], [77.27525, 28.5915], [77.27375, 28.5915]]]}, "properties": {"area_km2": 0.0373, "area_ha": 3.73}}, {"type": "Feature", "geometry": {"type": "Polygon", "coordinates": [[[77.24350000000001, 28.6175], [77.24350000000001, 28.6165], [77.244, 28.6165], [77.244, 28.61575], [77.24600000000001, 28.61575], [77.24600000000001, 28.61675], [77.24575, 28.61675], [77.24575, 28.616999999999997], [77.245, 28.616999999999997], [77.245, 28.61725], [77.24475000000001, 28.61725], [77.24475000000001, 28.6175], [77.24350000000001, 28.6175]]]}, "properties": {"area_km2": 0.0366, "area_ha": 3.66}}, {"type": "Feature", "geometry": {"type": "Polygon", "coordinates": [[[77.34275000000001, 28.5275], [77.34275000000001, 28.52725], [77.34200000000001, 28.52725], [77.34200000000001, 28.524749999999997], [77.34275000000001, 28.524749999999997], [77.34275000000001, 28.526], [77.34375, 28.526], [77.34375, 28.5275], [77.34275000000001, 28.5275]]]}, "properties": {"area_km2": 0.0366, "area_ha": 3.66}}, {"type": "Feature", "geometry": {"type": "Polygon", "coordinates": [[[77.043, 28.7155], [77.043, 28.715249999999997], [77.042, 28.715249999999997], [77.042, 28.715], [77.04175000000001, 28.715], [77.04175000000001, 28.7135], [77.04325, 28.7135], [77.04325, 28.71425], [77.04375, 28.71425], [77.04375, 28.7155], [77.043, 28.7155]]]}, "properties": {"area_km2": 0.0352, "area_ha": 3.52}}, {"type": "Feature", "geometry": {"type": "Polygon", "coordinates": [[[77.08375000000001, 28.5525], [77.08375000000001, 28.551], [77.08275, 28.551], [77.08275, 28.55025], [77.08375000000001, 28.55025], [77.08375000000001, 28.550749999999997], [77.08500000000001, 28.550749999999997], [77.08500000000001, 28.551], [77.08525, 28.551], [77.08525, 28.552], [77.08500000000001, 28.552], [77.08500000000001, 28.5525], [77.08375000000001, 28.5525]]]}, "properties": {"area_km2": 0.0346, "area_ha": 3.46}}, {"type": "Feature", "geometry": {"type": "Polygon", "coordinates": [[[77.23100000000001, 28.7045], [77.23100000000001, 28.702749999999998], [77.23125, 28.702749999999998], [77.23125, 28.701749999999997], [77.23225000000001, 28.701749999999997], [77.23225000000001, 28.7045], [77.23100000000001, 28.7045]]]}, "properties": {"area_km2": 0.0345, "area_ha": 3.45}}, {"type": "Feature", "geometry": {"type": "Polygon", "coordinates": [[[77.37275000000001, 28.73925], [77.37275000000001, 28.73725], [77.373, 28.73725], [77.373, 28.736749999999997], [77.37400000000001, 28.736749999999997], [77.37400000000001, 28.738], [77.37450000000001, 28.738], [77.37450000000001, 28.73875], [77.3735, 28.73875], [77.3735, 28.73925], [77.37275000000001, 28.73925]]]}, "properties": {"area_km2": 0.0338, "area_ha": 3.38}}, {"type": "Feature", "geometry": {"type": "Polygon", "coordinates": [[[77.24050000000001, 28.727999999999998], [77.24050000000001, 28.727249999999998], [77.24000000000001, 28.727249999999998], [77.24000000000001, 28.726], [77.241, 28.726], [77.241, 28.726499999999998], [77.242, 28.726499999999998], [77.242, 28.727999999999998], [77.24050000000001, 28.727999999999998]]]}, "properties": {"area_km2": 0.0338, "area_ha": 3.38}}, {"type": "Feature", "geometry": {"type": "Polygon", "coordinates": [[[77.31450000000001, 28.552999999999997], [77.31450000000001, 28.552249999999997], [77.31425, 28.552249999999997], [77.31425, 28.551499999999997], [77.31500000000001, 28.551499999999997], [77.31500000000001, 28.551], [77.316, 28.551], [77.316, 28.55125], [77.31625000000001, 28.55125], [77.31625000000001, 28.552249999999997], [77.316, 28.552249999999997], [77.316, 28.55275], [77.3155, 28.55275], [77.3155, 28.552999999999997], [77.31450000000001, 28.552999999999997]]]}, "properties": {"area_km2": 0.0332, "area_ha": 3.32}}, {"type": "Feature", "geometry": {"type": "Polygon", "coordinates": [[[77.3705, 28.470499999999998], [77.3705, 28.47025], [77.37, 28.47025], [77.37, 28.46875], [77.37125, 28.46875], [77.37125, 28.46925], [77.372, 28.46925], [77.372, 28.470499999999998], [77.3705, 28.470499999999998]]]}, "properties": {"area_km2": 0.0326, "area_ha": 3.26}}, {"type": "Feature", "geometry": {"type": "Polygon", "coordinates": [[[77.23925000000001, 28.665499999999998], [77.23925000000001, 28.664499999999997], [77.2395, 28.664499999999997], [77.2395, 28.66425], [77.23975, 28.66425], [77.23975, 28.663999999999998], [77.24175000000001, 28.663999999999998], [77.24175000000001, 28.665], [77.24075, 28.665], [77.24075, 28.665249999999997], [77.24050000000001, 28.665249999999997], [77.24050000000001, 28.665499999999998], [77.23925000000001, 28.665499999999998]]]}, "properties": {"area_km2": 0.0325, "area_ha": 3.25}}, {"type": "Feature", "geometry": {"type": "Polygon", "coordinates": [[[77.14725, 28.64325], [77.14725, 28.642999999999997], [77.147, 28.642999999999997], [77.147, 28.64275], [77.14675000000001, 28.64275], [77.14675000000001, 28.64125], [77.14750000000001, 28.64125], [77.14750000000001, 28.641499999999997], [77.14850000000001, 28.641499999999997], [77.14850000000001, 28.64175], [77.14875, 28.64175], [77.14875, 28.6425], [77.14800000000001, 28.6425], [77.14800000000001, 28.64325], [77.14725, 28.64325]]]}, "properties": {"area_km2": 0.0312, "area_ha": 3.12}}, {"type": "Feature", "geometry": {"type": "Polygon", "coordinates": [[[77.38350000000001, 28.718249999999998], [77.38350000000001, 28.717499999999998], [77.384, 28.717499999999998], [77.384, 28.716749999999998], [77.385, 28.716749999999998], [77.385, 28.71725], [77.38575, 28.71725], [77.38575, 28.718], [77.38550000000001, 28.718], [77.38550000000001, 28.718249999999998], [77.38350000000001, 28.718249999999998]]]}, "properties": {"area_km2": 0.0277, "area_ha": 2.77}}, {"type": "Feature", "geometry": {"type": "Polygon", "coordinates": [[[77.37875000000001, 28.72525], [77.37875000000001, 28.724749999999997], [77.3785, 28.724749999999997], [77.3785, 28.72375], [77.38025, 28.72375], [77.38025, 28.72525], [77.37875000000001, 28.72525]]]}, "properties": {"area_km2": 0.0271, "area_ha": 2.71}}, {"type": "Feature", "geometry": {"type": "Polygon", "coordinates": [[[77.04050000000001, 28.5475], [77.04050000000001, 28.54525], [77.04125, 28.54525], [77.04125, 28.545499999999997], [77.0415, 28.545499999999997], [77.0415, 28.546], [77.042, 28.546], [77.042, 28.54675], [77.0415, 28.54675], [77.0415, 28.54725], [77.04125, 28.54725], [77.04125, 28.5475], [77.04050000000001, 28.5475]]]}, "properties": {"area_km2": 0.0271, "area_ha": 2.71}}, {"type": "Feature", "geometry": {"type": "Polygon", "coordinates": [[[77.37100000000001, 28.454749999999997], [77.37100000000001, 28.4535], [77.37, 28.4535], [77.37, 28.452749999999998], [77.37100000000001, 28.452749999999998], [77.37100000000001, 28.452499999999997], [77.37175, 28.452499999999997], [77.37175, 28.454749999999997], [77.37100000000001, 28.454749999999997]]]}, "properties": {"area_km2": 0.0265, "area_ha": 2.65}}, {"type": "Feature", "geometry": {"type": "Polygon", "coordinates": [[[77.36850000000001, 28.73775], [77.36850000000001, 28.73725], [77.36775, 28.73725], [77.36775, 28.7365], [77.37, 28.7365], [77.37, 28.73775], [77.36850000000001, 28.73775]]]}, "properties": {"area_km2": 0.0264, "area_ha": 2.64}}, {"type": "Feature", "geometry": {"type": "Polygon", "coordinates": [[[77.26325, 28.64325], [77.26325, 28.64175], [77.263, 28.64175], [77.263, 28.641], [77.26425, 28.641], [77.26425, 28.64325], [77.26325, 28.64325]]]}, "properties": {"area_km2": 0.0264, "area_ha": 2.64}}, {"type": "Feature", "geometry": {"type": "Polygon", "coordinates": [[[77.0635, 28.54825], [77.0635, 28.548], [77.06325000000001, 28.548], [77.06325000000001, 28.54725], [77.06375000000001, 28.54725], [77.06375000000001, 28.546999999999997], [77.06475, 28.546999999999997], [77.06475, 28.54725], [77.0655, 28.54725], [77.0655, 28.54825], [77.0635, 28.54825]]]}, "properties": {"area_km2": 0.0264, "area_ha": 2.64}}, {"type": "Feature", "geometry": {"type": "Polygon", "coordinates": [[[77.3605, 28.71275], [77.3605, 28.7125], [77.36, 28.7125], [77.36, 28.71175], [77.36250000000001, 28.71175], [77.36250000000001, 28.71275], [77.3605, 28.71275]]]}, "properties": {"area_km2": 0.0257, "area_ha": 2.57}}, {"type": "Feature", "geometry": {"type": "Polygon", "coordinates": [[[77.3245, 28.523], [77.3245, 28.521749999999997], [77.32400000000001, 28.521749999999997], [77.32400000000001, 28.520999999999997], [77.3255, 28.520999999999997], [77.3255, 28.52275], [77.32525000000001, 28.52275], [77.32525000000001, 28.523], [77.3245, 28.523]]]}, "properties": {"area_km2": 0.0251, "area_ha": 2.51}}, {"type": "Feature", "geometry": {"type": "Polygon", "coordinates": [[[77.22775, 28.73125], [77.22775, 28.729999999999997], [77.22825, 28.729999999999997], [77.22825, 28.72975], [77.22850000000001, 28.72975], [77.22850000000001, 28.729499999999998], [77.22925000000001, 28.729499999999998], [77.22925000000001, 28.730999999999998], [77.229, 28.730999999999998], [77.229, 28.73125], [77.22775, 28.73125]]]}, "properties": {"area_km2": 0.0244, "area_ha": 2.44}}, {"type": "Feature", "geometry": {"type": "Polygon", "coordinates": [[[77.30625, 28.550749999999997], [77.30625, 28.549999999999997], [77.3065, 28.549999999999997], [77.3065, 28.5495], [77.307, 28.5495], [77.307, 28.549], [77.30825, 28.549], [77.30825, 28.549999999999997], [77.30725000000001, 28.549999999999997], [77.30725000000001, 28.550749999999997], [77.30625, 28.550749999999997]]]}, "properties": {"area_km2": 0.0244, "area_ha": 2.44}}, {"type": "Feature", "geometry": {"type": "Polygon", "coordinates": [[[77.1795, 28.731749999999998], [77.1795, 28.7305], [77.179, 28.7305], [77.179, 28.730249999999998], [77.17875000000001, 28.730249999999998], [77.17875000000001, 28.729499999999998], [77.179, 28.729499999999998], [77.179, 28.729249999999997], [77.17975000000001, 28.729249999999997], [77.17975000000001, 28.730249999999998], [77.18025, 28.730249999999998], [77.18025, 28.731749999999998], [77.1795, 28.731749999999998]]]}, "properties": {"area_km2": 0.0237, "area_ha": 2.37}}, {"type": "Feature", "geometry": {"type": "Polygon", "coordinates": [[[77.25550000000001, 28.61675], [77.25550000000001, 28.61425], [77.2565, 28.61425], [77.2565, 28.615499999999997], [77.25625000000001, 28.615499999999997], [77.25625000000001, 28.61675], [77.25550000000001, 28.61675]]]}, "properties": {"area_km2": 0.0237, "area_ha": 2.37}}, {"type": "Feature", "geometry": {"type": "Polygon", "coordinates": [[[77.10775000000001, 28.567749999999997], [77.10775000000001, 28.566], [77.10900000000001, 28.566], [77.10900000000001, 28.56625], [77.10925, 28.56625], [77.10925, 28.567249999999998], [77.1085, 28.567249999999998], [77.1085, 28.567749999999997], [77.10775000000001, 28.567749999999997]]]}, "properties": {"area_km2": 0.0237, "area_ha": 2.37}}, {"type": "Feature", "geometry": {"type": "Polygon", "coordinates": [[[77.37700000000001, 28.7395], [77.37700000000001, 28.73875], [77.37750000000001, 28.73875], [77.37750000000001, 28.73775], [77.3785, 28.73775], [77.3785, 28.7395], [77.37700000000001, 28.7395]]]}, "properties": {"area_km2": 0.023, "area_ha": 2.3}}, {"type": "Feature", "geometry": {"type": "Polygon", "coordinates": [[[77.36625000000001, 28.478499999999997], [77.36625000000001, 28.477249999999998], [77.367, 28.477249999999998], [77.367, 28.476499999999998], [77.36800000000001, 28.476499999999998], [77.36800000000001, 28.477249999999998], [77.36775, 28.477249999999998], [77.36775, 28.477749999999997], [77.367, 28.477749999999997], [77.367, 28.478499999999997], [77.36625000000001, 28.478499999999997]]]}, "properties": {"area_km2": 0.0224, "area_ha": 2.24}}, {"type": "Feature", "geometry": {"type": "Polygon", "coordinates": [[[77.0535, 28.71475], [77.0535, 28.71275], [77.0545, 28.71275], [77.0545, 28.71475], [77.0535, 28.71475]]]}, "properties": {"area_km2": 0.0217, "area_ha": 2.17}}, {"type": "Feature", "geometry": {"type": "Polygon", "coordinates": [[[77.25475, 28.627], [77.25475, 28.625], [77.25575, 28.625], [77.25575, 28.627], [77.25475, 28.627]]]}, "properties": {"area_km2": 0.0217, "area_ha": 2.17}}, {"type": "Feature", "geometry": {"type": "Polygon", "coordinates": [[[77.15925, 28.453], [77.15925, 28.452749999999998], [77.159, 28.452749999999998], [77.159, 28.4515], [77.15925, 28.4515], [77.15925, 28.451249999999998], [77.16000000000001, 28.451249999999998], [77.16000000000001, 28.451749999999997], [77.16025, 28.451749999999997], [77.16025, 28.453], [77.15925, 28.453]]]}, "properties": {"area_km2": 0.021, "area_ha": 2.1}}, {"type": "Feature", "geometry": {"type": "Polygon", "coordinates": [[[77.09150000000001, 28.549999999999997], [77.09150000000001, 28.549249999999997], [77.09125, 28.549249999999997], [77.09125, 28.548499999999997], [77.09150000000001, 28.548499999999997], [77.09150000000001, 28.547749999999997], [77.09225, 28.547749999999997], [77.09225, 28.549999999999997], [77.09150000000001, 28.549999999999997]]]}, "properties": {"area_km2": 0.0203, "area_ha": 2.03}}, {"type": "Feature", "geometry": {"type": "Polygon", "coordinates": [[[77.30925, 28.52975], [77.30925, 28.5295], [77.30900000000001, 28.5295], [77.30900000000001, 28.529249999999998], [77.30850000000001, 28.529249999999998], [77.30850000000001, 28.528499999999998], [77.31025000000001, 28.528499999999998], [77.31025000000001, 28.5295], [77.31, 28.5295], [77.31, 28.52975], [77.30925, 28.52975]]]}, "properties": {"area_km2": 0.0197, "area_ha": 1.97}}, {"type": "Feature", "geometry": {"type": "Polygon", "coordinates": [[[77.38775000000001, 28.708], [77.38775000000001, 28.70675], [77.388, 28.70675], [77.388, 28.7065], [77.38900000000001, 28.7065], [77.38900000000001, 28.708], [77.38775000000001, 28.708]]]}, "properties": {"area_km2": 0.0196, "area_ha": 1.96}}, {"type": "Feature", "geometry": {"type": "Polygon", "coordinates": [[[77.36, 28.484499999999997], [77.36, 28.483749999999997], [77.35975, 28.483749999999997], [77.35975, 28.482999999999997], [77.36, 28.482999999999997], [77.36, 28.48275], [77.361, 28.48275], [77.361, 28.483749999999997], [77.36075000000001, 28.483749999999997], [77.36075000000001, 28.484499999999997], [77.36, 28.484499999999997]]]}, "properties": {"area_km2": 0.019, "area_ha": 1.9}}, {"type": "Feature", "geometry": {"type": "Polygon", "coordinates": [[[77.36925000000001, 28.445249999999998], [77.36925000000001, 28.444249999999997], [77.36975000000001, 28.444249999999997], [77.36975000000001, 28.443749999999998], [77.37075, 28.443749999999998], [77.37075, 28.44475], [77.37025000000001, 28.44475], [77.37025000000001, 28.445249999999998], [77.36925000000001, 28.445249999999998]]]}, "properties": {"area_km2": 0.019, "area_ha": 1.9}}, {"type": "Feature", "geometry": {"type": "Polygon", "coordinates": [[[77.05600000000001, 28.715249999999997], [77.05600000000001, 28.715], [77.05575, 28.715], [77.05575, 28.7135], [77.05675000000001, 28.7135], [77.05675000000001, 28.715249999999997], [77.05600000000001, 28.715249999999997]]]}, "properties": {"area_km2": 0.0183, "area_ha": 1.83}}, {"type": "Feature", "geometry": {"type": "Polygon", "coordinates": [[[77.25875, 28.633499999999998], [77.25875, 28.633], [77.25850000000001, 28.633], [77.25850000000001, 28.631999999999998], [77.25925000000001, 28.631999999999998], [77.25925000000001, 28.63225], [77.2595, 28.63225], [77.2595, 28.632749999999998], [77.26, 28.632749999999998], [77.26, 28.633499999999998], [77.25875, 28.633499999999998]]]}, "properties": {"area_km2": 0.0183, "area_ha": 1.83}}, {"type": "Feature", "geometry": {"type": "Polygon", "coordinates": [[[77.35600000000001, 28.63225], [77.35600000000001, 28.631249999999998], [77.35575, 28.631249999999998], [77.35575, 28.63025], [77.35650000000001, 28.63025], [77.35650000000001, 28.630499999999998], [77.35675, 28.630499999999998], [77.35675, 28.63225], [77.35600000000001, 28.63225]]]}, "properties": {"area_km2": 0.0183, "area_ha": 1.83}}, {"type": "Feature", "geometry": {"type": "Polygon", "coordinates": [[[77.07975, 28.534], [77.07975, 28.533749999999998], [77.07950000000001, 28.533749999999998], [77.07950000000001, 28.5335], [77.07925, 28.5335], [77.07925, 28.5325], [77.0805, 28.5325], [77.0805, 28.534], [77.07975, 28.534]]]}, "properties": {"area_km2": 0.0183, "area_ha": 1.83}}, {"type": "Feature", "geometry": {"type": "Polygon", "coordinates": [[[77.11875, 28.506749999999997], [77.11875, 28.505249999999997], [77.12025000000001, 28.505249999999997], [77.12025000000001, 28.505999999999997], [77.1195, 28.505999999999997], [77.1195, 28.506749999999997], [77.11875, 28.506749999999997]]]}, "properties": {"area_km2": 0.0183, "area_ha": 1.83}}, {"type": "Feature", "geometry": {"type": "Polygon", "coordinates": [[[77.3555, 28.7125], [77.3555, 28.712249999999997], [77.35525000000001, 28.712249999999997], [77.35525000000001, 28.711499999999997], [77.35600000000001, 28.711499999999997], [77.35600000000001, 28.71175], [77.35725000000001, 28.71175], [77.35725000000001, 28.7125], [77.3555, 28.7125]]]}, "properties": {"area_km2": 0.0176, "area_ha": 1.76}}, {"type": "Feature", "geometry": {"type": "Polygon", "coordinates": [[[77.38525, 28.707749999999997], [77.38525, 28.706], [77.38600000000001, 28.706], [77.38600000000001, 28.7065], [77.38625, 28.7065], [77.38625, 28.707749999999997], [77.38525, 28.707749999999997]]]}, "properties": {"area_km2": 0.0176, "area_ha": 1.76}}, {"type": "Feature", "geometry": {"type": "Polygon", "coordinates": [[[77.051, 28.65525], [77.051, 28.654], [77.052, 28.654], [77.052, 28.654249999999998], [77.05250000000001, 28.654249999999998], [77.05250000000001, 28.654999999999998], [77.052, 28.654999999999998], [77.052, 28.65525], [77.051, 28.65525]]]}, "properties": {"area_km2": 0.0176, "area_ha": 1.76}}, {"type": "Feature", "geometry": {"type": "Polygon", "coordinates": [[[77.06200000000001, 28.517999999999997], [77.06200000000001, 28.51675], [77.06325000000001, 28.51675], [77.06325000000001, 28.517999999999997], [77.06200000000001, 28.517999999999997]]]}, "properties": {"area_km2": 0.017, "area_ha": 1.7}}, {"type": "Feature", "geometry": {"type": "Polygon", "coordinates": [[[77.11025000000001, 28.448749999999997], [77.11025000000001, 28.447499999999998], [77.1115, 28.447499999999998], [77.1115, 28.448749999999997], [77.11025000000001, 28.448749999999997]]]}, "properties": {"area_km2": 0.017, "area_ha": 1.7}}, {"type": "Feature", "geometry": {"type": "Polygon", "coordinates": [[[77.38025, 28.72825], [77.38025, 28.726999999999997], [77.3815, 28.726999999999997], [77.3815, 28.72825], [77.38025, 28.72825]]]}, "properties": {"area_km2": 0.0169, "area_ha": 1.69}}, {"type": "Feature", "geometry": {"type": "Polygon", "coordinates": [[[77.152, 28.638499999999997], [77.152, 28.637749999999997], [77.15225000000001, 28.637749999999997], [77.15225000000001, 28.636999999999997], [77.153, 28.636999999999997], [77.153, 28.637249999999998], [77.15325, 28.637249999999998], [77.15325, 28.63825], [77.153, 28.63825], [77.153, 28.638499999999997], [77.152, 28.638499999999997]]]}, "properties": {"area_km2": 0.0169, "area_ha": 1.69}}, {"type": "Feature", "geometry": {"type": "Polygon", "coordinates": [[[77.10900000000001, 28.557], [77.10900000000001, 28.55575], [77.11025000000001, 28.55575], [77.11025000000001, 28.557], [77.10900000000001, 28.557]]]}, "properties": {"area_km2": 0.0169, "area_ha": 1.69}}, {"type": "Feature", "geometry": {"type": "Polygon", "coordinates": [[[77.30900000000001, 28.526], [77.30900000000001, 28.524749999999997], [77.31025000000001, 28.524749999999997], [77.31025000000001, 28.526], [77.30900000000001, 28.526]]]}, "properties": {"area_km2": 0.0169, "area_ha": 1.69}}, {"type": "Feature", "geometry": {"type": "Polygon", "coordinates": [[[77.27550000000001, 28.59375], [77.27550000000001, 28.59225], [77.27650000000001, 28.59225], [77.27650000000001, 28.59375], [77.27550000000001, 28.59375]]]}, "properties": {"area_km2": 0.0163, "area_ha": 1.63}}, {"type": "Feature", "geometry": {"type": "Polygon", "coordinates": [[[77.30000000000001, 28.558999999999997], [77.30000000000001, 28.557499999999997], [77.301, 28.557499999999997], [77.301, 28.558999999999997], [77.30000000000001, 28.558999999999997]]]}, "properties": {"area_km2": 0.0163, "area_ha": 1.63}}, {"type": "Feature", "geometry": {"type": "Polygon", "coordinates": [[[77.07375, 28.545749999999998], [77.07375, 28.544249999999998], [77.075, 28.544249999999998], [77.075, 28.544999999999998], [77.0745, 28.544999999999998], [77.0745, 28.545749999999998], [77.07375, 28.545749999999998]]]}, "properties": {"area_km2": 0.0163, "area_ha": 1.63}}, {"type": "Feature", "geometry": {"type": "Polygon", "coordinates": [[[77.058, 28.571749999999998], [77.058, 28.5705], [77.05875, 28.5705], [77.05875, 28.570749999999997], [77.05925, 28.570749999999997], [77.05925, 28.571749999999998], [77.058, 28.571749999999998]]]}, "properties": {"area_km2": 0.0156, "area_ha": 1.56}}, {"type": "Feature", "geometry": {"type": "Polygon", "coordinates": [[[77.05875, 28.568749999999998], [77.05875, 28.568499999999997], [77.05850000000001, 28.568499999999997], [77.05850000000001, 28.5675], [77.05975000000001, 28.5675], [77.05975000000001, 28.568499999999997], [77.0595, 28.568499999999997], [77.0595, 28.568749999999998], [77.05875, 28.568749999999998]]]}, "properties": {"area_km2": 0.0156, "area_ha": 1.56}}, {"type": "Feature", "geometry": {"type": "Polygon", "coordinates": [[[77.38350000000001, 28.7385], [77.38350000000001, 28.736749999999997], [77.38425000000001, 28.736749999999997], [77.38425000000001, 28.7385], [77.38350000000001, 28.7385]]]}, "properties": {"area_km2": 0.0142, "area_ha": 1.42}}, {"type": "Feature", "geometry": {"type": "Polygon", "coordinates": [[[77.238, 28.7185], [77.238, 28.717], [77.23875000000001, 28.717], [77.23875000000001, 28.71775], [77.239, 28.71775], [77.239, 28.7185], [77.238, 28.7185]]]}, "properties": {"area_km2": 0.0142, "area_ha": 1.42}}, {"type": "Feature", "geometry": {"type": "Polygon", "coordinates": [[[77.04700000000001, 28.71575], [77.04700000000001, 28.71425], [77.048, 28.71425], [77.048, 28.715], [77.04775000000001, 28.715], [77.04775000000001, 28.71575], [77.04700000000001, 28.71575]]]}, "properties": {"area_km2": 0.0142, "area_ha": 1.42}}, {"type": "Feature", "geometry": {"type": "Polygon", "coordinates": [[[77.11775, 28.56625], [77.11775, 28.5655], [77.11850000000001, 28.5655], [77.11850000000001, 28.56525], [77.1195, 28.56525], [77.1195, 28.566], [77.11850000000001, 28.566], [77.11850000000001, 28.56625], [77.11775, 28.56625]]]}, "properties": {"area_km2": 0.0142, "area_ha": 1.42}}, {"type": "Feature", "geometry": {"type": "Polygon", "coordinates": [[[77.31975000000001, 28.520999999999997], [77.31975000000001, 28.520249999999997], [77.3215, 28.520249999999997], [77.3215, 28.520999999999997], [77.31975000000001, 28.520999999999997]]]}, "properties": {"area_km2": 0.0142, "area_ha": 1.42}}, {"type": "Feature", "geometry": {"type": "Polygon", "coordinates": [[[77.3675, 28.45525], [77.3675, 28.4545], [77.36925000000001, 28.4545], [77.36925000000001, 28.45525], [77.3675, 28.45525]]]}, "properties": {"area_km2": 0.0142, "area_ha": 1.42}}, {"type": "Feature", "geometry": {"type": "Polygon", "coordinates": [[[77.0905, 28.551499999999997], [77.0905, 28.5505], [77.09175, 28.5505], [77.09175, 28.551499999999997], [77.0905, 28.551499999999997]]]}, "properties": {"area_km2": 0.0136, "area_ha": 1.36}}, {"type": "Feature", "geometry": {"type": "Polygon", "coordinates": [[[77.30775000000001, 28.52525], [77.30775000000001, 28.523999999999997], [77.30875, 28.523999999999997], [77.30875, 28.52525], [77.30775000000001, 28.52525]]]}, "properties": {"area_km2": 0.0136, "area_ha": 1.36}}, {"type": "Feature", "geometry": {"type": "Polygon", "coordinates": [[[77.25175, 28.6895], [77.25175, 28.688499999999998], [77.253, 28.688499999999998], [77.253, 28.6895], [77.25175, 28.6895]]]}, "properties": {"area_km2": 0.0135, "area_ha": 1.35}}, {"type": "Feature", "geometry": {"type": "Polygon", "coordinates": [[[77.23375, 28.671999999999997], [77.23375, 28.671], [77.235, 28.671], [77.235, 28.67175], [77.23475, 28.67175], [77.23475, 28.671999999999997], [77.23375, 28.671999999999997]]]}, "properties": {"area_km2": 0.0129, "area_ha": 1.29}}, {"type": "Feature", "geometry": {"type": "Polygon", "coordinates": [[[77.3045, 28.572999999999997], [77.3045, 28.571749999999998], [77.30550000000001, 28.571749999999998], [77.30550000000001, 28.572499999999998], [77.30525, 28.572499999999998], [77.30525, 28.572999999999997], [77.3045, 28.572999999999997]]]}, "properties": {"area_km2": 0.0122, "area_ha": 1.22}}, {"type": "Feature", "geometry": {"type": "Polygon", "coordinates": [[[77.3015, 28.559749999999998], [77.3015, 28.55875], [77.30250000000001, 28.55875], [77.30250000000001, 28.559749999999998], [77.3015, 28.559749999999998]]]}, "properties": {"area_km2": 0.0108, "area_ha": 1.08}}, {"type": "Feature", "geometry": {"type": "Polygon", "coordinates": [[[77.30875, 28.555249999999997], [77.30875, 28.55425], [77.30975000000001, 28.55425], [77.30975000000001, 28.555249999999997], [77.30875, 28.555249999999997]]]}, "properties": {"area_km2": 0.0108, "area_ha": 1.08}}, {"type": "Feature", "geometry": {"type": "Polygon", "coordinates": [[[77.3755, 28.721249999999998], [77.3755, 28.720499999999998], [77.37675, 28.720499999999998], [77.37675, 28.721249999999998], [77.3755, 28.721249999999998]]]}, "properties": {"area_km2": 0.0102, "area_ha": 1.02}}, {"type": "Feature", "geometry": {"type": "Polygon", "coordinates": [[[77.23975, 28.69125], [77.23975, 28.69025], [77.24075, 28.69025], [77.24075, 28.691], [77.24050000000001, 28.691], [77.24050000000001, 28.69125], [77.23975, 28.69125]]]}, "properties": {"area_km2": 0.0102, "area_ha": 1.02}}, {"type": "Feature", "geometry": {"type": "Polygon", "coordinates": [[[77.11250000000001, 28.573999999999998], [77.11250000000001, 28.573249999999998], [77.11375000000001, 28.573249999999998], [77.11375000000001, 28.573999999999998], [77.11250000000001, 28.573999999999998]]]}, "properties": {"area_km2": 0.0102, "area_ha": 1.02}}, {"type": "Feature", "geometry": {"type": "Polygon", "coordinates": [[[77.09775, 28.56075], [77.09775, 28.56], [77.099, 28.56], [77.099, 28.56075], [77.09775, 28.56075]]]}, "properties": {"area_km2": 0.0102, "area_ha": 1.02}}, {"type": "Feature", "geometry": {"type": "Polygon", "coordinates": [[[77.087, 28.55125], [77.087, 28.549999999999997], [77.08775, 28.549999999999997], [77.08775, 28.55125], [77.087, 28.55125]]]}, "properties": {"area_km2": 0.0102, "area_ha": 1.02}}, {"type": "Feature", "geometry": {"type": "Polygon", "coordinates": [[[77.04325, 28.539749999999998], [77.04325, 28.5385], [77.04400000000001, 28.5385], [77.04400000000001, 28.539749999999998], [77.04325, 28.539749999999998]]]}, "properties": {"area_km2": 0.0102, "area_ha": 1.02}}, {"type": "Feature", "geometry": {"type": "Polygon", "coordinates": [[[77.11075000000001, 28.537999999999997], [77.11075000000001, 28.537], [77.11175, 28.537], [77.11175, 28.53775], [77.1115, 28.53775], [77.1115, 28.537999999999997], [77.11075000000001, 28.537999999999997]]]}, "properties": {"area_km2": 0.0102, "area_ha": 1.02}}, {"type": "Feature", "geometry": {"type": "Polygon", "coordinates": [[[77.3635, 28.480749999999997], [77.3635, 28.479499999999998], [77.36425000000001, 28.479499999999998], [77.36425000000001, 28.480749999999997], [77.3635, 28.480749999999997]]]}, "properties": {"area_km2": 0.0102, "area_ha": 1.02}}, {"type": "Feature", "geometry": {"type": "Polygon", "coordinates": [[[77.29375, 28.4775], [77.29375, 28.476249999999997], [77.2945, 28.476249999999997], [77.2945, 28.4775], [77.29375, 28.4775]]]}, "properties": {"area_km2": 0.0102, "area_ha": 1.02}}, {"type": "Feature", "geometry": {"type": "Polygon", "coordinates": [[[77.3725, 28.461499999999997], [77.3725, 28.460749999999997], [77.37375, 28.460749999999997], [77.37375, 28.461499999999997], [77.3725, 28.461499999999997]]]}, "properties": {"area_km2": 0.0102, "area_ha": 1.02}}, {"type": "Feature", "geometry": {"type": "Polygon", "coordinates": [[[77.10475000000001, 28.449499999999997], [77.10475000000001, 28.448749999999997], [77.10600000000001, 28.448749999999997], [77.10600000000001, 28.449499999999997], [77.10475000000001, 28.449499999999997]]]}, "properties": {"area_km2": 0.0102, "area_ha": 1.02}}, {"type": "Feature", "geometry": {"type": "Polygon", "coordinates": [[[77.36675000000001, 28.73925], [77.36675000000001, 28.7385], [77.36800000000001, 28.7385], [77.36800000000001, 28.73925], [77.36675000000001, 28.73925]]]}, "properties": {"area_km2": 0.0101, "area_ha": 1.01}}, {"type": "Feature", "geometry": {"type": "Polygon", "coordinates": [[[77.0545, 28.514], [77.0545, 28.51325], [77.05475000000001, 28.51325], [77.05475000000001, 28.512999999999998], [77.05550000000001, 28.512999999999998], [77.05550000000001, 28.513749999999998], [77.05525, 28.513749999999998], [77.05525, 28.514], [77.0545, 28.514]]]}, "properties": {"area_km2": 0.0095, "area_ha": 0.95}}, {"type": "Feature", "geometry": {"type": "Polygon", "coordinates": [[[77.38775000000001, 28.726249999999997], [77.38775000000001, 28.72525], [77.38850000000001, 28.72525], [77.38850000000001, 28.726249999999997], [77.38775000000001, 28.726249999999997]]]}, "properties": {"area_km2": 0.0081, "area_ha": 0.81}}, {"type": "Feature", "geometry": {"type": "Polygon", "coordinates": [[[77.25, 28.662], [77.25, 28.660999999999998], [77.25075000000001, 28.660999999999998], [77.25075000000001, 28.662], [77.25, 28.662]]]}, "properties": {"area_km2": 0.0081, "area_ha": 0.81}}, {"type": "Feature", "geometry": {"type": "Polygon", "coordinates": [[[77.15400000000001, 28.645249999999997], [77.15400000000001, 28.644499999999997], [77.155, 28.644499999999997], [77.155, 28.645249999999997], [77.15400000000001, 28.645249999999997]]]}, "properties": {"area_km2": 0.0081, "area_ha": 0.81}}, {"type": "Feature", "geometry": {"type": "Polygon", "coordinates": [[[77.16025, 28.644], [77.16025, 28.64325], [77.16125000000001, 28.64325], [77.16125000000001, 28.644], [77.16025, 28.644]]]}, "properties": {"area_km2": 0.0081, "area_ha": 0.81}}, {"type": "Feature", "geometry": {"type": "Polygon", "coordinates": [[[77.15100000000001, 28.64275], [77.15100000000001, 28.642], [77.152, 28.642], [77.152, 28.64275], [77.15100000000001, 28.64275]]]}, "properties": {"area_km2": 0.0081, "area_ha": 0.81}}, {"type": "Feature", "geometry": {"type": "Polygon", "coordinates": [[[77.26175, 28.637999999999998], [77.26175, 28.637249999999998], [77.26275000000001, 28.637249999999998], [77.26275000000001, 28.637999999999998], [77.26175, 28.637999999999998]]]}, "properties": {"area_km2": 0.0081, "area_ha": 0.81}}, {"type": "Feature", "geometry": {"type": "Polygon", "coordinates": [[[77.27875, 28.613999999999997], [77.27875, 28.613], [77.27950000000001, 28.613], [77.27950000000001, 28.613999999999997], [77.27875, 28.613999999999997]]]}, "properties": {"area_km2": 0.0081, "area_ha": 0.81}}, {"type": "Feature", "geometry": {"type": "Polygon", "coordinates": [[[77.2565, 28.609499999999997], [77.2565, 28.608749999999997], [77.25750000000001, 28.608749999999997], [77.25750000000001, 28.609499999999997], [77.2565, 28.609499999999997]]]}, "properties": {"area_km2": 0.0081, "area_ha": 0.81}}, {"type": "Feature", "geometry": {"type": "Polygon", "coordinates": [[[77.277, 28.58175], [77.277, 28.581], [77.278, 28.581], [77.278, 28.58175], [77.277, 28.58175]]]}, "properties": {"area_km2": 0.0081, "area_ha": 0.81}}, {"type": "Feature", "geometry": {"type": "Polygon", "coordinates": [[[77.34725, 28.5655], [77.34725, 28.5645], [77.34800000000001, 28.5645], [77.34800000000001, 28.5655], [77.34725, 28.5655]]]}, "properties": {"area_km2": 0.0081, "area_ha": 0.81}}, {"type": "Feature", "geometry": {"type": "Polygon", "coordinates": [[[77.311, 28.5645], [77.311, 28.56375], [77.31200000000001, 28.56375], [77.31200000000001, 28.5645], [77.311, 28.5645]]]}, "properties": {"area_km2": 0.0081, "area_ha": 0.81}}, {"type": "Feature", "geometry": {"type": "Polygon", "coordinates": [[[77.11575, 28.56325], [77.11575, 28.5625], [77.11675000000001, 28.5625], [77.11675000000001, 28.56325], [77.11575, 28.56325]]]}, "properties": {"area_km2": 0.0081, "area_ha": 0.81}}, {"type": "Feature", "geometry": {"type": "Polygon", "coordinates": [[[77.33175, 28.497], [77.33175, 28.496], [77.33250000000001, 28.496], [77.33250000000001, 28.497], [77.33175, 28.497]]]}, "properties": {"area_km2": 0.0081, "area_ha": 0.81}}, {"type": "Feature", "geometry": {"type": "Polygon", "coordinates": [[[77.37225000000001, 28.483749999999997], [77.37225000000001, 28.48275], [77.373, 28.48275], [77.373, 28.483749999999997], [77.37225000000001, 28.483749999999997]]]}, "properties": {"area_km2": 0.0081, "area_ha": 0.81}}, {"type": "Feature", "geometry": {"type": "Polygon", "coordinates": [[[77.36825, 28.476249999999997], [77.36825, 28.47525], [77.369, 28.47525], [77.369, 28.476249999999997], [77.36825, 28.476249999999997]]]}, "properties": {"area_km2": 0.0081, "area_ha": 0.81}}, {"type": "Feature", "geometry": {"type": "Polygon", "coordinates": [[[77.23750000000001, 28.738999999999997], [77.23750000000001, 28.738249999999997], [77.23825000000001, 28.738249999999997], [77.23825000000001, 28.738999999999997], [77.23750000000001, 28.738999999999997]]]}, "properties": {"area_km2": 0.0061, "area_ha": 0.61}}, {"type": "Feature", "geometry": {"type": "Polygon", "coordinates": [[[77.3665, 28.733749999999997], [77.3665, 28.732999999999997], [77.36725000000001, 28.732999999999997], [77.36725000000001, 28.733749999999997], [77.3665, 28.733749999999997]]]}, "properties": {"area_km2": 0.0061, "area_ha": 0.61}}, {"type": "Feature", "geometry": {"type": "Polygon", "coordinates": [[[77.34750000000001, 28.730999999999998], [77.34750000000001, 28.730249999999998], [77.34825000000001, 28.730249999999998], [77.34825000000001, 28.730999999999998], [77.34750000000001, 28.730999999999998]]]}, "properties": {"area_km2": 0.0061, "area_ha": 0.61}}, {"type": "Feature", "geometry": {"type": "Polygon", "coordinates": [[[77.31825, 28.730749999999997], [77.31825, 28.729999999999997], [77.319, 28.729999999999997], [77.319, 28.730749999999997], [77.31825, 28.730749999999997]]]}, "properties": {"area_km2": 0.0061, "area_ha": 0.61}}, {"type": "Feature", "geometry": {"type": "Polygon", "coordinates": [[[77.31725, 28.727749999999997], [77.31725, 28.726999999999997], [77.31800000000001, 28.726999999999997], [77.31800000000001, 28.727749999999997], [77.31725, 28.727749999999997]]]}, "properties": {"area_km2": 0.0061, "area_ha": 0.61}}, {"type": "Feature", "geometry": {"type": "Polygon", "coordinates": [[[77.32975, 28.708499999999997], [77.32975, 28.707749999999997], [77.3305, 28.707749999999997], [77.3305, 28.708499999999997], [77.32975, 28.708499999999997]]]}, "properties": {"area_km2": 0.0061, "area_ha": 0.61}}, {"type": "Feature", "geometry": {"type": "Polygon", "coordinates": [[[77.38875, 28.702749999999998], [77.38875, 28.701999999999998], [77.38950000000001, 28.701999999999998], [77.38950000000001, 28.702749999999998], [77.38875, 28.702749999999998]]]}, "properties": {"area_km2": 0.0061, "area_ha": 0.61}}, {"type": "Feature", "geometry": {"type": "Polygon", "coordinates": [[[77.23725, 28.667499999999997], [77.23725, 28.666749999999997], [77.238, 28.666749999999997], [77.238, 28.667499999999997], [77.23725, 28.667499999999997]]]}, "properties": {"area_km2": 0.0061, "area_ha": 0.61}}, {"type": "Feature", "geometry": {"type": "Polygon", "coordinates": [[[77.242, 28.66425], [77.242, 28.6635], [77.24275, 28.6635], [77.24275, 28.66425], [77.242, 28.66425]]]}, "properties": {"area_km2": 0.0061, "area_ha": 0.61}}, {"type": "Feature", "geometry": {"type": "Polygon", "coordinates": [[[77.25150000000001, 28.660999999999998], [77.25150000000001, 28.660249999999998], [77.25225, 28.660249999999998], [77.25225, 28.660999999999998], [77.25150000000001, 28.660999999999998]]]}, "properties": {"area_km2": 0.0061, "area_ha": 0.61}}, {"type": "Feature", "geometry": {"type": "Polygon", "coordinates": [[[77.15875000000001, 28.64325], [77.15875000000001, 28.6425], [77.15950000000001, 28.6425], [77.15950000000001, 28.64325], [77.15875000000001, 28.64325]]]}, "properties": {"area_km2": 0.0061, "area_ha": 0.61}}, {"type": "Feature", "geometry": {"type": "Polygon", "coordinates": [[[77.15075, 28.639249999999997], [77.15075, 28.638499999999997], [77.15150000000001, 28.638499999999997], [77.15150000000001, 28.639249999999997], [77.15075, 28.639249999999997]]]}, "properties": {"area_km2": 0.0061, "area_ha": 0.61}}, {"type": "Feature", "geometry": {"type": "Polygon", "coordinates": [[[77.15925, 28.6295], [77.15925, 28.62875], [77.16000000000001, 28.62875], [77.16000000000001, 28.6295], [77.15925, 28.6295]]]}, "properties": {"area_km2": 0.0061, "area_ha": 0.61}}, {"type": "Feature", "geometry": {"type": "Polygon", "coordinates": [[[77.34, 28.59225], [77.34, 28.5915], [77.34075, 28.5915], [77.34075, 28.59225], [77.34, 28.59225]]]}, "properties": {"area_km2": 0.0061, "area_ha": 0.61}}, {"type": "Feature", "geometry": {"type": "Polygon", "coordinates": [[[77.28725, 28.58775], [77.28725, 28.587], [77.28800000000001, 28.587], [77.28800000000001, 28.58775], [77.28725, 28.58775]]]}, "properties": {"area_km2": 0.0061, "area_ha": 0.61}}, {"type": "Feature", "geometry": {"type": "Polygon", "coordinates": [[[77.295, 28.568749999999998], [77.295, 28.567999999999998], [77.29575000000001, 28.567999999999998], [77.29575000000001, 28.568749999999998], [77.295, 28.568749999999998]]]}, "properties": {"area_km2": 0.0061, "area_ha": 0.61}}, {"type": "Feature", "geometry": {"type": "Polygon", "coordinates": [[[77.119, 28.546], [77.119, 28.54525], [77.11975000000001, 28.54525], [77.11975000000001, 28.546], [77.119, 28.546]]]}, "properties": {"area_km2": 0.0061, "area_ha": 0.61}}, {"type": "Feature", "geometry": {"type": "Polygon", "coordinates": [[[77.09225, 28.542499999999997], [77.09225, 28.541749999999997], [77.093, 28.541749999999997], [77.093, 28.542499999999997], [77.09225, 28.542499999999997]]]}, "properties": {"area_km2": 0.0061, "area_ha": 0.61}}, {"type": "Feature", "geometry": {"type": "Polygon", "coordinates": [[[77.10350000000001, 28.54], [77.10350000000001, 28.53925], [77.10425000000001, 28.53925], [77.10425000000001, 28.54], [77.10350000000001, 28.54]]]}, "properties": {"area_km2": 0.0061, "area_ha": 0.61}}, {"type": "Feature", "geometry": {"type": "Polygon", "coordinates": [[[77.13825, 28.537], [77.13825, 28.53625], [77.13900000000001, 28.53625], [77.13900000000001, 28.537], [77.13825, 28.537]]]}, "properties": {"area_km2": 0.0061, "area_ha": 0.61}}, {"type": "Feature", "geometry": {"type": "Polygon", "coordinates": [[[77.06525, 28.535], [77.06525, 28.53425], [77.066, 28.53425], [77.066, 28.535], [77.06525, 28.535]]]}, "properties": {"area_km2": 0.0061, "area_ha": 0.61}}, {"type": "Feature", "geometry": {"type": "Polygon", "coordinates": [[[77.31625000000001, 28.521749999999997], [77.31625000000001, 28.520999999999997], [77.31700000000001, 28.520999999999997], [77.31700000000001, 28.521749999999997], [77.31625000000001, 28.521749999999997]]]}, "properties": {"area_km2": 0.0061, "area_ha": 0.61}}, {"type": "Feature", "geometry": {"type": "Polygon", "coordinates": [[[77.32275, 28.52125], [77.32275, 28.5205], [77.32350000000001, 28.5205], [77.32350000000001, 28.52125], [77.32275, 28.52125]]]}, "properties": {"area_km2": 0.0061, "area_ha": 0.61}}, {"type": "Feature", "geometry": {"type": "Polygon", "coordinates": [[[77.35350000000001, 28.513749999999998], [77.35350000000001, 28.512999999999998], [77.35425000000001, 28.512999999999998], [77.35425000000001, 28.513749999999998], [77.35350000000001, 28.513749999999998]]]}, "properties": {"area_km2": 0.0061, "area_ha": 0.61}}, {"type": "Feature", "geometry": {"type": "Polygon", "coordinates": [[[77.11500000000001, 28.505499999999998], [77.11500000000001, 28.504749999999998], [77.11575, 28.504749999999998], [77.11575, 28.505499999999998], [77.11500000000001, 28.505499999999998]]]}, "properties": {"area_km2": 0.0061, "area_ha": 0.61}}, {"type": "Feature", "geometry": {"type": "Polygon", "coordinates": [[[77.111, 28.5045], [77.111, 28.50375], [77.11175, 28.50375], [77.11175, 28.5045], [77.111, 28.5045]]]}, "properties": {"area_km2": 0.0061, "area_ha": 0.61}}, {"type": "Feature", "geometry": {"type": "Polygon", "coordinates": [[[77.11025000000001, 28.50125], [77.11025000000001, 28.5005], [77.111, 28.5005], [77.111, 28.50125], [77.11025000000001, 28.50125]]]}, "properties": {"area_km2": 0.0061, "area_ha": 0.61}}, {"type": "Feature", "geometry": {"type": "Polygon", "coordinates": [[[77.3815, 28.4855], [77.3815, 28.48475], [77.38225000000001, 28.48475], [77.38225000000001, 28.4855], [77.3815, 28.4855]]]}, "properties": {"area_km2": 0.0061, "area_ha": 0.61}}, {"type": "Feature", "geometry": {"type": "Polygon", "coordinates": [[[77.37575000000001, 28.482249999999997], [77.37575000000001, 28.481499999999997], [77.37650000000001, 28.481499999999997], [77.37650000000001, 28.482249999999997], [77.37575000000001, 28.482249999999997]]]}, "properties": {"area_km2": 0.0061, "area_ha": 0.61}}, {"type": "Feature", "geometry": {"type": "Polygon", "coordinates": [[[77.36525, 28.479], [77.36525, 28.47825], [77.366, 28.47825], [77.366, 28.479], [77.36525, 28.479]]]}, "properties": {"area_km2": 0.0061, "area_ha": 0.61}}, {"type": "Feature", "geometry": {"type": "Polygon", "coordinates": [[[77.20425, 28.47175], [77.20425, 28.471], [77.20500000000001, 28.471], [77.20500000000001, 28.47175], [77.20425, 28.47175]]]}, "properties": {"area_km2": 0.0061, "area_ha": 0.61}}, {"type": "Feature", "geometry": {"type": "Polygon", "coordinates": [[[77.084, 28.47025], [77.084, 28.4695], [77.08475, 28.4695], [77.08475, 28.47025], [77.084, 28.47025]]]}, "properties": {"area_km2": 0.0061, "area_ha": 0.61}}, {"type": "Feature", "geometry": {"type": "Polygon", "coordinates": [[[77.33600000000001, 28.4435], [77.33600000000001, 28.442749999999997], [77.33675000000001, 28.442749999999997], [77.33675000000001, 28.4435], [77.33600000000001, 28.4435]]]}, "properties": {"area_km2": 0.0061, "area_ha": 0.61}}]}