{"type": "FeatureCollection", "name": "flood_pass-20260824-12", "features": [{"type": "Feature", "geometry": {"type": "Polygon", "coordinates": [[[77.35000000000001, 28.506749999999997], [77.35000000000001, 28.505499999999998], [77.35025, 28.505499999999998], [77.35025, 28.504749999999998], [77.35075, 28.504749999999998], [77.35075, 28.502499999999998], [77.352, 28.502499999999998], [77.352, 28.5015], [77.35225000000001, 28.5015], [77.35225000000001, 28.49925], [77.3525, 28.49925], [77.3525, 28.498749999999998], [77.35275, 28.498749999999998], [77.35275, 28.4985], [77.35300000000001, 28.4985], [77.35300000000001, 28.497249999999998], [77.35325, 28.497249999999998], [77.35325, 28.49675], [77.35350000000001, 28.49675], [77.35350000000001, 28.49625], [77.35375, 28.49625], [77.35375, 28.495749999999997], [77.354, 28.495749999999997], [77.354, 28.4955], [77.35425000000001, 28.4955], [77.35425000000001, 28.494999999999997], [77.3545, 28.494999999999997], [77.3545, 28.49475], [77.35475000000001, 28.49475], [77.35475000000001, 28.494249999999997], [77.355, 28.494249999999997], [77.355, 28.493499999999997], [77.35525000000001, 28.493499999999997], [77.35525000000001, 28.492749999999997], [77.3555, 28.492749999999997], [77.3555, 28.49225], [77.35575, 28.49225], [77.35575, 28.49075], [77.35600000000001, 28.49075], [77.35600000000001, 28.490499999999997], [77.35650000000001, 28.490499999999997], [77.35650000000001, 28.49025], [77.35675, 28.49025], [77.35675, 28.488999999999997], [77.35725000000001, 28.488999999999997], [77.35725000000001, 28.488249999999997], [77.3575, 28.488249999999997], [77.3575, 28.487499999999997], [77.35775000000001, 28.487499999999997], [77.35775000000001, 28.487], [77.35900000000001, 28.487], [77.35900000000001, 28.488], [77.35875, 28.488], [77.35875, 28.488999999999997], [77.3585, 28.488999999999997], [77.3585, 28.48925], [77.35825000000001, 28.48925], [77.35825000000001, 28.491], [77.358, 28.491], [77.358, 28.491249999999997], [77.3575, 28.491249999999997], [77.3575, 28.4925], [77.357, 28.4925], [77.357, 28.49325], [77.35675, 28.49325], [77.35675, 28.49475], [77.35650000000001, 28.49475], [77.35650000000001, 28.49525], [77.35625, 28.49525], [77.35625, 28.496], [77.35575, 28.496], [77.35575, 28.497], [77.355, 28.497], [77.355, 28.4985], [77.3545, 28.4985], [77.3545, 28.498749999999998], [77.35425000000001, 28.498749999999998], [77.35425000000001, 28.499499999999998], [77.354, 28.499499999999998], [77.354, 28.500249999999998], [77.35375, 28.500249999999998], [77.35375, 28.50125], [77.35325, 28.50125], [77.35325, 28.503249999999998], [77.35275, 28.503249999999998], [77.35275, 28.50425], [77.3525, 28.50425], [77.3525, 28.5045], [77.35225000000001, 28.5045], [77.35225000000001, 28.50575], [77.35125000000001, 28.50575], [77.35125000000001, 28.505999999999997], [77.35100000000001, 28.505999999999997], [77.35100000000001, 28.506749999999997], [77.35000000000001, 28.506749999999997]]]}, "properties": {"area_km2": 0.3798, "area_ha": 37.98}}, {"type": "Feature", "geometry": {"type": "Polygon", "coordinates": [[[77.29425, 28.573749999999997], [77.29425, 28.5735], [77.29400000000001, 28.5735], [77.29400000000001, 28.571499999999997], [77.29425, 28.571499999999997], [77.29425, 28.57125], [77.2945, 28.57125], [77.2945, 28.570249999999998], [77.2955, 28.570249999999998], [77.2955, 28.569], [77.295, 28.569], [77.295, 28.567749999999997], [77.29525000000001, 28.567749999999997], [77.29525000000001, 28.5675], [77.2955, 28.5675], [77.2955, 28.567249999999998], [77.29625, 28.567249999999998], [77.29625, 28.56675], [77.29675, 28.56675], [77.29675, 28.5655], [77.29825000000001, 28.5655], [77.29825000000001, 28.566499999999998], [77.30000000000001, 28.566499999999998], [77.30000000000001, 28.56625], [77.3005, 28.56625], [77.3005, 28.564999999999998], [77.29975, 28.564999999999998], [77.29975, 28.5645], [77.29950000000001, 28.5645], [77.29950000000001, 28.564], [77.29925, 28.564], [77.29925, 28.56375], [77.299, 28.56375], [77.299, 28.56325], [77.2985, 28.56325], [77.2985, 28.5625], [77.29925, 28.5625], [77.29925, 28.56025], [77.30025, 28.56025], [77.30025, 28.561], [77.30175000000001, 28.561], [77.30175000000001, 28.561999999999998], [77.3005, 28.561999999999998], [77.3005, 28.56325], [77.30075000000001, 28.56325], [77.30075000000001, 28.56375], [77.30125000000001, 28.56375], [77.30125000000001, 28.5645], [77.3015, 28.5645], [77.3015, 28.565749999999998], [77.30225, 28.565749999999998], [77.30225, 28.567], [77.302, 28.567], [77.302, 28.567249999999998], [77.30025, 28.567249999999998], [77.30025, 28.567999999999998], [77.30000000000001, 28.567999999999998], [77.30000000000001, 28.568749999999998], [77.29925, 28.568749999999998], [77.29925, 28.569], [77.29875000000001, 28.569], [77.29875000000001, 28.569249999999997], [77.29825000000001, 28.569249999999997], [77.29825000000001, 28.569499999999998], [77.29775000000001, 28.569499999999998], [77.29775000000001, 28.56975], [77.29725, 28.56975], [77.29725, 28.570999999999998], [77.29625, 28.570999999999998], [77.29625, 28.57275], [77.295, 28.57275], [77.295, 28.573749999999997], [77.29425, 28.573749999999997]]]}, "properties": {"area_km2": 0.3768, "area_ha": 37.68}}, {"type": "Feature", "geometry": {"type": "Polygon", "coordinates": [[[77.23225000000001, 28.714], [77.23225000000001, 28.71275], [77.2325, 28.71275], [77.2325, 28.710749999999997], [77.23175, 28.710749999999997], [77.23175, 28.70875], [77.23125, 28.70875], [77.23125, 28.70725], [77.23100000000001, 28.70725], [77.23100000000001, 28.706999999999997], [77.23075, 28.706999999999997], [77.23075, 28.7045], [77.23125, 28.7045], [77.23125, 28.703], [77.23100000000001, 28.703], [77.23100000000001, 28.702499999999997], [77.23075, 28.702499999999997], [77.23075, 28.7], [77.23, 28.7], [77.23, 28.69925], [77.2305, 28.69925], [77.2305, 28.698749999999997], [77.23150000000001, 28.698749999999997], [77.23150000000001, 28.6985], [77.23225000000001, 28.6985], [77.23225000000001, 28.701999999999998], [77.232, 28.701999999999998], [77.232, 28.704749999999997], [77.23225000000001, 28.704749999999997], [77.23225000000001, 28.706], [77.2325, 28.706], [77.2325, 28.70675], [77.23225000000001, 28.70675], [77.23225000000001, 28.70825], [77.23275000000001, 28.70825], [77.23275000000001, 28.708499999999997], [77.23325000000001, 28.708499999999997], [77.23325000000001, 28.70875], [77.2335, 28.70875], [77.2335, 28.709], [77.23375, 28.709], [77.23375, 28.709249999999997], [77.23400000000001, 28.709249999999997], [77.23400000000001, 28.7095], [77.23475, 28.7095], [77.23475, 28.70975], [77.23525000000001, 28.70975], [77.23525000000001, 28.7105], [77.235, 28.7105], [77.235, 28.710749999999997], [77.23475, 28.710749999999997], [77.23475, 28.71275], [77.23425, 28.71275], [77.23425, 28.712999999999997], [77.233, 28.712999999999997], [77.233, 28.714], [77.23225000000001, 28.714]]]}, "properties": {"area_km2": 0.2762, "area_ha": 27.62}}, {"type": "Feature", "geometry": {"type": "Polygon", "coordinates": [[[77.3815, 28.455], [77.3815, 28.4545], [77.381, 28.4545], [77.381, 28.45425], [77.37775, 28.45425], [77.37775, 28.453999999999997], [77.37750000000001, 28.453999999999997], [77.37750000000001, 28.45375], [77.37475, 28.45375], [77.37475, 28.4535], [77.37450000000001, 28.4535], [77.37450000000001, 28.453], [77.3735, 28.453], [77.3735, 28.452749999999998], [77.37325000000001, 28.452749999999998], [77.37325000000001, 28.452499999999997], [77.372, 28.452499999999997], [77.372, 28.452749999999998], [77.37175, 28.452749999999998], [77.37175, 28.453249999999997], [77.37100000000001, 28.453249999999997], [77.37100000000001, 28.4535], [77.3705, 28.4535], [77.3705, 28.45375], [77.3695, 28.45375], [77.3695, 28.452749999999998], [77.36800000000001, 28.452749999999998], [77.36800000000001, 28.453], [77.367, 28.453], [77.367, 28.452749999999998], [77.36675000000001, 28.452749999999998], [77.36675000000001, 28.451999999999998], [77.367, 28.451999999999998], [77.367, 28.451749999999997], [77.3695, 28.451749999999997], [77.3695, 28.452499999999997], [77.37125, 28.452499999999997], [77.37125, 28.451749999999997], [77.37150000000001, 28.451749999999997], [77.37150000000001, 28.4515], [77.37175, 28.4515], [77.37175, 28.451249999999998], [77.37275000000001, 28.451249999999998], [77.37275000000001, 28.451749999999997], [77.37400000000001, 28.451749999999997], [77.37400000000001, 28.451249999999998], [77.37525000000001, 28.451249999999998], [77.37525000000001, 28.4515], [77.376, 28.4515], [77.376, 28.452499999999997], [77.37875000000001, 28.452499999999997], [77.37875000000001, 28.452749999999998], [77.3815, 28.452749999999998], [77.3815, 28.453], [77.38275, 28.453], [77.38275, 28.4535], [77.38475000000001, 28.4535], [77.38475000000001, 28.45425], [77.38325, 28.45425], [77.38325, 28.4545], [77.38300000000001, 28.4545], [77.38300000000001, 28.455], [77.3815, 28.455]]]}, "properties": {"area_km2": 0.2727, "area_ha": 27.27}}, {"type": "Feature", "geometry": {"type": "Polygon", "coordinates": [[[77.32875, 28.4885], [77.32875, 28.488249999999997], [77.328, 28.488249999999997], [77.328, 28.487499999999997], [77.3225, 28.487499999999997], [77.3225, 28.4865], [77.32425, 28.4865], [77.32425, 28.48575], [77.3245, 28.48575], [77.3245, 28.4855], [77.32475000000001, 28.4855], [77.32475000000001, 28.485], [77.32525000000001, 28.485], [77.32525000000001, 28.48475], [77.32575, 28.48475], [77.32575, 28.484499999999997], [77.32600000000001, 28.484499999999997], [77.32600000000001, 28.48425], [77.32725, 28.48425], [77.32725, 28.484499999999997], [77.3275, 28.484499999999997], [77.3275, 28.48475], [77.32875, 28.48475], [77.32875, 28.483999999999998], [77.32975, 28.483999999999998], [77.32975, 28.485249999999997], [77.33025, 28.485249999999997], [77.33025, 28.48575], [77.33175, 28.48575], [77.33175, 28.4865], [77.331, 28.4865], [77.331, 28.486749999999997], [77.3305, 28.486749999999997], [77.3305, 28.487], [77.33000000000001, 28.487], [77.33000000000001, 28.488249999999997], [77.32975, 28.488249999999997], [77.32975, 28.4885], [77.32875, 28.4885]]]}, "properties": {"area_km2": 0.2381, "area_ha": 23.81}}, {"type": "Feature", "geometry": {"type": "Polygon", "coordinates": [[[77.36850000000001, 28.44625], [77.36850000000001, 28.444499999999998], [77.36725000000001, 28.444499999999998], [77.36725000000001, 28.44475], [77.3665, 28.44475], [77.3665, 28.444499999999998], [77.36550000000001, 28.444499999999998], [77.36550000000001, 28.4435], [77.36575, 28.4435], [77.36575, 28.442], [77.366, 28.442], [77.366, 28.44175], [77.36850000000001, 28.44175], [77.36850000000001, 28.441499999999998], [77.3695, 28.441499999999998], [77.3695, 28.44125], [77.36975000000001, 28.44125], [77.36975000000001, 28.440749999999998], [77.37075, 28.440749999999998], [77.37075, 28.442249999999998], [77.37150000000001, 28.442249999999998], [77.37150000000001, 28.44325], [77.37075, 28.44325], [77.37075, 28.444], [77.37025000000001, 28.444], [77.37025000000001, 28.445999999999998], [77.36925000000001, 28.445999999999998], [77.36925000000001, 28.44625], [77.36850000000001, 28.44625]]]}, "properties": {"area_km2": 0.2042, "area_ha": 20.42}}, {"type": "Feature", "geometry": {"type": "Polygon", "coordinates": [[[77.28250000000001, 28.587999999999997], [77.28250000000001, 28.586499999999997], [77.28200000000001, 28.586499999999997], [77.28200000000001, 28.58625], [77.28075000000001, 28.58625], [77.28075000000001, 28.586499999999997], [77.27950000000001, 28.586499999999997], [77.27950000000001, 28.585749999999997], [77.28025000000001, 28.585749999999997], [77.28025000000001, 28.5855], [77.281, 28.5855], [77.281, 28.584999999999997], [77.28275000000001, 28.584999999999997], [77.28275000000001, 28.5845], [77.2835, 28.5845], [77.2835, 28.583499999999997], [77.28450000000001, 28.583499999999997], [77.28450000000001, 28.58375], [77.28575000000001, 28.58375], [77.28575000000001, 28.58325], [77.286, 28.58325], [77.286, 28.583], [77.2865, 28.583], [77.2865, 28.581999999999997], [77.28725, 28.581999999999997], [77.28725, 28.58325], [77.28825, 28.58325], [77.28825, 28.5845], [77.28750000000001, 28.5845], [77.28750000000001, 28.58625], [77.2865, 28.58625], [77.2865, 28.586499999999997], [77.28575000000001, 28.586499999999997], [77.28575000000001, 28.585749999999997], [77.28550000000001, 28.585749999999997], [77.28550000000001, 28.5855], [77.2835, 28.5855], [77.2835, 28.586499999999997], [77.28325000000001, 28.586499999999997], [77.28325000000001, 28.587999999999997], [77.28250000000001, 28.587999999999997]]]}, "properties": {"area_km2": 0.1945, "area_ha": 19.45}}, {"type": "Feature", "geometry": {"type": "Polygon", "coordinates": [[[77.254, 28.660249999999998], [77.254, 28.66], [77.253, 28.66], [77.253, 28.65925], [77.25375000000001, 28.65925], [77.25375000000001, 28.659], [77.25425000000001, 28.659], [77.25425000000001, 28.658749999999998], [77.25475, 28.658749999999998], [77.25475, 28.6585], [77.25525, 28.6585], [77.25525, 28.65825], [77.25575, 28.65825], [77.25575, 28.65775], [77.2565, 28.65775], [77.2565, 28.6575], [77.257, 28.6575], [77.257, 28.657249999999998], [77.25725000000001, 28.657249999999998], [77.25725000000001, 28.657], [77.25775, 28.657], [77.25775, 28.65675], [77.25800000000001, 28.65675], [77.25800000000001, 28.65625], [77.25850000000001, 28.65625], [77.25850000000001, 28.656], [77.25875, 28.656], [77.25875, 28.655749999999998], [77.25925000000001, 28.655749999999998], [77.25925000000001, 28.65525], [77.2595, 28.65525], [77.2595, 28.654999999999998], [77.25975000000001, 28.654999999999998], [77.25975000000001, 28.65475], [77.26050000000001, 28.65475], [77.26050000000001, 28.657], [77.26, 28.657], [77.26, 28.657249999999998], [77.25975000000001, 28.657249999999998], [77.25975000000001, 28.6575], [77.25925000000001, 28.6575], [77.25925000000001, 28.65775], [77.259, 28.65775], [77.259, 28.6585], [77.25850000000001, 28.6585], [77.25850000000001, 28.659], [77.25800000000001, 28.659], [77.25800000000001, 28.65975], [77.25750000000001, 28.65975], [77.25750000000001, 28.66], [77.25675000000001, 28.66], [77.25675000000001, 28.660249999999998], [77.254, 28.660249999999998]]]}, "properties": {"area_km2": 0.1727, "area_ha": 17.27}}, {"type": "Feature", "geometry": {"type": "Polygon", "coordinates": [[[77.37100000000001, 28.473999999999997], [77.37100000000001, 28.47325], [77.37175, 28.47325], [77.37175, 28.472749999999998], [77.372, 28.472749999999998], [77.372, 28.4725], [77.37225000000001, 28.4725], [77.37225000000001, 28.47225], [77.37275000000001, 28.47225], [77.37275000000001, 28.471999999999998], [77.373, 28.471999999999998], [77.373, 28.47175], [77.37400000000001, 28.47175], [77.37400000000001, 28.471249999999998], [77.375, 28.471249999999998], [77.375, 28.471], [77.3755, 28.471], [77.3755, 28.46925], [77.37650000000001, 28.46925], [77.37650000000001, 28.471], [77.37775, 28.471], [77.37775, 28.468999999999998], [77.3785, 28.468999999999998], [77.3785, 28.46875], [77.37950000000001, 28.46875], [77.37950000000001, 28.468999999999998], [77.38025, 28.468999999999998], [77.38025, 28.47], [77.38000000000001, 28.47], [77.38000000000001, 28.47025], [77.37975, 28.47025], [77.37975, 28.47075], [77.37925000000001, 28.47075], [77.37925000000001, 28.471249999999998], [77.3785, 28.471249999999998], [77.3785, 28.4715], [77.37825000000001, 28.4715], [77.37825000000001, 28.471999999999998], [77.37675, 28.471999999999998], [77.37675, 28.47225], [77.3755, 28.47225], [77.3755, 28.471999999999998], [77.37400000000001, 28.471999999999998], [77.37400000000001, 28.47375], [77.3725, 28.47375], [77.3725, 28.473999999999997], [77.37100000000001, 28.473999999999997]]]}, "properties": {"area_km2": 0.1689, "area_ha": 16.89}}, {"type": "Feature", "geometry": {"type": "Polygon", "coordinates": [[[77.26425, 28.59875], [77.26425, 28.598], [77.26400000000001, 28.598], [77.26400000000001, 28.59725], [77.26450000000001, 28.59725], [77.26450000000001, 28.5965], [77.26525000000001, 28.5965], [77.26525000000001, 28.596], [77.2655, 28.596], [77.2655, 28.59525], [77.26575000000001, 28.59525], [77.26575000000001, 28.595], [77.26625, 28.595], [77.26625, 28.594749999999998], [77.26650000000001, 28.594749999999998], [77.26650000000001, 28.59425], [77.26725, 28.59425], [77.26725, 28.593999999999998], [77.268, 28.593999999999998], [77.268, 28.593], [77.2685, 28.593], [77.2685, 28.59225], [77.27000000000001, 28.59225], [77.27000000000001, 28.59375], [77.27050000000001, 28.59375], [77.27050000000001, 28.5945], [77.26925, 28.5945], [77.26925, 28.595], [77.2685, 28.595], [77.2685, 28.59525], [77.26750000000001, 28.59525], [77.26750000000001, 28.595499999999998], [77.26725, 28.595499999999998], [77.26725, 28.59575], [77.26625, 28.59575], [77.26625, 28.59675], [77.26525000000001, 28.59675], [77.26525000000001, 28.598499999999998], [77.265, 28.598499999999998], [77.265, 28.59875], [77.26425, 28.59875]]]}, "properties": {"area_km2": 0.122, "area_ha": 12.2}}, {"type": "Feature", "geometry": {"type": "Polygon", "coordinates": [[[77.31375000000001, 28.546999999999997], [77.31375000000001, 28.54675], [77.3135, 28.54675], [77.3135, 28.546], [77.31275000000001, 28.546], [77.31275000000001, 28.5445], [77.3135, 28.5445], [77.3135, 28.543999999999997], [77.31400000000001, 28.543999999999997], [77.31400000000001, 28.54375], [77.31425, 28.54375], [77.31425, 28.543499999999998], [77.31625000000001, 28.543499999999998], [77.31625000000001, 28.545499999999997], [77.316, 28.545499999999997], [77.316, 28.54675], [77.31500000000001, 28.54675], [77.31500000000001, 28.546999999999997], [77.31375000000001, 28.546999999999997]]]}, "properties": {"area_km2": 0.1057, "area_ha": 10.57}}, {"type": "Feature", "geometry": {"type": "Polygon", "coordinates": [[[77.388, 28.439999999999998], [77.388, 28.43975], [77.3875, 28.43975], [77.3875, 28.439], [77.38675, 28.439], [77.38675, 28.43875], [77.38550000000001, 28.43875], [77.38550000000001, 28.439249999999998], [77.38425000000001, 28.439249999999998], [77.38425000000001, 28.438], [77.38525, 28.438], [77.38525, 28.43725], [77.38575, 28.43725], [77.38575, 28.436999999999998], [77.38600000000001, 28.436999999999998], [77.38600000000001, 28.4365], [77.387, 28.4365], [77.387, 28.43675], [77.38725000000001, 28.43675], [77.38725000000001, 28.43725], [77.38775000000001, 28.43725], [77.38775000000001, 28.437749999999998], [77.388, 28.437749999999998], [77.388, 28.438], [77.38900000000001, 28.438], [77.38900000000001, 28.43875], [77.38875, 28.43875], [77.38875, 28.439999999999998], [77.388, 28.439999999999998]]]}, "properties": {"area_km2": 0.0943, "area_ha": 9.43}}, {"type": "Feature", "geometry": {"type": "Polygon", "coordinates": [[[77.25500000000001, 28.627], [77.25500000000001, 28.6265], [77.25475, 28.6265], [77.25475, 28.625249999999998], [77.2535, 28.625249999999998], [77.2535, 28.6235], [77.25475, 28.6235], [77.25475, 28.62425], [77.25550000000001, 28.62425], [77.25550000000001, 28.624499999999998], [77.257, 28.624499999999998], [77.257, 28.6255], [77.25675000000001, 28.6255], [77.25675000000001, 28.627], [77.25500000000001, 28.627]]]}, "properties": {"area_km2": 0.0813, "area_ha": 8.13}}, {"type": "Feature", "geometry": {"type": "Polygon", "coordinates": [[[77.238, 28.666749999999997], [77.238, 28.665499999999998], [77.23825000000001, 28.665499999999998], [77.23825000000001, 28.665], [77.239, 28.665], [77.239, 28.664749999999998], [77.23925000000001, 28.664749999999998], [77.23925000000001, 28.664499999999997], [77.23975, 28.664499999999997], [77.23975, 28.663999999999998], [77.24025, 28.663999999999998], [77.24025, 28.663749999999997], [77.241, 28.663749999999997], [77.241, 28.6635], [77.24175000000001, 28.6635], [77.24175000000001, 28.665249999999997], [77.24075, 28.665249999999997], [77.24075, 28.665499999999998], [77.24025, 28.665499999999998], [77.24025, 28.66575], [77.23925000000001, 28.66575], [77.23925000000001, 28.6665], [77.239, 28.6665], [77.239, 28.666749999999997], [77.238, 28.666749999999997]]]}, "properties": {"area_km2": 0.0664, "area_ha": 6.64}}, {"type": "Feature", "geometry": {"type": "Polygon", "coordinates": [[[77.24075, 28.724749999999997], [77.24075, 28.723499999999998], [77.23975, 28.723499999999998], [77.23975, 28.722749999999998], [77.24000000000001, 28.722749999999998], [77.24000000000001, 28.721249999999998], [77.24025, 28.721249999999998], [77.24025, 28.72], [77.24125000000001, 28.72], [77.24125000000001, 28.72175], [77.2415, 28.72175], [77.2415, 28.724749999999997], [77.24075, 28.724749999999997]]]}, "properties": {"area_km2": 0.0609, "area_ha": 6.09}}, {"type": "Feature", "geometry": {"type": "Polygon", "coordinates": [[[77.18350000000001, 28.72025], [77.18350000000001, 28.71875], [77.18325, 28.71875], [77.18325, 28.718], [77.18350000000001, 28.718], [77.18350000000001, 28.71775], [77.18475000000001, 28.71775], [77.18475000000001, 28.718], [77.1855, 28.718], [77.1855, 28.718249999999998], [77.186, 28.718249999999998], [77.186, 28.718999999999998], [77.18625, 28.718999999999998], [77.18625, 28.719749999999998], [77.18475000000001, 28.719749999999998], [77.18475000000001, 28.72025], [77.18350000000001, 28.72025]]]}, "properties": {"area_km2": 0.0602, "area_ha": 6.02}}, {"type": "Feature", "geometry": {"type": "Polygon", "coordinates": [[[77.26525000000001, 28.645999999999997], [77.26525000000001, 28.6455], [77.26350000000001, 28.6455], [77.26350000000001, 28.64425], [77.26325, 28.64425], [77.26325, 28.64275], [77.26400000000001, 28.64275], [77.26400000000001, 28.642999999999997], [77.26450000000001, 28.642999999999997], [77.26450000000001, 28.6435], [77.26525000000001, 28.6435], [77.26525000000001, 28.644], [77.2655, 28.644], [77.2655, 28.645], [77.266, 28.645], [77.266, 28.645999999999997], [77.26525000000001, 28.645999999999997]]]}, "properties": {"area_km2": 0.0596, "area_ha": 5.96}}, {"type": "Feature", "geometry": {"type": "Polygon", "coordinates": [[[77.38300000000001, 28.468], [77.38300000000001, 28.46725], [77.38425000000001, 28.46725], [77.38425000000001, 28.46625], [77.385, 28.46625], [77.385, 28.46575], [77.38575, 28.46575], [77.38575, 28.4655], [77.38650000000001, 28.4655], [77.38650000000001, 28.46575], [77.38675, 28.46575], [77.38675, 28.46725], [77.38625, 28.46725], [77.38625, 28.467499999999998], [77.38575, 28.467499999999998], [77.38575, 28.46775], [77.38425000000001, 28.46775], [77.38425000000001, 28.468], [77.38300000000001, 28.468]]]}, "properties": {"area_km2": 0.0583, "area_ha": 5.83}}, {"type": "Feature", "geometry": {"type": "Polygon", "coordinates": [[[77.23075, 28.696749999999998], [77.23075, 28.69625], [77.22925000000001, 28.69625], [77.22925000000001, 28.694999999999997], [77.2295, 28.694999999999997], [77.2295, 28.694249999999997], [77.23, 28.694249999999997], [77.23, 28.693499999999997], [77.23025000000001, 28.693499999999997], [77.23025000000001, 28.69275], [77.23100000000001, 28.69275], [77.23100000000001, 28.6955], [77.23150000000001, 28.6955], [77.23150000000001, 28.696749999999998], [77.23075, 28.696749999999998]]]}, "properties": {"area_km2": 0.0582, "area_ha": 5.82}}, {"type": "Feature", "geometry": {"type": "Polygon", "coordinates": [[[77.38650000000001, 28.729249999999997], [77.38650000000001, 28.728749999999998], [77.38600000000001, 28.728749999999998], [77.38600000000001, 28.727999999999998], [77.38650000000001, 28.727999999999998], [77.38650000000001, 28.726999999999997], [77.38675, 28.726999999999997], [77.38675, 28.72675], [77.387, 28.72675], [77.387, 28.726499999999998], [77.38725000000001, 28.726499999999998], [77.38725000000001, 28.724749999999997], [77.388, 28.724749999999997], [77.388, 28.72525], [77.38850000000001, 28.72525], [77.38850000000001, 28.726249999999997], [77.38825, 28.726249999999997], [77.38825, 28.726499999999998], [77.38775000000001, 28.726499999999998], [77.38775000000001, 28.728749999999998], [77.3875, 28.728749999999998], [77.3875, 28.729], [77.38725000000001, 28.729], [77.38725000000001, 28.729249999999997], [77.38650000000001, 28.729249999999997]]]}, "properties": {"area_km2": 0.0575, "area_ha": 5.75}}, {"type": "Feature", "geometry": {"type": "Polygon", "coordinates": [[[77.34450000000001, 28.51675], [77.34450000000001, 28.514999999999997], [77.34500000000001, 28.514999999999997], [77.34500000000001, 28.513499999999997], [77.3455, 28.513499999999997], [77.3455, 28.512999999999998], [77.3465, 28.512999999999998], [77.3465, 28.514999999999997], [77.34625000000001, 28.514999999999997], [77.34625000000001, 28.515249999999998], [77.346, 28.515249999999998], [77.346, 28.516499999999997], [77.34525000000001, 28.516499999999997], [77.34525000000001, 28.51675], [77.34450000000001, 28.51675]]]}, "properties": {"area_km2": 0.057, "area_ha": 5.7}}, {"type": "Feature", "geometry": {"type": "Polygon", "coordinates": [[[77.08325, 28.564], [77.08325, 28.56375], [77.08250000000001, 28.56375], [77.08250000000001, 28.561249999999998], [77.0845, 28.561249999999998], [77.0845, 28.56375], [77.084, 28.56375], [77.084, 28.564], [77.08325, 28.564]]]}, "properties": {"area_km2": 0.0563, "area_ha": 5.63}}, {"type": "Feature", "geometry": {"type": "Polygon", "coordinates": [[[77.3675, 28.449499999999997], [77.3675, 28.44925], [77.36725000000001, 28.44925], [77.36725000000001, 28.448999999999998], [77.36675000000001, 28.448999999999998], [77.36675000000001, 28.448249999999998], [77.366, 28.448249999999998], [77.366, 28.447499999999998], [77.36625000000001, 28.447499999999998], [77.36625000000001, 28.447249999999997], [77.36675000000001, 28.447249999999997], [77.36675000000001, 28.446749999999998], [77.36725000000001, 28.446749999999998], [77.36725000000001, 28.44625], [77.36825, 28.44625], [77.36825, 28.449499999999997], [77.3675, 28.449499999999997]]]}, "properties": {"area_km2": 0.0543, "area_ha": 5.43}}, {"type": "Feature", "geometry": {"type": "Polygon", "coordinates": [[[77.25975000000001, 28.634999999999998], [77.25975000000001, 28.634749999999997], [77.2595, 28.634749999999997], [77.2595, 28.633999999999997], [77.25825, 28.633999999999997], [77.25825, 28.632749999999998], [77.25800000000001, 28.632749999999998], [77.25800000000001, 28.6315], [77.25875, 28.6315], [77.25875, 28.631999999999998], [77.25925000000001, 28.631999999999998], [77.25925000000001, 28.632499999999997], [77.2595, 28.632499999999997], [77.2595, 28.632749999999998], [77.26, 28.632749999999998], [77.26, 28.633999999999997], [77.26100000000001, 28.633999999999997], [77.26100000000001, 28.634999999999998], [77.25975000000001, 28.634999999999998]]]}, "properties": {"area_km2": 0.0542, "area_ha": 5.42}}, {"type": "Feature", "geometry": {"type": "Polygon", "coordinates": [[[77.37750000000001, 28.4405], [77.37750000000001, 28.438], [77.37925000000001, 28.438], [77.37925000000001, 28.43875], [77.37975, 28.43875], [77.37975, 28.439999999999998], [77.379, 28.439999999999998], [77.379, 28.4405], [77.37750000000001, 28.4405]]]}, "properties": {"area_km2": 0.0529, "area_ha": 5.29}}, {"type": "Feature", "geometry": {"type": "Polygon", "coordinates": [[[77.37275000000001, 28.449499999999997], [77.37275000000001, 28.447], [77.373, 28.447], [77.373, 28.446749999999998], [77.37450000000001, 28.446749999999998], [77.37450000000001, 28.447], [77.37475, 28.447], [77.37475, 28.447499999999998], [77.3755, 28.447499999999998], [77.3755, 28.448249999999998], [77.37425, 28.448249999999998], [77.37425, 28.448749999999997], [77.3735, 28.448749999999997], [77.3735, 28.449499999999997], [77.37275000000001, 28.449499999999997]]]}, "properties": {"area_km2": 0.0516, "area_ha": 5.16}}, {"type": "Feature", "geometry": {"type": "Polygon", "coordinates": [[[77.30125000000001, 28.55575], [77.30125000000001, 28.554499999999997], [77.30025, 28.554499999999997], [77.30025, 28.553749999999997], [77.30325, 28.553749999999997], [77.30325, 28.55575], [77.30125000000001, 28.55575]]]}, "properties": {"area_km2": 0.0515, "area_ha": 5.15}}, {"type": "Feature", "geometry": {"type": "Polygon", "coordinates": [[[77.31975000000001, 28.542749999999998], [77.31975000000001, 28.540999999999997], [77.32075, 28.540999999999997], [77.32075, 28.540249999999997], [77.32225000000001, 28.540249999999997], [77.32225000000001, 28.5415], [77.3215, 28.5415], [77.3215, 28.542749999999998], [77.31975000000001, 28.542749999999998]]]}, "properties": {"area_km2": 0.0495, "area_ha": 4.95}}, {"type": "Feature", "geometry": {"type": "Polygon", "coordinates": [[[77.25675000000001, 28.6315], [77.25675000000001, 28.630999999999997], [77.25575, 28.630999999999997], [77.25575, 28.63], [77.2565, 28.63], [77.2565, 28.6285], [77.25750000000001, 28.6285], [77.25750000000001, 28.62925], [77.25775, 28.62925], [77.25775, 28.630499999999998], [77.25800000000001, 28.630499999999998], [77.25800000000001, 28.6315], [77.25675000000001, 28.6315]]]}, "properties": {"area_km2": 0.0481, "area_ha": 4.81}}, {"type": "Feature", "geometry": {"type": "Polygon", "coordinates": [[[77.23275000000001, 28.674249999999997], [77.23275000000001, 28.673], [77.233, 28.673], [77.233, 28.672749999999997], [77.2335, 28.672749999999997], [77.2335, 28.67225], [77.23375, 28.67225], [77.23375, 28.671], [77.23450000000001, 28.671], [77.23450000000001, 28.6725], [77.235, 28.6725], [77.235, 28.67375], [77.23400000000001, 28.67375], [77.23400000000001, 28.674249999999997], [77.23275000000001, 28.674249999999997]]]}, "properties": {"area_km2": 0.0474, "area_ha": 4.74}}, {"type": "Feature", "geometry": {"type": "Polygon", "coordinates": [[[77.357, 28.7135], [77.357, 28.712249999999997], [77.355, 28.712249999999997], [77.355, 28.711499999999997], [77.3555, 28.711499999999997], [77.3555, 28.71125], [77.3585, 28.71125], [77.3585, 28.712], [77.358, 28.712], [77.358, 28.7125], [77.35775000000001, 28.7125], [77.35775000000001, 28.7135], [77.357, 28.7135]]]}, "properties": {"area_km2": 0.046, "area_ha": 4.6}}, {"type": "Feature", "geometry": {"type": "Polygon", "coordinates": [[[77.38350000000001, 28.73925], [77.38350000000001, 28.7365], [77.38475000000001, 28.7365], [77.38475000000001, 28.73725], [77.385, 28.73725], [77.385, 28.73925], [77.38350000000001, 28.73925]]]}, "properties": {"area_km2": 0.0426, "area_ha": 4.26}}, {"type": "Feature", "geometry": {"type": "Polygon", "coordinates": [[[77.38850000000001, 28.71575], [77.38850000000001, 28.7155], [77.3875, 28.7155], [77.3875, 28.715], [77.38725000000001, 28.715], [77.38725000000001, 28.71475], [77.38675, 28.71475], [77.38675, 28.714499999999997], [77.38650000000001, 28.714499999999997], [77.38650000000001, 28.71425], [77.38625, 28.71425], [77.38625, 28.712999999999997], [77.387, 28.712999999999997], [77.387, 28.713749999999997], [77.3875, 28.713749999999997], [77.3875, 28.714], [77.388, 28.714], [77.388, 28.71425], [77.38825, 28.71425], [77.38825, 28.71475], [77.38950000000001, 28.71475], [77.38950000000001, 28.71575], [77.38850000000001, 28.71575]]]}, "properties": {"area_km2": 0.0426, "area_ha": 4.26}}, {"type": "Feature", "geometry": {"type": "Polygon", "coordinates": [[[77.30375000000001, 28.55325], [77.30375000000001, 28.5525], [77.30325, 28.5525], [77.30325, 28.55175], [77.30250000000001, 28.55175], [77.30250000000001, 28.551], [77.30525, 28.551], [77.30525, 28.552], [77.3045, 28.552], [77.3045, 28.55325], [77.30375000000001, 28.55325]]]}, "properties": {"area_km2": 0.0407, "area_ha": 4.07}}, {"type": "Feature", "geometry": {"type": "Polygon", "coordinates": [[[77.09800000000001, 28.560499999999998], [77.09800000000001, 28.558999999999997], [77.099, 28.558999999999997], [77.099, 28.558249999999997], [77.09975, 28.558249999999997], [77.09975, 28.5585], [77.10000000000001, 28.5585], [77.10000000000001, 28.56025], [77.0995, 28.56025], [77.0995, 28.560499999999998], [77.09800000000001, 28.560499999999998]]]}, "properties": {"area_km2": 0.0386, "area_ha": 3.86}}, {"type": "Feature", "geometry": {"type": "Polygon", "coordinates": [[[77.387, 28.451249999999998], [77.387, 28.449499999999997], [77.38775000000001, 28.449499999999997], [77.38775000000001, 28.449749999999998], [77.38950000000001, 28.449749999999998], [77.38950000000001, 28.45075], [77.38900000000001, 28.45075], [77.38900000000001, 28.450999999999997], [77.38825, 28.450999999999997], [77.38825, 28.451249999999998], [77.387, 28.451249999999998]]]}, "properties": {"area_km2": 0.038, "area_ha": 3.8}}, {"type": "Feature", "geometry": {"type": "Polygon", "coordinates": [[[77.378, 28.448999999999998], [77.378, 28.448749999999997], [77.37775, 28.448749999999997], [77.37775, 28.448249999999998], [77.37750000000001, 28.448249999999998], [77.37750000000001, 28.447499999999998], [77.37775, 28.447499999999998], [77.37775, 28.447249999999997], [77.379, 28.447249999999997], [77.379, 28.447499999999998], [77.37925000000001, 28.447499999999998], [77.37925000000001, 28.44775], [77.37975, 28.44775], [77.37975, 28.448999999999998], [77.378, 28.448999999999998]]]}, "properties": {"area_km2": 0.036, "area_ha": 3.6}}, {"type": "Feature", "geometry": {"type": "Polygon", "coordinates": [[[77.30900000000001, 28.54875], [77.30900000000001, 28.5475], [77.30925, 28.5475], [77.30925, 28.54725], [77.31, 28.54725], [77.31, 28.546499999999998], [77.31125, 28.546499999999998], [77.31125, 28.5475], [77.311, 28.5475], [77.311, 28.547749999999997], [77.31075000000001, 28.547749999999997], [77.31075000000001, 28.548], [77.31, 28.548], [77.31, 28.54875], [77.30900000000001, 28.54875]]]}, "properties": {"area_km2": 0.0339, "area_ha": 3.39}}, {"type": "Feature", "geometry": {"type": "Polygon", "coordinates": [[[77.23825000000001, 28.731749999999998], [77.23825000000001, 28.731499999999997], [77.238, 28.731499999999997], [77.238, 28.729499999999998], [77.23975, 28.729499999999998], [77.23975, 28.730249999999998], [77.23925000000001, 28.730249999999998], [77.23925000000001, 28.731749999999998], [77.23825000000001, 28.731749999999998]]]}, "properties": {"area_km2": 0.0338, "area_ha": 3.38}}, {"type": "Feature", "geometry": {"type": "Polygon", "coordinates": [[[77.2185, 28.722749999999998], [77.2185, 28.721999999999998], [77.21925, 28.721999999999998], [77.21925, 28.721], [77.2205, 28.721], [77.2205, 28.721249999999998], [77.22125000000001, 28.721249999999998], [77.22125000000001, 28.721999999999998], [77.22075000000001, 28.721999999999998], [77.22075000000001, 28.72225], [77.22000000000001, 28.72225], [77.22000000000001, 28.7225], [77.21925, 28.7225], [77.21925, 28.722749999999998], [77.2185, 28.722749999999998]]]}, "properties": {"area_km2": 0.0318, "area_ha": 3.18}}, {"type": "Feature", "geometry": {"type": "Polygon", "coordinates": [[[77.2325, 28.6785], [77.2325, 28.677249999999997], [77.233, 28.677249999999997], [77.233, 28.676], [77.23425, 28.676], [77.23425, 28.677249999999997], [77.23400000000001, 28.677249999999997], [77.23400000000001, 28.6775], [77.2335, 28.6775], [77.2335, 28.6785], [77.2325, 28.6785]]]}, "properties": {"area_km2": 0.0318, "area_ha": 3.18}}, {"type": "Feature", "geometry": {"type": "Polygon", "coordinates": [[[77.10225000000001, 28.574749999999998], [77.10225000000001, 28.573749999999997], [77.10275, 28.573749999999997], [77.10275, 28.573249999999998], [77.104, 28.573249999999998], [77.104, 28.573999999999998], [77.1045, 28.573999999999998], [77.1045, 28.574749999999998], [77.10225000000001, 28.574749999999998]]]}, "properties": {"area_km2": 0.0298, "area_ha": 2.98}}, {"type": "Feature", "geometry": {"type": "Polygon", "coordinates": [[[77.33225, 28.49775], [77.33225, 28.4975], [77.33200000000001, 28.4975], [77.33200000000001, 28.497249999999998], [77.33175, 28.497249999999998], [77.33175, 28.495749999999997], [77.3335, 28.495749999999997], [77.3335, 28.496499999999997], [77.33300000000001, 28.496499999999997], [77.33300000000001, 28.49775], [77.33225, 28.49775]]]}, "properties": {"area_km2": 0.0292, "area_ha": 2.92}}, {"type": "Feature", "geometry": {"type": "Polygon", "coordinates": [[[77.36125000000001, 28.442999999999998], [77.36125000000001, 28.442749999999997], [77.36075000000001, 28.442749999999997], [77.36075000000001, 28.441499999999998], [77.36275, 28.441499999999998], [77.36275, 28.4425], [77.36250000000001, 28.4425], [77.36250000000001, 28.442749999999997], [77.36200000000001, 28.442749999999997], [77.36200000000001, 28.442999999999998], [77.36125000000001, 28.442999999999998]]]}, "properties": {"area_km2": 0.0285, "area_ha": 2.85}}, {"type": "Feature", "geometry": {"type": "Polygon", "coordinates": [[[77.37375, 28.705], [77.37375, 28.704749999999997], [77.373, 28.704749999999997], [77.373, 28.703999999999997], [77.37375, 28.703999999999997], [77.37375, 28.70375], [77.37475, 28.70375], [77.37475, 28.703999999999997], [77.3755, 28.703999999999997], [77.3755, 28.705], [77.37375, 28.705]]]}, "properties": {"area_km2": 0.0278, "area_ha": 2.78}}, {"type": "Feature", "geometry": {"type": "Polygon", "coordinates": [[[77.34125, 28.52075], [77.34125, 28.518749999999997], [77.34150000000001, 28.518749999999997], [77.34150000000001, 28.5185], [77.3425, 28.5185], [77.3425, 28.518749999999997], [77.34275000000001, 28.518749999999997], [77.34275000000001, 28.51975], [77.34200000000001, 28.51975], [77.34200000000001, 28.52075], [77.34125, 28.52075]]]}, "properties": {"area_km2": 0.0271, "area_ha": 2.71}}, {"type": "Feature", "geometry": {"type": "Polygon", "coordinates": [[[77.37700000000001, 28.45725], [77.37700000000001, 28.456], [77.37725, 28.456], [77.37725, 28.45575], [77.3785, 28.45575], [77.3785, 28.455499999999997], [77.37925000000001, 28.455499999999997], [77.37925000000001, 28.456249999999997], [77.3785, 28.456249999999997], [77.3785, 28.45675], [77.378, 28.45675], [77.378, 28.45725], [77.37700000000001, 28.45725]]]}, "properties": {"area_km2": 0.0271, "area_ha": 2.71}}, {"type": "Feature", "geometry": {"type": "Polygon", "coordinates": [[[77.099, 28.540999999999997], [77.099, 28.54], [77.09875000000001, 28.54], [77.09875000000001, 28.538749999999997], [77.09975, 28.538749999999997], [77.09975, 28.538999999999998], [77.10000000000001, 28.538999999999998], [77.10000000000001, 28.54075], [77.09975, 28.54075], [77.09975, 28.540999999999997], [77.099, 28.540999999999997]]]}, "properties": {"area_km2": 0.0264, "area_ha": 2.64}}, {"type": "Feature", "geometry": {"type": "Polygon", "coordinates": [[[77.31425, 28.519499999999997], [77.31425, 28.5185], [77.31450000000001, 28.5185], [77.31450000000001, 28.5175], [77.316, 28.5175], [77.316, 28.51825], [77.3155, 28.51825], [77.3155, 28.5185], [77.31525, 28.5185], [77.31525, 28.519499999999997], [77.31425, 28.519499999999997]]]}, "properties": {"area_km2": 0.0258, "area_ha": 2.58}}, {"type": "Feature", "geometry": {"type": "Polygon", "coordinates": [[[77.2395, 28.69125], [77.2395, 28.69025], [77.24050000000001, 28.69025], [77.24050000000001, 28.68975], [77.241, 28.68975], [77.241, 28.6895], [77.24175000000001, 28.6895], [77.24175000000001, 28.69025], [77.2415, 28.69025], [77.2415, 28.6905], [77.241, 28.6905], [77.241, 28.691], [77.24050000000001, 28.691], [77.24050000000001, 28.69125], [77.2395, 28.69125]]]}, "properties": {"area_km2": 0.025, "area_ha": 2.5}}, {"type": "Feature", "geometry": {"type": "Polygon", "coordinates": [[[77.23475, 28.670749999999998], [77.23475, 28.669249999999998], [77.23625000000001, 28.669249999999998], [77.23625000000001, 28.670749999999998], [77.23475, 28.670749999999998]]]}, "properties": {"area_km2": 0.0244, "area_ha": 2.44}}, {"type": "Feature", "geometry": {"type": "Polygon", "coordinates": [[[77.35950000000001, 28.48425], [77.35950000000001, 28.483249999999998], [77.35975, 28.483249999999998], [77.35975, 28.482999999999997], [77.36, 28.482999999999997], [77.36, 28.48275], [77.3615, 28.48275], [77.3615, 28.4835], [77.36075000000001, 28.4835], [77.36075000000001, 28.483999999999998], [77.3605, 28.483999999999998], [77.3605, 28.48425], [77.35950000000001, 28.48425]]]}, "properties": {"area_km2": 0.0237, "area_ha": 2.37}}, {"type": "Feature", "geometry": {"type": "Polygon", "coordinates": [[[77.2035, 28.727749999999997], [77.2035, 28.72675], [77.206, 28.72675], [77.206, 28.7275], [77.20450000000001, 28.7275], [77.20450000000001, 28.727749999999997], [77.2035, 28.727749999999997]]]}, "properties": {"area_km2": 0.023, "area_ha": 2.3}}, {"type": "Feature", "geometry": {"type": "Polygon", "coordinates": [[[77.26125, 28.637749999999997], [77.26125, 28.636499999999998], [77.26100000000001, 28.636499999999998], [77.26100000000001, 28.635499999999997], [77.26175, 28.635499999999997], [77.26175, 28.636249999999997], [77.26225000000001, 28.636249999999997], [77.26225000000001, 28.637749999999997], [77.26125, 28.637749999999997]]]}, "properties": {"area_km2": 0.023, "area_ha": 2.3}}, {"type": "Feature", "geometry": {"type": "Polygon", "coordinates": [[[77.367, 28.477749999999997], [77.367, 28.476499999999998], [77.3675, 28.476499999999998], [77.3675, 28.476249999999997], [77.36800000000001, 28.476249999999997], [77.36800000000001, 28.475749999999998], [77.36875, 28.475749999999998], [77.36875, 28.47675], [77.36850000000001, 28.47675], [77.36850000000001, 28.476999999999997], [77.36775, 28.476999999999997], [77.36775, 28.477749999999997], [77.367, 28.477749999999997]]]}, "properties": {"area_km2": 0.0224, "area_ha": 2.24}}, {"type": "Feature", "geometry": {"type": "Polygon", "coordinates": [[[77.29, 28.580499999999997], [77.29, 28.5785], [77.29075, 28.5785], [77.29075, 28.57875], [77.29100000000001, 28.57875], [77.29100000000001, 28.580499999999997], [77.29, 28.580499999999997]]]}, "properties": {"area_km2": 0.021, "area_ha": 2.1}}, {"type": "Feature", "geometry": {"type": "Polygon", "coordinates": [[[77.31525, 28.558999999999997], [77.31525, 28.5585], [77.31500000000001, 28.5585], [77.31500000000001, 28.55775], [77.31575000000001, 28.55775], [77.31575000000001, 28.557499999999997], [77.3165, 28.557499999999997], [77.3165, 28.558999999999997], [77.31525, 28.558999999999997]]]}, "properties": {"area_km2": 0.021, "area_ha": 2.1}}, {"type": "Feature", "geometry": {"type": "Polygon", "coordinates": [[[77.19850000000001, 28.443749999999998], [77.19850000000001, 28.442249999999998], [77.19975000000001, 28.442249999999998], [77.19975000000001, 28.443749999999998], [77.19850000000001, 28.443749999999998]]]}, "properties": {"area_km2": 0.0204, "area_ha": 2.04}}, {"type": "Feature", "geometry": {"type": "Polygon", "coordinates": [[[77.36075000000001, 28.43575], [77.36075000000001, 28.435], [77.36325000000001, 28.435], [77.36325000000001, 28.43575], [77.36075000000001, 28.43575]]]}, "properties": {"area_km2": 0.0204, "area_ha": 2.04}}, {"type": "Feature", "geometry": {"type": "Polygon", "coordinates": [[[77.055, 28.712999999999997], [77.055, 28.711499999999997], [77.05550000000001, 28.711499999999997], [77.05550000000001, 28.71125], [77.05625, 28.71125], [77.05625, 28.712249999999997], [77.05600000000001, 28.712249999999997], [77.05600000000001, 28.712999999999997], [77.055, 28.712999999999997]]]}, "properties": {"area_km2": 0.0203, "area_ha": 2.03}}, {"type": "Feature", "geometry": {"type": "Polygon", "coordinates": [[[77.20075, 28.733999999999998], [77.20075, 28.733749999999997], [77.2, 28.733749999999997], [77.2, 28.732999999999997], [77.20200000000001, 28.732999999999997], [77.20200000000001, 28.733999999999998], [77.20075, 28.733999999999998]]]}, "properties": {"area_km2": 0.0196, "area_ha": 1.96}}, {"type": "Feature", "geometry": {"type": "Polygon", "coordinates": [[[77.34700000000001, 28.511999999999997], [77.34700000000001, 28.51175], [77.3465, 28.51175], [77.3465, 28.510749999999998], [77.34800000000001, 28.510749999999998], [77.34800000000001, 28.511999999999997], [77.34700000000001, 28.511999999999997]]]}, "properties": {"area_km2": 0.019, "area_ha": 1.9}}, {"type": "Feature", "geometry": {"type": "Polygon", "coordinates": [[[77.14750000000001, 28.638499999999997], [77.14750000000001, 28.636999999999997], [77.14825, 28.636999999999997], [77.14825, 28.637749999999997], [77.149, 28.637749999999997], [77.149, 28.638499999999997], [77.14750000000001, 28.638499999999997]]]}, "properties": {"area_km2": 0.0183, "area_ha": 1.83}}, {"type": "Feature", "geometry": {"type": "Polygon", "coordinates": [[[77.24425000000001, 28.61725], [77.24425000000001, 28.6165], [77.2445, 28.6165], [77.2445, 28.616], [77.24575, 28.616], [77.24575, 28.616999999999997], [77.2455, 28.616999999999997], [77.2455, 28.61725], [77.24425000000001, 28.61725]]]}, "properties": {"area_km2": 0.0183, "area_ha": 1.83}}, {"type": "Feature", "geometry": {"type": "Polygon", "coordinates": [[[77.25500000000001, 28.61525], [77.25500000000001, 28.61425], [77.25675000000001, 28.61425], [77.25675000000001, 28.615], [77.2565, 28.615], [77.2565, 28.61525], [77.25500000000001, 28.61525]]]}, "properties": {"area_km2": 0.0183, "area_ha": 1.83}}, {"type": "Feature", "geometry": {"type": "Polygon", "coordinates": [[[77.07350000000001, 28.545749999999998], [77.07350000000001, 28.5445], [77.07375, 28.5445], [77.07375, 28.544249999999998], [77.07475000000001, 28.544249999999998], [77.07475000000001, 28.544999999999998], [77.0745, 28.544999999999998], [77.0745, 28.545749999999998], [77.07350000000001, 28.545749999999998]]]}, "properties": {"area_km2": 0.0176, "area_ha": 1.76}}, {"type": "Feature", "geometry": {"type": "Polygon", "coordinates": [[[77.38850000000001, 28.4665], [77.38850000000001, 28.46625], [77.38775000000001, 28.46625], [77.38775000000001, 28.4655], [77.38825, 28.4655], [77.38825, 28.465249999999997], [77.38925, 28.465249999999997], [77.38925, 28.4665], [77.38850000000001, 28.4665]]]}, "properties": {"area_km2": 0.017, "area_ha": 1.7}}, {"type": "Feature", "geometry": {"type": "Polygon", "coordinates": [[[77.27350000000001, 28.5915], [77.27350000000001, 28.590999999999998], [77.27275, 28.590999999999998], [77.27275, 28.590249999999997], [77.27425000000001, 28.590249999999997], [77.27425000000001, 28.5915], [77.27350000000001, 28.5915]]]}, "properties": {"area_km2": 0.0163, "area_ha": 1.63}}, {"type": "Feature", "geometry": {"type": "Polygon", "coordinates": [[[77.3135, 28.56075], [77.3135, 28.559749999999998], [77.31500000000001, 28.559749999999998], [77.31500000000001, 28.56075], [77.3135, 28.56075]]]}, "properties": {"area_km2": 0.0163, "area_ha": 1.63}}, {"type": "Feature", "geometry": {"type": "Polygon", "coordinates": [[[77.23, 28.690749999999998], [77.23, 28.689249999999998], [77.23100000000001, 28.689249999999998], [77.23100000000001, 28.690749999999998], [77.23, 28.690749999999998]]]}, "properties": {"area_km2": 0.0162, "area_ha": 1.62}}, {"type": "Feature", "geometry": {"type": "Polygon", "coordinates": [[[77.236, 28.668499999999998], [77.236, 28.667749999999998], [77.23625000000001, 28.667749999999998], [77.23625000000001, 28.667499999999997], [77.23675, 28.667499999999997], [77.23675, 28.66725], [77.23750000000001, 28.66725], [77.23750000000001, 28.668], [77.23700000000001, 28.668], [77.23700000000001, 28.668499999999998], [77.236, 28.668499999999998]]]}, "properties": {"area_km2": 0.0149, "area_ha": 1.49}}, {"type": "Feature", "geometry": {"type": "Polygon", "coordinates": [[[77.37725, 28.7395], [77.37725, 28.73875], [77.379, 28.73875], [77.379, 28.7395], [77.37725, 28.7395]]]}, "properties": {"area_km2": 0.0142, "area_ha": 1.42}}, {"type": "Feature", "geometry": {"type": "Polygon", "coordinates": [[[77.3045, 28.572999999999997], [77.3045, 28.571499999999997], [77.30525, 28.571499999999997], [77.30525, 28.571749999999998], [77.30550000000001, 28.571749999999998], [77.30550000000001, 28.572499999999998], [77.30525, 28.572499999999998], [77.30525, 28.572999999999997], [77.3045, 28.572999999999997]]]}, "properties": {"area_km2": 0.0142, "area_ha": 1.42}}, {"type": "Feature", "geometry": {"type": "Polygon", "coordinates": [[[77.37450000000001, 28.4565], [77.37450000000001, 28.45525], [77.37525000000001, 28.45525], [77.37525000000001, 28.45575], [77.37575000000001, 28.45575], [77.37575000000001, 28.4565], [77.37450000000001, 28.4565]]]}, "properties": {"area_km2": 0.0142, "area_ha": 1.42}}, {"type": "Feature", "geometry": {"type": "Polygon", "coordinates": [[[77.38600000000001, 28.444499999999998], [77.38600000000001, 28.4435], [77.3875, 28.4435], [77.3875, 28.444249999999997], [77.38675, 28.444249999999997], [77.38675, 28.444499999999998], [77.38600000000001, 28.444499999999998]]]}, "properties": {"area_km2": 0.0142, "area_ha": 1.42}}, {"type": "Feature", "geometry": {"type": "Polygon", "coordinates": [[[77.10950000000001, 28.565749999999998], [77.10950000000001, 28.564999999999998], [77.11, 28.564999999999998], [77.11, 28.5645], [77.111, 28.5645], [77.111, 28.56525], [77.11025000000001, 28.56525], [77.11025000000001, 28.565749999999998], [77.10950000000001, 28.565749999999998]]]}, "properties": {"area_km2": 0.0136, "area_ha": 1.36}}, {"type": "Feature", "geometry": {"type": "Polygon", "coordinates": [[[77.33850000000001, 28.523], [77.33850000000001, 28.522], [77.33975000000001, 28.522], [77.33975000000001, 28.523], [77.33850000000001, 28.523]]]}, "properties": {"area_km2": 0.0136, "area_ha": 1.36}}, {"type": "Feature", "geometry": {"type": "Polygon", "coordinates": [[[77.05575, 28.715], [77.05575, 28.713749999999997], [77.05675000000001, 28.713749999999997], [77.05675000000001, 28.715], [77.05575, 28.715]]]}, "properties": {"area_km2": 0.0135, "area_ha": 1.35}}, {"type": "Feature", "geometry": {"type": "Polygon", "coordinates": [[[77.26075, 28.6545], [77.26075, 28.65375], [77.26125, 28.65375], [77.26125, 28.65325], [77.262, 28.65325], [77.262, 28.654249999999998], [77.26175, 28.654249999999998], [77.26175, 28.6545], [77.26075, 28.6545]]]}, "properties": {"area_km2": 0.0135, "area_ha": 1.35}}, {"type": "Feature", "geometry": {"type": "Polygon", "coordinates": [[[77.04625, 28.714], [77.04625, 28.712999999999997], [77.04650000000001, 28.712999999999997], [77.04650000000001, 28.71275], [77.04725, 28.71275], [77.04725, 28.714], [77.04625, 28.714]]]}, "properties": {"area_km2": 0.0129, "area_ha": 1.29}}, {"type": "Feature", "geometry": {"type": "Polygon", "coordinates": [[[77.251, 28.660999999999998], [77.251, 28.66], [77.25225, 28.66], [77.25225, 28.66075], [77.25200000000001, 28.66075], [77.25200000000001, 28.660999999999998], [77.251, 28.660999999999998]]]}, "properties": {"area_km2": 0.0129, "area_ha": 1.29}}, {"type": "Feature", "geometry": {"type": "Polygon", "coordinates": [[[77.07900000000001, 28.545499999999997], [77.07900000000001, 28.54525], [77.07875, 28.54525], [77.07875, 28.5445], [77.08000000000001, 28.5445], [77.08000000000001, 28.545499999999997], [77.07900000000001, 28.545499999999997]]]}, "properties": {"area_km2": 0.0129, "area_ha": 1.29}}, {"type": "Feature", "geometry": {"type": "Polygon", "coordinates": [[[77.28250000000001, 28.48425], [77.28250000000001, 28.482999999999997], [77.28325000000001, 28.482999999999997], [77.28325000000001, 28.483249999999998], [77.2835, 28.483249999999998], [77.2835, 28.48425], [77.28250000000001, 28.48425]]]}, "properties": {"area_km2": 0.0129, "area_ha": 1.29}}, {"type": "Feature", "geometry": {"type": "Polygon", "coordinates": [[[77.23575000000001, 28.715], [77.23575000000001, 28.7135], [77.2365, 28.7135], [77.2365, 28.715], [77.23575000000001, 28.715]]]}, "properties": {"area_km2": 0.0122, "area_ha": 1.22}}, {"type": "Feature", "geometry": {"type": "Polygon", "coordinates": [[[77.2805, 28.588749999999997], [77.2805, 28.58775], [77.28125, 28.58775], [77.28125, 28.587999999999997], [77.28175, 28.587999999999997], [77.28175, 28.588749999999997], [77.2805, 28.588749999999997]]]}, "properties": {"area_km2": 0.0122, "area_ha": 1.22}}, {"type": "Feature", "geometry": {"type": "Polygon", "coordinates": [[[77.10775000000001, 28.5675], [77.10775000000001, 28.566], [77.1085, 28.566], [77.1085, 28.5675], [77.10775000000001, 28.5675]]]}, "properties": {"area_km2": 0.0122, "area_ha": 1.22}}, {"type": "Feature", "geometry": {"type": "Polygon", "coordinates": [[[77.3545, 28.51325], [77.3545, 28.51175], [77.35525000000001, 28.51175], [77.35525000000001, 28.51325], [77.3545, 28.51325]]]}, "properties": {"area_km2": 0.0122, "area_ha": 1.22}}, {"type": "Feature", "geometry": {"type": "Polygon", "coordinates": [[[77.0535, 28.714499999999997], [77.0535, 28.7135], [77.0545, 28.7135], [77.0545, 28.714499999999997], [77.0535, 28.714499999999997]]]}, "properties": {"area_km2": 0.0108, "area_ha": 1.08}}, {"type": "Feature", "geometry": {"type": "Polygon", "coordinates": [[[77.257, 28.623749999999998], [77.257, 28.62275], [77.25800000000001, 28.62275], [77.25800000000001, 28.623749999999998], [77.257, 28.623749999999998]]]}, "properties": {"area_km2": 0.0108, "area_ha": 1.08}}, {"type": "Feature", "geometry": {"type": "Polygon", "coordinates": [[[77.20175, 28.73275], [77.20175, 28.731499999999997], [77.2025, 28.731499999999997], [77.2025, 28.73275], [77.20175, 28.73275]]]}, "properties": {"area_km2": 0.0102, "area_ha": 1.02}}, {"type": "Feature", "geometry": {"type": "Polygon", "coordinates": [[[77.23100000000001, 28.683249999999997], [77.23100000000001, 28.68225], [77.232, 28.68225], [77.232, 28.683], [77.23175, 28.683], [77.23175, 28.683249999999997], [77.23100000000001, 28.683249999999997]]]}, "properties": {"area_km2": 0.0102, "area_ha": 1.02}}, {"type": "Feature", "geometry": {"type": "Polygon", "coordinates": [[[77.24525000000001, 28.66425], [77.24525000000001, 28.663999999999998], [77.245, 28.663999999999998], [77.245, 28.663249999999998], [77.24600000000001, 28.663249999999998], [77.24600000000001, 28.66425], [77.24525000000001, 28.66425]]]}, "properties": {"area_km2": 0.0102, "area_ha": 1.02}}, {"type": "Feature", "geometry": {"type": "Polygon", "coordinates": [[[77.259, 28.60325], [77.259, 28.601999999999997], [77.25975000000001, 28.601999999999997], [77.25975000000001, 28.60325], [77.259, 28.60325]]]}, "properties": {"area_km2": 0.0102, "area_ha": 1.02}}, {"type": "Feature", "geometry": {"type": "Polygon", "coordinates": [[[77.27875, 28.58975], [77.27875, 28.588749999999997], [77.27975, 28.588749999999997], [77.27975, 28.589499999999997], [77.27950000000001, 28.589499999999997], [77.27950000000001, 28.58975], [77.27875, 28.58975]]]}, "properties": {"area_km2": 0.0102, "area_ha": 1.02}}, {"type": "Feature", "geometry": {"type": "Polygon", "coordinates": [[[77.31575000000001, 28.552], [77.31575000000001, 28.55125], [77.316, 28.55125], [77.316, 28.551], [77.31675000000001, 28.551], [77.31675000000001, 28.552], [77.31575000000001, 28.552]]]}, "properties": {"area_km2": 0.0102, "area_ha": 1.02}}, {"type": "Feature", "geometry": {"type": "Polygon", "coordinates": [[[77.32325, 28.5385], [77.32325, 28.537249999999997], [77.32400000000001, 28.537249999999997], [77.32400000000001, 28.5385], [77.32325, 28.5385]]]}, "properties": {"area_km2": 0.0102, "area_ha": 1.02}}, {"type": "Feature", "geometry": {"type": "Polygon", "coordinates": [[[77.33975000000001, 28.522], [77.33975000000001, 28.520999999999997], [77.34075, 28.520999999999997], [77.34075, 28.521749999999997], [77.3405, 28.521749999999997], [77.3405, 28.522], [77.33975000000001, 28.522]]]}, "properties": {"area_km2": 0.0102, "area_ha": 1.02}}, {"type": "Feature", "geometry": {"type": "Polygon", "coordinates": [[[77.3615, 28.48275], [77.3615, 28.481499999999997], [77.36225, 28.481499999999997], [77.36225, 28.48275], [77.3615, 28.48275]]]}, "properties": {"area_km2": 0.0102, "area_ha": 1.02}}, {"type": "Feature", "geometry": {"type": "Polygon", "coordinates": [[[77.37425, 28.46325], [77.37425, 28.462], [77.375, 28.462], [77.375, 28.46325], [77.37425, 28.46325]]]}, "properties": {"area_km2": 0.0102, "area_ha": 1.02}}, {"type": "Feature", "geometry": {"type": "Polygon", "coordinates": [[[77.0425, 28.715249999999997], [77.0425, 28.71425], [77.04325, 28.71425], [77.04325, 28.715249999999997], [77.0425, 28.715249999999997]]]}, "properties": {"area_km2": 0.0081, "area_ha": 0.81}}, {"type": "Feature", "geometry": {"type": "Polygon", "coordinates": [[[77.38850000000001, 28.707749999999997], [77.38850000000001, 28.706999999999997], [77.38950000000001, 28.706999999999997], [77.38950000000001, 28.707749999999997], [77.38850000000001, 28.707749999999997]]]}, "properties": {"area_km2": 0.0081, "area_ha": 0.81}}, {"type": "Feature", "geometry": {"type": "Polygon", "coordinates": [[[77.262, 28.65325], [77.262, 28.65225], [77.26275000000001, 28.65225], [77.26275000000001, 28.65325], [77.262, 28.65325]]]}, "properties": {"area_km2": 0.0081, "area_ha": 0.81}}, {"type": "Feature", "geometry": {"type": "Polygon", "coordinates": [[[77.27900000000001, 28.616], [77.27900000000001, 28.61525], [77.28, 28.61525], [77.28, 28.616], [77.27900000000001, 28.616]]]}, "properties": {"area_km2": 0.0081, "area_ha": 0.81}}, {"type": "Feature", "geometry": {"type": "Polygon", "coordinates": [[[77.27575, 28.589], [77.27575, 28.58825], [77.27675, 28.58825], [77.27675, 28.589], [77.27575, 28.589]]]}, "properties": {"area_km2": 0.0081, "area_ha": 0.81}}, {"type": "Feature", "geometry": {"type": "Polygon", "coordinates": [[[77.277, 28.58175], [77.277, 28.581], [77.278, 28.581], [77.278, 28.58175], [77.277, 28.58175]]]}, "properties": {"area_km2": 0.0081, "area_ha": 0.81}}, {"type": "Feature", "geometry": {"type": "Polygon", "coordinates": [[[77.2925, 28.576249999999998], [77.2925, 28.575249999999997], [77.29325, 28.575249999999997], [77.29325, 28.576249999999998], [77.2925, 28.576249999999998]]]}, "properties": {"area_km2": 0.0081, "area_ha": 0.81}}, {"type": "Feature", "geometry": {"type": "Polygon", "coordinates": [[[77.113, 28.564], [77.113, 28.56325], [77.114, 28.56325], [77.114, 28.564], [77.113, 28.564]]]}, "properties": {"area_km2": 0.0081, "area_ha": 0.81}}, {"type": "Feature", "geometry": {"type": "Polygon", "coordinates": [[[77.3095, 28.56025], [77.3095, 28.55925], [77.31025000000001, 28.55925], [77.31025000000001, 28.56025], [77.3095, 28.56025]]]}, "properties": {"area_km2": 0.0081, "area_ha": 0.81}}, {"type": "Feature", "geometry": {"type": "Polygon", "coordinates": [[[77.30875, 28.555249999999997], [77.30875, 28.55425], [77.3095, 28.55425], [77.3095, 28.555249999999997], [77.30875, 28.555249999999997]]]}, "properties": {"area_km2": 0.0081, "area_ha": 0.81}}, {"type": "Feature", "geometry": {"type": "Polygon", "coordinates": [[[77.311, 28.549999999999997], [77.311, 28.549249999999997], [77.31200000000001, 28.549249999999997], [77.31200000000001, 28.549999999999997], [77.311, 28.549999999999997]]]}, "properties": {"area_km2": 0.0081, "area_ha": 0.81}}, {"type": "Feature", "geometry": {"type": "Polygon", "coordinates": [[[77.33300000000001, 28.529249999999998], [77.33300000000001, 28.52825], [77.33375000000001, 28.52825], [77.33375000000001, 28.529249999999998], [77.33300000000001, 28.529249999999998]]]}, "properties": {"area_km2": 0.0081, "area_ha": 0.81}}, {"type": "Feature", "geometry": {"type": "Polygon", "coordinates": [[[77.33725000000001, 28.5245], [77.33725000000001, 28.5235], [77.33800000000001, 28.5235], [77.33800000000001, 28.5245], [77.33725000000001, 28.5245]]]}, "properties": {"area_km2": 0.0081, "area_ha": 0.81}}, {"type": "Feature", "geometry": {"type": "Polygon", "coordinates": [[[77.29350000000001, 28.47675], [77.29350000000001, 28.476], [77.2945, 28.476], [77.2945, 28.47675], [77.29350000000001, 28.47675]]]}, "properties": {"area_km2": 0.0081, "area_ha": 0.81}}, {"type": "Feature", "geometry": {"type": "Polygon", "coordinates": [[[77.37100000000001, 28.456249999999997], [77.37100000000001, 28.45525], [77.37175, 28.45525], [77.37175, 28.456249999999997], [77.37100000000001, 28.456249999999997]]]}, "properties": {"area_km2": 0.0081, "area_ha": 0.81}}, {"type": "Feature", "geometry": {"type": "Polygon", "coordinates": [[[77.38250000000001, 28.437749999999998], [77.38250000000001, 28.436999999999998], [77.38350000000001, 28.436999999999998], [77.38350000000001, 28.437749999999998], [77.38250000000001, 28.437749999999998]]]}, "properties": {"area_km2": 0.0081, "area_ha": 0.81}}, {"type": "Feature", "geometry": {"type": "Polygon", "coordinates": [[[77.361, 28.731499999999997], [77.361, 28.730749999999997], [77.36175, 28.730749999999997], [77.36175, 28.731499999999997], [77.361, 28.731499999999997]]]}, "properties": {"area_km2": 0.0061, "area_ha": 0.61}}, {"type": "Feature", "geometry": {"type": "Polygon", "coordinates": [[[77.22175, 28.7215], [77.22175, 28.72075], [77.22250000000001, 28.72075], [77.22250000000001, 28.7215], [77.22175, 28.7215]]]}, "properties": {"area_km2": 0.0061, "area_ha": 0.61}}, {"type": "Feature", "geometry": {"type": "Polygon", "coordinates": [[[77.3615, 28.71275], [77.3615, 28.712], [77.36225, 28.712], [77.36225, 28.71275], [77.3615, 28.71275]]]}, "properties": {"area_km2": 0.0061, "area_ha": 0.61}}, {"type": "Feature", "geometry": {"type": "Polygon", "coordinates": [[[77.15450000000001, 28.639249999999997], [77.15450000000001, 28.638499999999997], [77.15525000000001, 28.638499999999997], [77.15525000000001, 28.639249999999997], [77.15450000000001, 28.639249999999997]]]}, "properties": {"area_km2": 0.0061, "area_ha": 0.61}}, {"type": "Feature", "geometry": {"type": "Polygon", "coordinates": [[[77.2775, 28.61275], [77.2775, 28.612], [77.27825, 28.612], [77.27825, 28.61275], [77.2775, 28.61275]]]}, "properties": {"area_km2": 0.0061, "area_ha": 0.61}}, {"type": "Feature", "geometry": {"type": "Polygon", "coordinates": [[[77.11775, 28.56625], [77.11775, 28.5655], [77.11850000000001, 28.5655], [77.11850000000001, 28.56625], [77.11775, 28.56625]]]}, "properties": {"area_km2": 0.0061, "area_ha": 0.61}}, {"type": "Feature", "geometry": {"type": "Polygon", "coordinates": [[[77.19225, 28.555249999999997], [77.19225, 28.554499999999997], [77.19300000000001, 28.554499999999997], [77.19300000000001, 28.555249999999997], [77.19225, 28.555249999999997]]]}, "properties": {"area_km2": 0.0061, "area_ha": 0.61}}, {"type": "Feature", "geometry": {"type": "Polygon", "coordinates": [[[77.31625000000001, 28.552999999999997], [77.31625000000001, 28.552249999999997], [77.31700000000001, 28.552249999999997], [77.31700000000001, 28.552999999999997], [77.31625000000001, 28.552999999999997]]]}, "properties": {"area_km2": 0.0061, "area_ha": 0.61}}, {"type": "Feature", "geometry": {"type": "Polygon", "coordinates": [[[77.307, 28.5495], [77.307, 28.54875], [77.30775000000001, 28.54875], [77.30775000000001, 28.5495], [77.307, 28.5495]]]}, "properties": {"area_km2": 0.0061, "area_ha": 0.61}}, {"type": "Feature", "geometry": {"type": "Polygon", "coordinates": [[[77.06325000000001, 28.547749999999997], [77.06325000000001, 28.546999999999997], [77.06400000000001, 28.546999999999997], [77.06400000000001, 28.547749999999997], [77.06325000000001, 28.547749999999997]]]}, "properties": {"area_km2": 0.0061, "area_ha": 0.61}}, {"type": "Feature", "geometry": {"type": "Polygon", "coordinates": [[[77.32375, 28.537], [77.32375, 28.53625], [77.3245, 28.53625], [77.3245, 28.537], [77.32375, 28.537]]]}, "properties": {"area_km2": 0.0061, "area_ha": 0.61}}, {"type": "Feature", "geometry": {"type": "Polygon", "coordinates": [[[77.3305, 28.5325], [77.3305, 28.53175], [77.33125000000001, 28.53175], [77.33125000000001, 28.5325], [77.3305, 28.5325]]]}, "properties": {"area_km2": 0.0061, "area_ha": 0.61}}, {"type": "Feature", "geometry": {"type": "Polygon", "coordinates": [[[77.36250000000001, 28.48125], [77.36250000000001, 28.4805], [77.36325000000001, 28.4805], [77.36325000000001, 28.48125], [77.36250000000001, 28.48125]]]}, "properties": {"area_km2": 0.0061, "area_ha": 0.61}}, {"type": "Feature", "geometry": {"type": "Polygon", "coordinates": [[[77.36575, 28.478499999999997], [77.36575, 28.477749999999997], [77.3665, 28.477749999999997], [77.3665, 28.478499999999997], [77.36575, 28.478499999999997]]]}, "properties": {"area_km2": 0.0061, "area_ha": 0.61}}, {"type": "Feature", "geometry": {"type": "Polygon", "coordinates": [[[77.37175, 28.460749999999997], [77.37175, 28.459999999999997], [77.3725, 28.459999999999997], [77.3725, 28.460749999999997], [77.37175, 28.460749999999997]]]}, "properties": {"area_km2": 0.0061, "area_ha": 0.61}}, {"type": "Feature", "geometry": {"type": "Polygon", "coordinates": [[[77.36875, 28.45525], [77.36875, 28.4545], [77.3695, 28.4545], [77.3695, 28.45525], [77.36875, 28.45525]]]}, "properties": {"area_km2": 0.0061, "area_ha": 0.61}}, {"type": "Feature", "geometry": {"type": "Polygon", "coordinates": [[[77.38650000000001, 28.448999999999998], [77.38650000000001, 28.448249999999998], [77.38725000000001, 28.448249999999998], [77.38725000000001, 28.448999999999998], [77.38650000000001, 28.448999999999998]]]}, "properties": {"area_km2": 0.0061, "area_ha": 0.61}}, {"type": "Feature", "geometry": {"type": "Polygon", "coordinates": [[[77.36675000000001, 28.438499999999998], [77.36675000000001, 28.437749999999998], [77.3675, 28.437749999999998], [77.3675, 28.438499999999998], [77.36675000000001, 28.438499999999998]]]}, "properties": {"area_km2": 0.0061, "area_ha": 0.61}}]}