{"type": "FeatureCollection", "name": "flood_pass-20260905-12", "features": [{"type": "Feature", "geometry": {"type": "Polygon", "coordinates": [[[77.2945, 28.57425], [77.2945, 28.572249999999997], [77.29400000000001, 28.572249999999997], [77.29400000000001, 28.571499999999997], [77.29425, 28.571499999999997], [77.29425, 28.57125], [77.295, 28.57125], [77.295, 28.569249999999997], [77.29525000000001, 28.569249999999997], [77.29525000000001, 28.568499999999997], [77.296, 28.568499999999997], [77.296, 28.56675], [77.29650000000001, 28.56675], [77.29650000000001, 28.564249999999998], [77.29775000000001, 28.564249999999998], [77.29775000000001, 28.56525], [77.299, 28.56525], [77.299, 28.564999999999998], [77.29925, 28.564999999999998], [77.29925, 28.56325], [77.29875000000001, 28.56325], [77.29875000000001, 28.56025], [77.299, 28.56025], [77.299, 28.559749999999998], [77.3005, 28.559749999999998], [77.3005, 28.55875], [77.30075000000001, 28.55875], [77.30075000000001, 28.557], [77.30125000000001, 28.557], [77.30125000000001, 28.556749999999997], [77.30300000000001, 28.556749999999997], [77.30300000000001, 28.5585], [77.30275, 28.5585], [77.30275, 28.55875], [77.30225, 28.55875], [77.30225, 28.560499999999998], [77.302, 28.560499999999998], [77.302, 28.56175], [77.3015, 28.56175], [77.3015, 28.564999999999998], [77.30250000000001, 28.564999999999998], [77.30250000000001, 28.566499999999998], [77.30225, 28.566499999999998], [77.30225, 28.567], [77.30075000000001, 28.567], [77.30075000000001, 28.567999999999998], [77.30000000000001, 28.567999999999998], [77.30000000000001, 28.56825], [77.29975, 28.56825], [77.29975, 28.568499999999997], [77.29950000000001, 28.568499999999997], [77.29950000000001, 28.568749999999998], [77.29775000000001, 28.568749999999998], [77.29775000000001, 28.569499999999998], [77.2975, 28.569499999999998], [77.2975, 28.5705], [77.29725, 28.5705], [77.29725, 28.571499999999997], [77.29700000000001, 28.571499999999997], [77.29700000000001, 28.572249999999997], [77.29675, 28.572249999999997], [77.29675, 28.57275], [77.29625, 28.57275], [77.29625, 28.572999999999997], [77.2955, 28.572999999999997], [77.2955, 28.573999999999998], [77.29525000000001, 28.573999999999998], [77.29525000000001, 28.57425], [77.2945, 28.57425]]]}, "properties": {"area_km2": 0.574, "area_ha": 57.4}}, {"type": "Feature", "geometry": {"type": "Polygon", "coordinates": [[[77.35125000000001, 28.504749999999998], [77.35125000000001, 28.502499999999998], [77.352, 28.502499999999998], [77.352, 28.50225], [77.35225000000001, 28.50225], [77.35225000000001, 28.50075], [77.352, 28.50075], [77.352, 28.49975], [77.35175000000001, 28.49975], [77.35175000000001, 28.499], [77.35275, 28.499], [77.35275, 28.497999999999998], [77.35300000000001, 28.497999999999998], [77.35300000000001, 28.497249999999998], [77.35325, 28.497249999999998], [77.35325, 28.496499999999997], [77.35350000000001, 28.496499999999997], [77.35350000000001, 28.49625], [77.35375, 28.49625], [77.35375, 28.495749999999997], [77.354, 28.495749999999997], [77.354, 28.494999999999997], [77.35425000000001, 28.494999999999997], [77.35425000000001, 28.49475], [77.35525000000001, 28.49475], [77.35525000000001, 28.493], [77.3555, 28.493], [77.3555, 28.491999999999997], [77.35575, 28.491999999999997], [77.35575, 28.49075], [77.35600000000001, 28.49075], [77.35600000000001, 28.49025], [77.35625, 28.49025], [77.35625, 28.489749999999997], [77.35650000000001, 28.489749999999997], [77.35650000000001, 28.4895], [77.35675, 28.4895], [77.35675, 28.48875], [77.357, 28.48875], [77.357, 28.488], [77.35775000000001, 28.488], [77.35775000000001, 28.48875], [77.358, 28.48875], [77.358, 28.491], [77.35775000000001, 28.491], [77.35775000000001, 28.49175], [77.35725000000001, 28.49175], [77.35725000000001, 28.49225], [77.357, 28.49225], [77.357, 28.493499999999997], [77.35675, 28.493499999999997], [77.35675, 28.49475], [77.35600000000001, 28.49475], [77.35600000000001, 28.49525], [77.3555, 28.49525], [77.3555, 28.497], [77.355, 28.497], [77.355, 28.4985], [77.35475000000001, 28.4985], [77.35475000000001, 28.5], [77.35425000000001, 28.5], [77.35425000000001, 28.500999999999998], [77.354, 28.500999999999998], [77.354, 28.50125], [77.35350000000001, 28.50125], [77.35350000000001, 28.502499999999998], [77.35300000000001, 28.502499999999998], [77.35300000000001, 28.503249999999998], [77.35275, 28.503249999999998], [77.35275, 28.503999999999998], [77.3525, 28.503999999999998], [77.3525, 28.504749999999998], [77.35125000000001, 28.504749999999998]]]}, "properties": {"area_km2": 0.3181, "area_ha": 31.81}}, {"type": "Feature", "geometry": {"type": "Polygon", "coordinates": [[[77.34, 28.52225], [77.34, 28.5215], [77.34025000000001, 28.5215], [77.34025000000001, 28.52075], [77.3405, 28.52075], [77.3405, 28.519499999999997], [77.34150000000001, 28.519499999999997], [77.34150000000001, 28.518749999999997], [77.34175, 28.518749999999997], [77.34175, 28.51825], [77.34225, 28.51825], [77.34225, 28.51775], [77.34275000000001, 28.51775], [77.34275000000001, 28.517249999999997], [77.3435, 28.517249999999997], [77.3435, 28.51625], [77.34375, 28.51625], [77.34375, 28.515749999999997], [77.34450000000001, 28.515749999999997], [77.34450000000001, 28.51475], [77.34475, 28.51475], [77.34475, 28.514499999999998], [77.3455, 28.514499999999998], [77.3455, 28.513749999999998], [77.34575000000001, 28.513749999999998], [77.34575000000001, 28.5125], [77.346, 28.5125], [77.346, 28.511999999999997], [77.3465, 28.511999999999997], [77.3465, 28.510749999999998], [77.34750000000001, 28.510749999999998], [77.34750000000001, 28.51025], [77.34800000000001, 28.51025], [77.34800000000001, 28.509999999999998], [77.34825000000001, 28.509999999999998], [77.34825000000001, 28.509249999999998], [77.3485, 28.509249999999998], [77.3485, 28.508999999999997], [77.34925000000001, 28.508999999999997], [77.34925000000001, 28.509999999999998], [77.349, 28.509999999999998], [77.349, 28.51025], [77.34875000000001, 28.51025], [77.34875000000001, 28.510749999999998], [77.3485, 28.510749999999998], [77.3485, 28.511249999999997], [77.34800000000001, 28.511249999999997], [77.34800000000001, 28.511999999999997], [77.34675, 28.511999999999997], [77.34675, 28.513499999999997], [77.34700000000001, 28.513499999999997], [77.34700000000001, 28.514499999999998], [77.34675, 28.514499999999998], [77.34675, 28.51475], [77.34625000000001, 28.51475], [77.34625000000001, 28.515249999999998], [77.3455, 28.515249999999998], [77.3455, 28.51625], [77.34500000000001, 28.51625], [77.34500000000001, 28.516499999999997], [77.34475, 28.516499999999997], [77.34475, 28.517249999999997], [77.34450000000001, 28.517249999999997], [77.34450000000001, 28.5175], [77.34425, 28.5175], [77.34425, 28.517999999999997], [77.34400000000001, 28.517999999999997], [77.34400000000001, 28.5185], [77.34375, 28.5185], [77.34375, 28.518749999999997], [77.343, 28.518749999999997], [77.343, 28.519], [77.34275000000001, 28.519], [77.34275000000001, 28.52], [77.34175, 28.52], [77.34175, 28.522], [77.34150000000001, 28.522], [77.34150000000001, 28.52225], [77.34, 28.52225]]]}, "properties": {"area_km2": 0.2068, "area_ha": 20.68}}, {"type": "Feature", "geometry": {"type": "Polygon", "coordinates": [[[77.32825000000001, 28.4885], [77.32825000000001, 28.488249999999997], [77.328, 28.488249999999997], [77.328, 28.487499999999997], [77.32475000000001, 28.487499999999997], [77.32475000000001, 28.48725], [77.32400000000001, 28.48725], [77.32400000000001, 28.4865], [77.32425, 28.4865], [77.32425, 28.48625], [77.32475000000001, 28.48625], [77.32475000000001, 28.485], [77.32575, 28.485], [77.32575, 28.48475], [77.32650000000001, 28.48475], [77.32650000000001, 28.485], [77.3285, 28.485], [77.3285, 28.48475], [77.32875, 28.48475], [77.32875, 28.48425], [77.32975, 28.48425], [77.32975, 28.4855], [77.33000000000001, 28.4855], [77.33000000000001, 28.48575], [77.331, 28.48575], [77.331, 28.485999999999997], [77.33125000000001, 28.485999999999997], [77.33125000000001, 28.486749999999997], [77.3305, 28.486749999999997], [77.3305, 28.487], [77.32925, 28.487], [77.32925, 28.48775], [77.32900000000001, 28.48775], [77.32900000000001, 28.4885], [77.32825000000001, 28.4885]]]}, "properties": {"area_km2": 0.1804, "area_ha": 18.04}}, {"type": "Feature", "geometry": {"type": "Polygon", "coordinates": [[[77.25125000000001, 28.660999999999998], [77.25125000000001, 28.660249999999998], [77.25275, 28.660249999999998], [77.25275, 28.65925], [77.254, 28.65925], [77.254, 28.659], [77.25425000000001, 28.659], [77.25425000000001, 28.658749999999998], [77.25450000000001, 28.658749999999998], [77.25450000000001, 28.6585], [77.25500000000001, 28.6585], [77.25500000000001, 28.65825], [77.25575, 28.65825], [77.25575, 28.657999999999998], [77.256, 28.657999999999998], [77.256, 28.65775], [77.25625000000001, 28.65775], [77.25625000000001, 28.6575], [77.257, 28.6575], [77.257, 28.657249999999998], [77.25725000000001, 28.657249999999998], [77.25725000000001, 28.657], [77.25775, 28.657], [77.25775, 28.656499999999998], [77.25850000000001, 28.656499999999998], [77.25850000000001, 28.655749999999998], [77.25925000000001, 28.655749999999998], [77.25925000000001, 28.6555], [77.2595, 28.6555], [77.2595, 28.654999999999998], [77.25975000000001, 28.654999999999998], [77.25975000000001, 28.65475], [77.26050000000001, 28.65475], [77.26050000000001, 28.65625], [77.26025, 28.65625], [77.26025, 28.657249999999998], [77.2595, 28.657249999999998], [77.2595, 28.6575], [77.25925000000001, 28.6575], [77.25925000000001, 28.65775], [77.25800000000001, 28.65775], [77.25800000000001, 28.65925], [77.25750000000001, 28.65925], [77.25750000000001, 28.65975], [77.25475, 28.65975], [77.25475, 28.6605], [77.25450000000001, 28.6605], [77.25450000000001, 28.66075], [77.25375000000001, 28.66075], [77.25375000000001, 28.660999999999998], [77.25125000000001, 28.660999999999998]]]}, "properties": {"area_km2": 0.1747, "area_ha": 17.47}}, {"type": "Feature", "geometry": {"type": "Polygon", "coordinates": [[[77.28375000000001, 28.587249999999997], [77.28375000000001, 28.586], [77.28175, 28.586], [77.28175, 28.5855], [77.28125, 28.5855], [77.28125, 28.58525], [77.2805, 28.58525], [77.2805, 28.5845], [77.28225, 28.5845], [77.28225, 28.584], [77.283, 28.584], [77.283, 28.584249999999997], [77.28425, 28.584249999999997], [77.28425, 28.58375], [77.28525, 28.58375], [77.28525, 28.583], [77.286, 28.583], [77.286, 28.5825], [77.28800000000001, 28.5825], [77.28800000000001, 28.582749999999997], [77.289, 28.582749999999997], [77.289, 28.58375], [77.28725, 28.58375], [77.28725, 28.58525], [77.286, 28.58525], [77.286, 28.5855], [77.28575000000001, 28.5855], [77.28575000000001, 28.585749999999997], [77.28450000000001, 28.585749999999997], [77.28450000000001, 28.587249999999997], [77.28375000000001, 28.587249999999997]]]}, "properties": {"area_km2": 0.1721, "area_ha": 17.21}}, {"type": "Feature", "geometry": {"type": "Polygon", "coordinates": [[[77.38050000000001, 28.4545], [77.38050000000001, 28.45425], [77.37875000000001, 28.45425], [77.37875000000001, 28.453999999999997], [77.37750000000001, 28.453999999999997], [77.37750000000001, 28.45375], [77.375, 28.45375], [77.375, 28.453], [77.37450000000001, 28.453], [77.37450000000001, 28.452749999999998], [77.37425, 28.452749999999998], [77.37425, 28.452499999999997], [77.373, 28.452499999999997], [77.373, 28.451749999999997], [77.37400000000001, 28.451749999999997], [77.37400000000001, 28.4515], [77.37475, 28.4515], [77.37475, 28.451749999999997], [77.37525000000001, 28.451749999999997], [77.37525000000001, 28.451999999999998], [77.3755, 28.451999999999998], [77.3755, 28.45225], [77.37575000000001, 28.45225], [77.37575000000001, 28.452499999999997], [77.379, 28.452499999999997], [77.379, 28.452749999999998], [77.3815, 28.452749999999998], [77.3815, 28.453], [77.38175000000001, 28.453], [77.38175000000001, 28.453249999999997], [77.38300000000001, 28.453249999999997], [77.38300000000001, 28.4535], [77.38475000000001, 28.4535], [77.38475000000001, 28.45375], [77.385, 28.45375], [77.385, 28.4545], [77.38050000000001, 28.4545]]]}, "properties": {"area_km2": 0.1703, "area_ha": 17.03}}, {"type": "Feature", "geometry": {"type": "Polygon", "coordinates": [[[77.23125, 28.702499999999997], [77.23125, 28.701749999999997], [77.23025000000001, 28.701749999999997], [77.23025000000001, 28.7], [77.23, 28.7], [77.23, 28.69925], [77.23100000000001, 28.69925], [77.23100000000001, 28.697999999999997], [77.23075, 28.697999999999997], [77.23075, 28.69625], [77.23025000000001, 28.69625], [77.23025000000001, 28.695749999999997], [77.22925000000001, 28.695749999999997], [77.22925000000001, 28.694999999999997], [77.23, 28.694999999999997], [77.23, 28.692], [77.23075, 28.692], [77.23075, 28.69275], [77.23100000000001, 28.69275], [77.23100000000001, 28.694249999999997], [77.23125, 28.694249999999997], [77.23125, 28.695249999999998], [77.23150000000001, 28.695249999999998], [77.23150000000001, 28.697249999999997], [77.23175, 28.697249999999997], [77.23175, 28.69775], [77.232, 28.69775], [77.232, 28.699499999999997], [77.23225000000001, 28.699499999999997], [77.23225000000001, 28.700999999999997], [77.232, 28.700999999999997], [77.232, 28.702499999999997], [77.23125, 28.702499999999997]]]}, "properties": {"area_km2": 0.1469, "area_ha": 14.69}}, {"type": "Feature", "geometry": {"type": "Polygon", "coordinates": [[[77.31875000000001, 28.543249999999997], [77.31875000000001, 28.541249999999998], [77.3195, 28.541249999999998], [77.3195, 28.5415], [77.32075, 28.5415], [77.32075, 28.539749999999998], [77.32050000000001, 28.539749999999998], [77.32050000000001, 28.538749999999997], [77.32075, 28.538749999999997], [77.32075, 28.5385], [77.32125, 28.5385], [77.32125, 28.53775], [77.32350000000001, 28.53775], [77.32350000000001, 28.53925], [77.32375, 28.53925], [77.32375, 28.54], [77.32350000000001, 28.54], [77.32350000000001, 28.540249999999997], [77.32275, 28.540249999999997], [77.32275, 28.54075], [77.3225, 28.54075], [77.3225, 28.540999999999997], [77.32225000000001, 28.540999999999997], [77.32225000000001, 28.541249999999998], [77.32175000000001, 28.541249999999998], [77.32175000000001, 28.5415], [77.3215, 28.5415], [77.3215, 28.541749999999997], [77.32125, 28.541749999999997], [77.32125, 28.542749999999998], [77.32075, 28.542749999999998], [77.32075, 28.543249999999997], [77.31875000000001, 28.543249999999997]]]}, "properties": {"area_km2": 0.1451, "area_ha": 14.51}}, {"type": "Feature", "geometry": {"type": "Polygon", "coordinates": [[[77.233, 28.7135], [77.233, 28.712249999999997], [77.23275000000001, 28.712249999999997], [77.23275000000001, 28.71025], [77.23225000000001, 28.71025], [77.23225000000001, 28.709999999999997], [77.23150000000001, 28.709999999999997], [77.23150000000001, 28.70875], [77.23100000000001, 28.70875], [77.23100000000001, 28.707749999999997], [77.23075, 28.707749999999997], [77.23075, 28.706249999999997], [77.23225000000001, 28.706249999999997], [77.23225000000001, 28.7065], [77.23275000000001, 28.7065], [77.23275000000001, 28.708499999999997], [77.23325000000001, 28.708499999999997], [77.23325000000001, 28.70875], [77.2335, 28.70875], [77.2335, 28.709], [77.23375, 28.709], [77.23375, 28.709249999999997], [77.23400000000001, 28.709249999999997], [77.23400000000001, 28.7095], [77.235, 28.7095], [77.235, 28.70975], [77.23525000000001, 28.70975], [77.23525000000001, 28.7105], [77.23475, 28.7105], [77.23475, 28.710749999999997], [77.23375, 28.710749999999997], [77.23375, 28.7125], [77.23400000000001, 28.7125], [77.23400000000001, 28.7135], [77.233, 28.7135]]]}, "properties": {"area_km2": 0.1388, "area_ha": 13.88}}, {"type": "Feature", "geometry": {"type": "Polygon", "coordinates": [[[77.23150000000001, 28.680999999999997], [77.23150000000001, 28.679], [77.232, 28.679], [77.232, 28.677], [77.233, 28.677], [77.233, 28.676499999999997], [77.23325000000001, 28.676499999999997], [77.23325000000001, 28.67525], [77.233, 28.67525], [77.233, 28.673], [77.23400000000001, 28.673], [77.23400000000001, 28.672749999999997], [77.23475, 28.672749999999997], [77.23475, 28.67525], [77.23450000000001, 28.67525], [77.23450000000001, 28.676499999999997], [77.23400000000001, 28.676499999999997], [77.23400000000001, 28.67775], [77.23325000000001, 28.67775], [77.23325000000001, 28.679], [77.233, 28.679], [77.233, 28.680249999999997], [77.23275000000001, 28.680249999999997], [77.23275000000001, 28.680999999999997], [77.23150000000001, 28.680999999999997]]]}, "properties": {"area_km2": 0.1307, "area_ha": 13.07}}, {"type": "Feature", "geometry": {"type": "Polygon", "coordinates": [[[77.31500000000001, 28.558999999999997], [77.31500000000001, 28.55775], [77.31525, 28.55775], [77.31525, 28.557499999999997], [77.31575000000001, 28.557499999999997], [77.31575000000001, 28.55575], [77.316, 28.55575], [77.316, 28.555249999999997], [77.31750000000001, 28.555249999999997], [77.31750000000001, 28.5525], [77.31675000000001, 28.5525], [77.31675000000001, 28.55175], [77.316, 28.55175], [77.316, 28.5505], [77.31675000000001, 28.5505], [77.31675000000001, 28.551499999999997], [77.31800000000001, 28.551499999999997], [77.31800000000001, 28.552249999999997], [77.31825, 28.552249999999997], [77.31825, 28.55425], [77.3185, 28.55425], [77.3185, 28.555999999999997], [77.31825, 28.555999999999997], [77.31825, 28.55625], [77.31700000000001, 28.55625], [77.31700000000001, 28.557499999999997], [77.3165, 28.557499999999997], [77.3165, 28.5585], [77.316, 28.5585], [77.316, 28.558999999999997], [77.31500000000001, 28.558999999999997]]]}, "properties": {"area_km2": 0.1152, "area_ha": 11.52}}, {"type": "Feature", "geometry": {"type": "Polygon", "coordinates": [[[77.38300000000001, 28.468], [77.38300000000001, 28.467], [77.38375, 28.467], [77.38375, 28.466749999999998], [77.38425000000001, 28.466749999999998], [77.38425000000001, 28.46625], [77.3845, 28.46625], [77.3845, 28.465999999999998], [77.38600000000001, 28.465999999999998], [77.38600000000001, 28.4655], [77.38675, 28.4655], [77.38675, 28.465249999999997], [77.38950000000001, 28.465249999999997], [77.38950000000001, 28.4665], [77.38925, 28.4665], [77.38925, 28.466749999999998], [77.38900000000001, 28.466749999999998], [77.38900000000001, 28.467], [77.38625, 28.467], [77.38625, 28.46775], [77.3845, 28.46775], [77.3845, 28.468], [77.38300000000001, 28.468]]]}, "properties": {"area_km2": 0.1126, "area_ha": 11.26}}, {"type": "Feature", "geometry": {"type": "Polygon", "coordinates": [[[77.30175000000001, 28.5555], [77.30175000000001, 28.554499999999997], [77.30025, 28.554499999999997], [77.30025, 28.5535], [77.30225, 28.5535], [77.30225, 28.552999999999997], [77.30325, 28.552999999999997], [77.30325, 28.55325], [77.30425000000001, 28.55325], [77.30425000000001, 28.555], [77.30375000000001, 28.555], [77.30375000000001, 28.5555], [77.30175000000001, 28.5555]]]}, "properties": {"area_km2": 0.0759, "area_ha": 7.59}}, {"type": "Feature", "geometry": {"type": "Polygon", "coordinates": [[[77.26350000000001, 28.64775], [77.26350000000001, 28.64575], [77.26375, 28.64575], [77.26375, 28.6455], [77.26450000000001, 28.6455], [77.26450000000001, 28.643749999999997], [77.2655, 28.643749999999997], [77.2655, 28.644], [77.26575000000001, 28.644], [77.26575000000001, 28.645], [77.266, 28.645], [77.266, 28.64625], [77.2655, 28.64625], [77.2655, 28.64725], [77.26425, 28.64725], [77.26425, 28.64775], [77.26350000000001, 28.64775]]]}, "properties": {"area_km2": 0.0698, "area_ha": 6.98}}, {"type": "Feature", "geometry": {"type": "Polygon", "coordinates": [[[77.31175, 28.55025], [77.31175, 28.549999999999997], [77.31150000000001, 28.549999999999997], [77.31150000000001, 28.54875], [77.3105, 28.54875], [77.3105, 28.547749999999997], [77.31025000000001, 28.547749999999997], [77.31025000000001, 28.546499999999998], [77.3105, 28.546499999999998], [77.3105, 28.546249999999997], [77.31150000000001, 28.546249999999997], [77.31150000000001, 28.54725], [77.31200000000001, 28.54725], [77.31200000000001, 28.548], [77.31275000000001, 28.548], [77.31275000000001, 28.55025], [77.31175, 28.55025]]]}, "properties": {"area_km2": 0.0644, "area_ha": 6.44}}, {"type": "Feature", "geometry": {"type": "Polygon", "coordinates": [[[77.2655, 28.596], [77.2655, 28.595], [77.26575000000001, 28.595], [77.26575000000001, 28.594749999999998], [77.26650000000001, 28.594749999999998], [77.26650000000001, 28.593999999999998], [77.269, 28.593999999999998], [77.269, 28.59425], [77.26975, 28.59425], [77.26975, 28.595], [77.2685, 28.595], [77.2685, 28.59525], [77.26775, 28.59525], [77.26775, 28.595499999999998], [77.26725, 28.595499999999998], [77.26725, 28.59575], [77.26675, 28.59575], [77.26675, 28.596], [77.2655, 28.596]]]}, "properties": {"area_km2": 0.0576, "area_ha": 5.76}}, {"type": "Feature", "geometry": {"type": "Polygon", "coordinates": [[[77.3155, 28.54725], [77.3155, 28.546], [77.31500000000001, 28.546], [77.31500000000001, 28.545499999999997], [77.31475, 28.545499999999997], [77.31475, 28.54525], [77.31450000000001, 28.54525], [77.31450000000001, 28.544249999999998], [77.31475, 28.544249999999998], [77.31475, 28.543999999999997], [77.31500000000001, 28.543999999999997], [77.31500000000001, 28.54375], [77.31675000000001, 28.54375], [77.31675000000001, 28.54525], [77.3165, 28.54525], [77.3165, 28.545499999999997], [77.31625000000001, 28.545499999999997], [77.31625000000001, 28.54725], [77.3155, 28.54725]]]}, "properties": {"area_km2": 0.0563, "area_ha": 5.63}}, {"type": "Feature", "geometry": {"type": "Polygon", "coordinates": [[[77.33075000000001, 28.53175], [77.33075000000001, 28.531], [77.331, 28.531], [77.331, 28.529999999999998], [77.33250000000001, 28.529999999999998], [77.33250000000001, 28.529249999999998], [77.33375000000001, 28.529249999999998], [77.33375000000001, 28.530749999999998], [77.33325, 28.530749999999998], [77.33325, 28.531], [77.33250000000001, 28.531], [77.33250000000001, 28.53125], [77.33225, 28.53125], [77.33225, 28.53175], [77.33075000000001, 28.53175]]]}, "properties": {"area_km2": 0.0515, "area_ha": 5.15}}, {"type": "Feature", "geometry": {"type": "Polygon", "coordinates": [[[77.38875, 28.715999999999998], [77.38875, 28.71575], [77.38850000000001, 28.71575], [77.38850000000001, 28.7155], [77.38825, 28.7155], [77.38825, 28.715249999999997], [77.3875, 28.715249999999997], [77.3875, 28.71475], [77.387, 28.71475], [77.387, 28.714499999999997], [77.38650000000001, 28.714499999999997], [77.38650000000001, 28.71275], [77.38775000000001, 28.71275], [77.38775000000001, 28.714], [77.388, 28.714], [77.388, 28.71425], [77.38825, 28.71425], [77.38825, 28.71475], [77.38950000000001, 28.71475], [77.38950000000001, 28.715999999999998], [77.38875, 28.715999999999998]]]}, "properties": {"area_km2": 0.0481, "area_ha": 4.81}}, {"type": "Feature", "geometry": {"type": "Polygon", "coordinates": [[[77.27325, 28.592], [77.27325, 28.59125], [77.27250000000001, 28.59125], [77.27250000000001, 28.590249999999997], [77.27425000000001, 28.590249999999997], [77.27425000000001, 28.59], [77.27550000000001, 28.59], [77.27550000000001, 28.59075], [77.27525, 28.59075], [77.27525, 28.5915], [77.2745, 28.5915], [77.2745, 28.592], [77.27325, 28.592]]]}, "properties": {"area_km2": 0.0468, "area_ha": 4.68}}, {"type": "Feature", "geometry": {"type": "Polygon", "coordinates": [[[77.38675, 28.729499999999998], [77.38675, 28.72675], [77.38725000000001, 28.72675], [77.38725000000001, 28.725749999999998], [77.388, 28.725749999999998], [77.388, 28.7275], [77.38825, 28.7275], [77.38825, 28.72825], [77.38775000000001, 28.72825], [77.38775000000001, 28.729499999999998], [77.38675, 28.729499999999998]]]}, "properties": {"area_km2": 0.044, "area_ha": 4.4}}, {"type": "Feature", "geometry": {"type": "Polygon", "coordinates": [[[77.27900000000001, 28.58975], [77.27900000000001, 28.588749999999997], [77.27925, 28.588749999999997], [77.27925, 28.5885], [77.28, 28.5885], [77.28, 28.587249999999997], [77.28075000000001, 28.587249999999997], [77.28075000000001, 28.5875], [77.28125, 28.5875], [77.28125, 28.58825], [77.28175, 28.58825], [77.28175, 28.58925], [77.28, 28.58925], [77.28, 28.58975], [77.27900000000001, 28.58975]]]}, "properties": {"area_km2": 0.044, "area_ha": 4.4}}, {"type": "Feature", "geometry": {"type": "Polygon", "coordinates": [[[77.373, 28.473499999999998], [77.373, 28.472749999999998], [77.37325000000001, 28.472749999999998], [77.37325000000001, 28.47175], [77.37375, 28.47175], [77.37375, 28.471249999999998], [77.37450000000001, 28.471249999999998], [77.37450000000001, 28.471], [77.37525000000001, 28.471], [77.37525000000001, 28.4715], [77.3755, 28.4715], [77.3755, 28.4725], [77.37525000000001, 28.4725], [77.37525000000001, 28.472749999999998], [77.37425, 28.472749999999998], [77.37425, 28.473], [77.37400000000001, 28.473], [77.37400000000001, 28.473499999999998], [77.373, 28.473499999999998]]]}, "properties": {"area_km2": 0.0434, "area_ha": 4.34}}, {"type": "Feature", "geometry": {"type": "Polygon", "coordinates": [[[77.37775, 28.47175], [77.37775, 28.471249999999998], [77.37750000000001, 28.471249999999998], [77.37750000000001, 28.470499999999998], [77.37725, 28.470499999999998], [77.37725, 28.469749999999998], [77.37750000000001, 28.469749999999998], [77.37750000000001, 28.46925], [77.37825000000001, 28.46925], [77.37825000000001, 28.4695], [77.37925000000001, 28.4695], [77.37925000000001, 28.471249999999998], [77.37875000000001, 28.471249999999998], [77.37875000000001, 28.4715], [77.3785, 28.4715], [77.3785, 28.47175], [77.37775, 28.47175]]]}, "properties": {"area_km2": 0.0421, "area_ha": 4.21}}, {"type": "Feature", "geometry": {"type": "Polygon", "coordinates": [[[77.3845, 28.735], [77.3845, 28.733749999999997], [77.38475000000001, 28.733749999999997], [77.38475000000001, 28.732499999999998], [77.38550000000001, 28.732499999999998], [77.38550000000001, 28.733749999999997], [77.38725000000001, 28.733749999999997], [77.38725000000001, 28.734499999999997], [77.38625, 28.734499999999997], [77.38625, 28.735], [77.3845, 28.735]]]}, "properties": {"area_km2": 0.042, "area_ha": 4.2}}, {"type": "Feature", "geometry": {"type": "Polygon", "coordinates": [[[77.116, 28.5675], [77.116, 28.566], [77.1165, 28.566], [77.1165, 28.565749999999998], [77.11800000000001, 28.565749999999998], [77.11800000000001, 28.5675], [77.116, 28.5675]]]}, "properties": {"area_km2": 0.0366, "area_ha": 3.66}}, {"type": "Feature", "geometry": {"type": "Polygon", "coordinates": [[[77.32575, 28.537249999999997], [77.32575, 28.537], [77.32425, 28.537], [77.32425, 28.5355], [77.32625, 28.5355], [77.32625, 28.53625], [77.32650000000001, 28.53625], [77.32650000000001, 28.537249999999997], [77.32575, 28.537249999999997]]]}, "properties": {"area_km2": 0.0366, "area_ha": 3.66}}, {"type": "Feature", "geometry": {"type": "Polygon", "coordinates": [[[77.361, 28.482499999999998], [77.361, 28.481749999999998], [77.36225, 28.481749999999998], [77.36225, 28.480749999999997], [77.36325000000001, 28.480749999999997], [77.36325000000001, 28.479999999999997], [77.3645, 28.479999999999997], [77.3645, 28.480749999999997], [77.36425000000001, 28.480749999999997], [77.36425000000001, 28.480999999999998], [77.36325000000001, 28.480999999999998], [77.36325000000001, 28.481749999999998], [77.36250000000001, 28.481749999999998], [77.36250000000001, 28.482499999999998], [77.361, 28.482499999999998]]]}, "properties": {"area_km2": 0.0359, "area_ha": 3.59}}, {"type": "Feature", "geometry": {"type": "Polygon", "coordinates": [[[77.32825000000001, 28.53425], [77.32825000000001, 28.5335], [77.32925, 28.5335], [77.32925, 28.532249999999998], [77.3305, 28.532249999999998], [77.3305, 28.532999999999998], [77.33025, 28.532999999999998], [77.33025, 28.534], [77.32950000000001, 28.534], [77.32950000000001, 28.53425], [77.32825000000001, 28.53425]]]}, "properties": {"area_km2": 0.0298, "area_ha": 2.98}}, {"type": "Feature", "geometry": {"type": "Polygon", "coordinates": [[[77.37275000000001, 28.448749999999997], [77.37275000000001, 28.447249999999997], [77.375, 28.447249999999997], [77.375, 28.447999999999997], [77.37425, 28.447999999999997], [77.37425, 28.448249999999998], [77.37400000000001, 28.448249999999998], [77.37400000000001, 28.4485], [77.3735, 28.4485], [77.3735, 28.448749999999997], [77.37275000000001, 28.448749999999997]]]}, "properties": {"area_km2": 0.0278, "area_ha": 2.78}}, {"type": "Feature", "geometry": {"type": "Polygon", "coordinates": [[[77.33475, 28.528], [77.33475, 28.526249999999997], [77.33625, 28.526249999999997], [77.33625, 28.5275], [77.33600000000001, 28.5275], [77.33600000000001, 28.528], [77.33475, 28.528]]]}, "properties": {"area_km2": 0.0271, "area_ha": 2.71}}, {"type": "Feature", "geometry": {"type": "Polygon", "coordinates": [[[77.11025000000001, 28.5675], [77.11025000000001, 28.566499999999998], [77.11125000000001, 28.566499999999998], [77.11125000000001, 28.565749999999998], [77.11200000000001, 28.565749999999998], [77.11200000000001, 28.566], [77.11225, 28.566], [77.11225, 28.567249999999998], [77.11125000000001, 28.567249999999998], [77.11125000000001, 28.5675], [77.11025000000001, 28.5675]]]}, "properties": {"area_km2": 0.0264, "area_ha": 2.64}}, {"type": "Feature", "geometry": {"type": "Polygon", "coordinates": [[[77.337, 28.5245], [77.337, 28.5235], [77.33775, 28.5235], [77.33775, 28.52275], [77.33900000000001, 28.52275], [77.33900000000001, 28.523999999999997], [77.33800000000001, 28.523999999999997], [77.33800000000001, 28.5245], [77.337, 28.5245]]]}, "properties": {"area_km2": 0.0264, "area_ha": 2.64}}, {"type": "Feature", "geometry": {"type": "Polygon", "coordinates": [[[77.38375, 28.7385], [77.38375, 28.737499999999997], [77.38250000000001, 28.737499999999997], [77.38250000000001, 28.736749999999997], [77.3845, 28.736749999999997], [77.3845, 28.7385], [77.38375, 28.7385]]]}, "properties": {"area_km2": 0.0244, "area_ha": 2.44}}, {"type": "Feature", "geometry": {"type": "Polygon", "coordinates": [[[77.25725000000001, 28.607249999999997], [77.25725000000001, 28.605749999999997], [77.25875, 28.605749999999997], [77.25875, 28.607249999999997], [77.25725000000001, 28.607249999999997]]]}, "properties": {"area_km2": 0.0244, "area_ha": 2.44}}, {"type": "Feature", "geometry": {"type": "Polygon", "coordinates": [[[77.08825, 28.561249999999998], [77.08825, 28.56025], [77.08925, 28.56025], [77.08925, 28.55925], [77.09, 28.55925], [77.09, 28.561], [77.08900000000001, 28.561], [77.08900000000001, 28.561249999999998], [77.08825, 28.561249999999998]]]}, "properties": {"area_km2": 0.0244, "area_ha": 2.44}}, {"type": "Feature", "geometry": {"type": "Polygon", "coordinates": [[[77.23675, 28.716749999999998], [77.23675, 28.7165], [77.23625000000001, 28.7165], [77.23625000000001, 28.71575], [77.23575000000001, 28.71575], [77.23575000000001, 28.715], [77.23725, 28.715], [77.23725, 28.715999999999998], [77.23750000000001, 28.715999999999998], [77.23750000000001, 28.716749999999998], [77.23675, 28.716749999999998]]]}, "properties": {"area_km2": 0.0237, "area_ha": 2.37}}, {"type": "Feature", "geometry": {"type": "Polygon", "coordinates": [[[77.19875, 28.443749999999998], [77.19875, 28.4435], [77.19850000000001, 28.4435], [77.19850000000001, 28.442249999999998], [77.2, 28.442249999999998], [77.2, 28.443749999999998], [77.19875, 28.443749999999998]]]}, "properties": {"area_km2": 0.0237, "area_ha": 2.37}}, {"type": "Feature", "geometry": {"type": "Polygon", "coordinates": [[[77.24000000000001, 28.72325], [77.24000000000001, 28.721249999999998], [77.24075, 28.721249999999998], [77.24075, 28.7215], [77.241, 28.7215], [77.241, 28.7225], [77.24125000000001, 28.7225], [77.24125000000001, 28.72325], [77.24000000000001, 28.72325]]]}, "properties": {"area_km2": 0.023, "area_ha": 2.3}}, {"type": "Feature", "geometry": {"type": "Polygon", "coordinates": [[[77.26, 28.603499999999997], [77.26, 28.601499999999998], [77.26050000000001, 28.601499999999998], [77.26050000000001, 28.601249999999997], [77.26125, 28.601249999999997], [77.26125, 28.602249999999998], [77.26075, 28.602249999999998], [77.26075, 28.603499999999997], [77.26, 28.603499999999997]]]}, "properties": {"area_km2": 0.0224, "area_ha": 2.24}}, {"type": "Feature", "geometry": {"type": "Polygon", "coordinates": [[[77.09800000000001, 28.560499999999998], [77.09800000000001, 28.559749999999998], [77.10000000000001, 28.559749999999998], [77.10000000000001, 28.5595], [77.10075, 28.5595], [77.10075, 28.56025], [77.10000000000001, 28.56025], [77.10000000000001, 28.560499999999998], [77.09800000000001, 28.560499999999998]]]}, "properties": {"area_km2": 0.0224, "area_ha": 2.24}}, {"type": "Feature", "geometry": {"type": "Polygon", "coordinates": [[[77.07900000000001, 28.546], [77.07900000000001, 28.545499999999997], [77.078, 28.545499999999997], [77.078, 28.544749999999997], [77.07900000000001, 28.544749999999997], [77.07900000000001, 28.5445], [77.08000000000001, 28.5445], [77.08000000000001, 28.54525], [77.07975, 28.54525], [77.07975, 28.546], [77.07900000000001, 28.546]]]}, "properties": {"area_km2": 0.0224, "area_ha": 2.24}}, {"type": "Feature", "geometry": {"type": "Polygon", "coordinates": [[[77.09875000000001, 28.54075], [77.09875000000001, 28.538749999999997], [77.09975, 28.538749999999997], [77.09975, 28.54075], [77.09875000000001, 28.54075]]]}, "properties": {"area_km2": 0.0217, "area_ha": 2.17}}, {"type": "Feature", "geometry": {"type": "Polygon", "coordinates": [[[77.36725000000001, 28.47675], [77.36725000000001, 28.476], [77.36775, 28.476], [77.36775, 28.475749999999998], [77.36925000000001, 28.475749999999998], [77.36925000000001, 28.47675], [77.36725000000001, 28.47675]]]}, "properties": {"area_km2": 0.0203, "area_ha": 2.03}}, {"type": "Feature", "geometry": {"type": "Polygon", "coordinates": [[[77.26075, 28.6545], [77.26075, 28.65375], [77.26100000000001, 28.65375], [77.26100000000001, 28.653499999999998], [77.26150000000001, 28.653499999999998], [77.26150000000001, 28.653], [77.26225000000001, 28.653], [77.26225000000001, 28.6545], [77.26075, 28.6545]]]}, "properties": {"area_km2": 0.0196, "area_ha": 1.96}}, {"type": "Feature", "geometry": {"type": "Polygon", "coordinates": [[[77.25675000000001, 28.6315], [77.25675000000001, 28.630499999999998], [77.25825, 28.630499999999998], [77.25825, 28.63075], [77.25850000000001, 28.63075], [77.25850000000001, 28.6315], [77.25675000000001, 28.6315]]]}, "properties": {"area_km2": 0.0183, "area_ha": 1.83}}, {"type": "Feature", "geometry": {"type": "Polygon", "coordinates": [[[77.33200000000001, 28.4975], [77.33200000000001, 28.497], [77.33175, 28.497], [77.33175, 28.495749999999997], [77.33250000000001, 28.495749999999997], [77.33250000000001, 28.496], [77.33275, 28.496], [77.33275, 28.4975], [77.33200000000001, 28.4975]]]}, "properties": {"area_km2": 0.017, "area_ha": 1.7}}, {"type": "Feature", "geometry": {"type": "Polygon", "coordinates": [[[77.38350000000001, 28.732249999999997], [77.38350000000001, 28.731499999999997], [77.38425000000001, 28.731499999999997], [77.38425000000001, 28.73125], [77.38525, 28.73125], [77.38525, 28.732249999999997], [77.38350000000001, 28.732249999999997]]]}, "properties": {"area_km2": 0.0169, "area_ha": 1.69}}, {"type": "Feature", "geometry": {"type": "Polygon", "coordinates": [[[77.23725, 28.667499999999997], [77.23725, 28.6665], [77.238, 28.6665], [77.238, 28.665999999999997], [77.23875000000001, 28.665999999999997], [77.23875000000001, 28.666999999999998], [77.23825000000001, 28.666999999999998], [77.23825000000001, 28.66725], [77.238, 28.66725], [77.238, 28.667499999999997], [77.23725, 28.667499999999997]]]}, "properties": {"area_km2": 0.0169, "area_ha": 1.69}}, {"type": "Feature", "geometry": {"type": "Polygon", "coordinates": [[[77.04050000000001, 28.546999999999997], [77.04050000000001, 28.54525], [77.04125, 28.54525], [77.04125, 28.546], [77.0415, 28.546], [77.0415, 28.54675], [77.04125, 28.54675], [77.04125, 28.546999999999997], [77.04050000000001, 28.546999999999997]]]}, "properties": {"area_km2": 0.0163, "area_ha": 1.63}}, {"type": "Feature", "geometry": {"type": "Polygon", "coordinates": [[[77.30825, 28.55575], [77.30825, 28.555], [77.30875, 28.555], [77.30875, 28.55425], [77.3095, 28.55425], [77.3095, 28.554499999999997], [77.30975000000001, 28.554499999999997], [77.30975000000001, 28.555249999999997], [77.30900000000001, 28.555249999999997], [77.30900000000001, 28.55575], [77.30825, 28.55575]]]}, "properties": {"area_km2": 0.0156, "area_ha": 1.56}}, {"type": "Feature", "geometry": {"type": "Polygon", "coordinates": [[[77.34875000000001, 28.50875], [77.34875000000001, 28.507749999999998], [77.349, 28.507749999999998], [77.349, 28.507499999999997], [77.34925000000001, 28.507499999999997], [77.34925000000001, 28.50725], [77.35000000000001, 28.50725], [77.35000000000001, 28.508249999999997], [77.3495, 28.508249999999997], [77.3495, 28.50875], [77.34875000000001, 28.50875]]]}, "properties": {"area_km2": 0.0156, "area_ha": 1.56}}, {"type": "Feature", "geometry": {"type": "Polygon", "coordinates": [[[77.30425000000001, 28.57275], [77.30425000000001, 28.571499999999997], [77.305, 28.571499999999997], [77.305, 28.571749999999998], [77.30550000000001, 28.571749999999998], [77.30550000000001, 28.572499999999998], [77.30525, 28.572499999999998], [77.30525, 28.57275], [77.30425000000001, 28.57275]]]}, "properties": {"area_km2": 0.0149, "area_ha": 1.49}}, {"type": "Feature", "geometry": {"type": "Polygon", "coordinates": [[[77.08300000000001, 28.564249999999998], [77.08300000000001, 28.563], [77.08425000000001, 28.563], [77.08425000000001, 28.56375], [77.084, 28.56375], [77.084, 28.564], [77.08375000000001, 28.564], [77.08375000000001, 28.564249999999998], [77.08300000000001, 28.564249999999998]]]}, "properties": {"area_km2": 0.0149, "area_ha": 1.49}}, {"type": "Feature", "geometry": {"type": "Polygon", "coordinates": [[[77.05600000000001, 28.715], [77.05600000000001, 28.71475], [77.05575, 28.71475], [77.05575, 28.714], [77.05600000000001, 28.714], [77.05600000000001, 28.7135], [77.05675000000001, 28.7135], [77.05675000000001, 28.715], [77.05600000000001, 28.715]]]}, "properties": {"area_km2": 0.0142, "area_ha": 1.42}}, {"type": "Feature", "geometry": {"type": "Polygon", "coordinates": [[[77.31175, 28.56325], [77.31175, 28.5615], [77.3125, 28.5615], [77.3125, 28.56325], [77.31175, 28.56325]]]}, "properties": {"area_km2": 0.0142, "area_ha": 1.42}}, {"type": "Feature", "geometry": {"type": "Polygon", "coordinates": [[[77.3875, 28.450999999999997], [77.3875, 28.45075], [77.38725000000001, 28.45075], [77.38725000000001, 28.45], [77.38850000000001, 28.45], [77.38850000000001, 28.450999999999997], [77.3875, 28.450999999999997]]]}, "properties": {"area_km2": 0.0129, "area_ha": 1.29}}, {"type": "Feature", "geometry": {"type": "Polygon", "coordinates": [[[77.23075, 28.705], [77.23075, 28.70425], [77.23100000000001, 28.70425], [77.23100000000001, 28.703999999999997], [77.232, 28.703999999999997], [77.232, 28.704749999999997], [77.23175, 28.704749999999997], [77.23175, 28.705], [77.23075, 28.705]]]}, "properties": {"area_km2": 0.0122, "area_ha": 1.22}}, {"type": "Feature", "geometry": {"type": "Polygon", "coordinates": [[[77.2915, 28.577499999999997], [77.2915, 28.575999999999997], [77.29225000000001, 28.575999999999997], [77.29225000000001, 28.577499999999997], [77.2915, 28.577499999999997]]]}, "properties": {"area_km2": 0.0122, "area_ha": 1.22}}, {"type": "Feature", "geometry": {"type": "Polygon", "coordinates": [[[77.37950000000001, 28.47], [77.37950000000001, 28.468999999999998], [77.38050000000001, 28.468999999999998], [77.38050000000001, 28.47], [77.37950000000001, 28.47]]]}, "properties": {"area_km2": 0.0109, "area_ha": 1.09}}, {"type": "Feature", "geometry": {"type": "Polygon", "coordinates": [[[77.23400000000001, 28.7355], [77.23400000000001, 28.734499999999997], [77.235, 28.734499999999997], [77.235, 28.7355], [77.23400000000001, 28.7355]]]}, "properties": {"area_km2": 0.0108, "area_ha": 1.08}}, {"type": "Feature", "geometry": {"type": "Polygon", "coordinates": [[[77.361, 28.71275], [77.361, 28.71175], [77.36200000000001, 28.71175], [77.36200000000001, 28.71275], [77.361, 28.71275]]]}, "properties": {"area_km2": 0.0108, "area_ha": 1.08}}, {"type": "Feature", "geometry": {"type": "Polygon", "coordinates": [[[77.256, 28.625249999999998], [77.256, 28.62425], [77.257, 28.62425], [77.257, 28.625249999999998], [77.256, 28.625249999999998]]]}, "properties": {"area_km2": 0.0108, "area_ha": 1.08}}, {"type": "Feature", "geometry": {"type": "Polygon", "coordinates": [[[77.23100000000001, 28.683999999999997], [77.23100000000001, 28.68275], [77.23175, 28.68275], [77.23175, 28.683999999999997], [77.23100000000001, 28.683999999999997]]]}, "properties": {"area_km2": 0.0102, "area_ha": 1.02}}, {"type": "Feature", "geometry": {"type": "Polygon", "coordinates": [[[77.29350000000001, 28.575], [77.29350000000001, 28.573749999999997], [77.29425, 28.573749999999997], [77.29425, 28.575], [77.29350000000001, 28.575]]]}, "properties": {"area_km2": 0.0102, "area_ha": 1.02}}, {"type": "Feature", "geometry": {"type": "Polygon", "coordinates": [[[77.0635, 28.548], [77.0635, 28.54725], [77.06375000000001, 28.54725], [77.06375000000001, 28.546999999999997], [77.06450000000001, 28.546999999999997], [77.06450000000001, 28.548], [77.0635, 28.548]]]}, "properties": {"area_km2": 0.0102, "area_ha": 1.02}}, {"type": "Feature", "geometry": {"type": "Polygon", "coordinates": [[[77.388, 28.708], [77.388, 28.70725], [77.38900000000001, 28.70725], [77.38900000000001, 28.708], [77.388, 28.708]]]}, "properties": {"area_km2": 0.0081, "area_ha": 0.81}}, {"type": "Feature", "geometry": {"type": "Polygon", "coordinates": [[[77.06200000000001, 28.642249999999997], [77.06200000000001, 28.641499999999997], [77.063, 28.641499999999997], [77.063, 28.642249999999997], [77.06200000000001, 28.642249999999997]]]}, "properties": {"area_km2": 0.0081, "area_ha": 0.81}}, {"type": "Feature", "geometry": {"type": "Polygon", "coordinates": [[[77.2565, 28.610249999999997], [77.2565, 28.60925], [77.25725000000001, 28.60925], [77.25725000000001, 28.610249999999997], [77.2565, 28.610249999999997]]]}, "properties": {"area_km2": 0.0081, "area_ha": 0.81}}, {"type": "Feature", "geometry": {"type": "Polygon", "coordinates": [[[77.31425, 28.552249999999997], [77.31425, 28.551499999999997], [77.31525, 28.551499999999997], [77.31525, 28.552249999999997], [77.31425, 28.552249999999997]]]}, "properties": {"area_km2": 0.0081, "area_ha": 0.81}}, {"type": "Feature", "geometry": {"type": "Polygon", "coordinates": [[[77.308, 28.549249999999997], [77.308, 28.54825], [77.30875, 28.54825], [77.30875, 28.549249999999997], [77.308, 28.549249999999997]]]}, "properties": {"area_km2": 0.0081, "area_ha": 0.81}}, {"type": "Feature", "geometry": {"type": "Polygon", "coordinates": [[[77.33900000000001, 28.52275], [77.33900000000001, 28.521749999999997], [77.33975000000001, 28.521749999999997], [77.33975000000001, 28.52275], [77.33900000000001, 28.52275]]]}, "properties": {"area_km2": 0.0081, "area_ha": 0.81}}, {"type": "Feature", "geometry": {"type": "Polygon", "coordinates": [[[77.28250000000001, 28.48425], [77.28250000000001, 28.483249999999998], [77.28325000000001, 28.483249999999998], [77.28325000000001, 28.48425], [77.28250000000001, 28.48425]]]}, "properties": {"area_km2": 0.0081, "area_ha": 0.81}}, {"type": "Feature", "geometry": {"type": "Polygon", "coordinates": [[[77.38075, 28.468999999999998], [77.38075, 28.468], [77.3815, 28.468], [77.3815, 28.468999999999998], [77.38075, 28.468999999999998]]]}, "properties": {"area_km2": 0.0081, "area_ha": 0.81}}, {"type": "Feature", "geometry": {"type": "Polygon", "coordinates": [[[77.38275, 28.733749999999997], [77.38275, 28.732999999999997], [77.38350000000001, 28.732999999999997], [77.38350000000001, 28.733749999999997], [77.38275, 28.733749999999997]]]}, "properties": {"area_km2": 0.0061, "area_ha": 0.61}}, {"type": "Feature", "geometry": {"type": "Polygon", "coordinates": [[[77.185, 28.718999999999998], [77.185, 28.718249999999998], [77.18575000000001, 28.718249999999998], [77.18575000000001, 28.718999999999998], [77.185, 28.718999999999998]]]}, "properties": {"area_km2": 0.0061, "area_ha": 0.61}}, {"type": "Feature", "geometry": {"type": "Polygon", "coordinates": [[[77.36850000000001, 28.705499999999997], [77.36850000000001, 28.704749999999997], [77.36925000000001, 28.704749999999997], [77.36925000000001, 28.705499999999997], [77.36850000000001, 28.705499999999997]]]}, "properties": {"area_km2": 0.0061, "area_ha": 0.61}}, {"type": "Feature", "geometry": {"type": "Polygon", "coordinates": [[[77.15425, 28.639249999999997], [77.15425, 28.638499999999997], [77.155, 28.638499999999997], [77.155, 28.639249999999997], [77.15425, 28.639249999999997]]]}, "properties": {"area_km2": 0.0061, "area_ha": 0.61}}, {"type": "Feature", "geometry": {"type": "Polygon", "coordinates": [[[77.25725000000001, 28.6235], [77.25725000000001, 28.62275], [77.25800000000001, 28.62275], [77.25800000000001, 28.6235], [77.25725000000001, 28.6235]]]}, "properties": {"area_km2": 0.0061, "area_ha": 0.61}}, {"type": "Feature", "geometry": {"type": "Polygon", "coordinates": [[[77.256, 28.615], [77.256, 28.61425], [77.25675000000001, 28.61425], [77.25675000000001, 28.615], [77.256, 28.615]]]}, "properties": {"area_km2": 0.0061, "area_ha": 0.61}}, {"type": "Feature", "geometry": {"type": "Polygon", "coordinates": [[[77.25850000000001, 28.604249999999997], [77.25850000000001, 28.603499999999997], [77.25925000000001, 28.603499999999997], [77.25925000000001, 28.604249999999997], [77.25850000000001, 28.604249999999997]]]}, "properties": {"area_km2": 0.0061, "area_ha": 0.61}}, {"type": "Feature", "geometry": {"type": "Polygon", "coordinates": [[[77.26525000000001, 28.596999999999998], [77.26525000000001, 28.596249999999998], [77.266, 28.596249999999998], [77.266, 28.596999999999998], [77.26525000000001, 28.596999999999998]]]}, "properties": {"area_km2": 0.0061, "area_ha": 0.61}}, {"type": "Feature", "geometry": {"type": "Polygon", "coordinates": [[[77.11550000000001, 28.56325], [77.11550000000001, 28.5625], [77.11625000000001, 28.5625], [77.11625000000001, 28.56325], [77.11550000000001, 28.56325]]]}, "properties": {"area_km2": 0.0061, "area_ha": 0.61}}, {"type": "Feature", "geometry": {"type": "Polygon", "coordinates": [[[77.2985, 28.558], [77.2985, 28.55725], [77.29925, 28.55725], [77.29925, 28.558], [77.2985, 28.558]]]}, "properties": {"area_km2": 0.0061, "area_ha": 0.61}}, {"type": "Feature", "geometry": {"type": "Polygon", "coordinates": [[[77.30250000000001, 28.55175], [77.30250000000001, 28.551], [77.30325, 28.551], [77.30325, 28.55175], [77.30250000000001, 28.55175]]]}, "properties": {"area_km2": 0.0061, "area_ha": 0.61}}, {"type": "Feature", "geometry": {"type": "Polygon", "coordinates": [[[77.35050000000001, 28.5065], [77.35050000000001, 28.50575], [77.35125000000001, 28.50575], [77.35125000000001, 28.5065], [77.35050000000001, 28.5065]]]}, "properties": {"area_km2": 0.0061, "area_ha": 0.61}}, {"type": "Feature", "geometry": {"type": "Polygon", "coordinates": [[[77.36, 28.502], [77.36, 28.50125], [77.36075000000001, 28.50125], [77.36075000000001, 28.502], [77.36, 28.502]]]}, "properties": {"area_km2": 0.0061, "area_ha": 0.61}}, {"type": "Feature", "geometry": {"type": "Polygon", "coordinates": [[[77.37100000000001, 28.453249999999997], [77.37100000000001, 28.452499999999997], [77.37175, 28.452499999999997], [77.37175, 28.453249999999997], [77.37100000000001, 28.453249999999997]]]}, "properties": {"area_km2": 0.0061, "area_ha": 0.61}}]}