{"type": "FeatureCollection", "name": "flood_pass-20260827-00", "features": [{"type": "Feature", "geometry": {"type": "Polygon", "coordinates": [[[77.34925000000001, 28.508249999999997], [77.34925000000001, 28.5065], [77.3495, 28.5065], [77.3495, 28.50575], [77.34975, 28.50575], [77.34975, 28.505], [77.35000000000001, 28.505], [77.35000000000001, 28.5045], [77.35025, 28.5045], [77.35025, 28.50425], [77.35050000000001, 28.50425], [77.35050000000001, 28.50225], [77.3515, 28.50225], [77.3515, 28.501749999999998], [77.35175000000001, 28.501749999999998], [77.35175000000001, 28.5015], [77.352, 28.5015], [77.352, 28.49925], [77.35225000000001, 28.49925], [77.35225000000001, 28.499], [77.3525, 28.499], [77.3525, 28.49825], [77.35275, 28.49825], [77.35275, 28.497], [77.35300000000001, 28.497], [77.35300000000001, 28.49675], [77.35325, 28.49675], [77.35325, 28.49625], [77.35350000000001, 28.49625], [77.35350000000001, 28.496], [77.35375, 28.496], [77.35375, 28.4955], [77.354, 28.4955], [77.354, 28.49525], [77.35425000000001, 28.49525], [77.35425000000001, 28.49475], [77.3545, 28.49475], [77.3545, 28.49375], [77.35475000000001, 28.49375], [77.35475000000001, 28.493499999999997], [77.35525000000001, 28.493499999999997], [77.35525000000001, 28.49075], [77.35600000000001, 28.49075], [77.35600000000001, 28.49025], [77.35625, 28.49025], [77.35625, 28.489749999999997], [77.35650000000001, 28.489749999999997], [77.35650000000001, 28.48875], [77.357, 28.48875], [77.357, 28.48775], [77.35725000000001, 28.48775], [77.35725000000001, 28.487], [77.3575, 28.487], [77.3575, 28.486749999999997], [77.358, 28.486749999999997], [77.358, 28.4865], [77.35925, 28.4865], [77.35925, 28.48725], [77.35900000000001, 28.48725], [77.35900000000001, 28.488], [77.35875, 28.488], [77.35875, 28.488249999999997], [77.3585, 28.488249999999997], [77.3585, 28.4885], [77.35825000000001, 28.4885], [77.35825000000001, 28.49], [77.358, 28.49], [77.358, 28.49175], [77.35775000000001, 28.49175], [77.35775000000001, 28.491999999999997], [77.3575, 28.491999999999997], [77.3575, 28.492749999999997], [77.35725000000001, 28.492749999999997], [77.35725000000001, 28.493499999999997], [77.35675, 28.493499999999997], [77.35675, 28.4945], [77.35650000000001, 28.4945], [77.35650000000001, 28.49525], [77.35625, 28.49525], [77.35625, 28.4955], [77.35575, 28.4955], [77.35575, 28.495749999999997], [77.3555, 28.495749999999997], [77.3555, 28.49675], [77.35525000000001, 28.49675], [77.35525000000001, 28.497249999999998], [77.35475000000001, 28.497249999999998], [77.35475000000001, 28.4985], [77.35425000000001, 28.4985], [77.35425000000001, 28.50075], [77.354, 28.50075], [77.354, 28.500999999999998], [77.35375, 28.500999999999998], [77.35375, 28.50125], [77.35350000000001, 28.50125], [77.35350000000001, 28.50275], [77.35300000000001, 28.50275], [77.35300000000001, 28.503], [77.35275, 28.503], [77.35275, 28.503999999999998], [77.3525, 28.503999999999998], [77.3525, 28.50425], [77.35225000000001, 28.50425], [77.35225000000001, 28.504749999999998], [77.352, 28.504749999999998], [77.352, 28.505], [77.35175000000001, 28.505], [77.35175000000001, 28.505249999999997], [77.35100000000001, 28.505249999999997], [77.35100000000001, 28.506999999999998], [77.35050000000001, 28.506999999999998], [77.35050000000001, 28.507749999999998], [77.35025, 28.507749999999998], [77.35025, 28.508249999999997], [77.34925000000001, 28.508249999999997]]]}, "properties": {"area_km2": 0.4686, "area_ha": 46.86}}, {"type": "Feature", "geometry": {"type": "Polygon", "coordinates": [[[77.36925000000001, 28.47525], [77.36925000000001, 28.4745], [77.3695, 28.4745], [77.3695, 28.474249999999998], [77.3705, 28.474249999999998], [77.3705, 28.473499999999998], [77.37075, 28.473499999999998], [77.37075, 28.47325], [77.37150000000001, 28.47325], [77.37150000000001, 28.473], [77.37225000000001, 28.473], [77.37225000000001, 28.4725], [77.3725, 28.4725], [77.3725, 28.47225], [77.37275000000001, 28.47225], [77.37275000000001, 28.471999999999998], [77.37325000000001, 28.471999999999998], [77.37325000000001, 28.47175], [77.37375, 28.47175], [77.37375, 28.471], [77.37450000000001, 28.471], [77.37450000000001, 28.47075], [77.37525000000001, 28.47075], [77.37525000000001, 28.47025], [77.376, 28.47025], [77.376, 28.47], [77.37725, 28.47], [77.37725, 28.46925], [77.378, 28.46925], [77.378, 28.468999999999998], [77.37825000000001, 28.468999999999998], [77.37825000000001, 28.46875], [77.38000000000001, 28.46875], [77.38000000000001, 28.468249999999998], [77.38025, 28.468249999999998], [77.38025, 28.468], [77.38175000000001, 28.468], [77.38175000000001, 28.466749999999998], [77.38325, 28.466749999999998], [77.38325, 28.4665], [77.38350000000001, 28.4665], [77.38350000000001, 28.46625], [77.3845, 28.46625], [77.3845, 28.465999999999998], [77.38525, 28.465999999999998], [77.38525, 28.46575], [77.38550000000001, 28.46575], [77.38550000000001, 28.4655], [77.38675, 28.4655], [77.38675, 28.465249999999997], [77.38950000000001, 28.465249999999997], [77.38950000000001, 28.466749999999998], [77.38825, 28.466749999999998], [77.38825, 28.467], [77.387, 28.467], [77.387, 28.46725], [77.38575, 28.46725], [77.38575, 28.467499999999998], [77.38425000000001, 28.467499999999998], [77.38425000000001, 28.46775], [77.38375, 28.46775], [77.38375, 28.468249999999998], [77.38300000000001, 28.468249999999998], [77.38300000000001, 28.46875], [77.38225000000001, 28.46875], [77.38225000000001, 28.468999999999998], [77.38175000000001, 28.468999999999998], [77.38175000000001, 28.46925], [77.38075, 28.46925], [77.38075, 28.469749999999998], [77.38025, 28.469749999999998], [77.38025, 28.47025], [77.38000000000001, 28.47025], [77.38000000000001, 28.47075], [77.37925000000001, 28.47075], [77.37925000000001, 28.471], [77.379, 28.471], [77.379, 28.471249999999998], [77.3785, 28.471249999999998], [77.3785, 28.4715], [77.37775, 28.4715], [77.37775, 28.47175], [77.37650000000001, 28.47175], [77.37650000000001, 28.471999999999998], [77.376, 28.471999999999998], [77.376, 28.47225], [77.3755, 28.47225], [77.3755, 28.4725], [77.37525000000001, 28.4725], [77.37525000000001, 28.472749999999998], [77.37425, 28.472749999999998], [77.37425, 28.473], [77.37400000000001, 28.473], [77.37400000000001, 28.47325], [77.3735, 28.47325], [77.3735, 28.473499999999998], [77.37325000000001, 28.473499999999998], [77.37325000000001, 28.47375], [77.37225000000001, 28.47375], [77.37225000000001, 28.473999999999997], [77.372, 28.473999999999997], [77.372, 28.474249999999998], [77.37125, 28.474249999999998], [77.37125, 28.47475], [77.37100000000001, 28.47475], [77.37100000000001, 28.474999999999998], [77.37075, 28.474999999999998], [77.37075, 28.47525], [77.36925000000001, 28.47525]]]}, "properties": {"area_km2": 0.3826, "area_ha": 38.26}}, {"type": "Feature", "geometry": {"type": "Polygon", "coordinates": [[[77.31125, 28.563], [77.31125, 28.561999999999998], [77.31175, 28.561999999999998], [77.31175, 28.561], [77.31200000000001, 28.561], [77.31200000000001, 28.56075], [77.313, 28.56075], [77.313, 28.559749999999998], [77.31325000000001, 28.559749999999998], [77.31325000000001, 28.5595], [77.3135, 28.5595], [77.3135, 28.55925], [77.31425, 28.55925], [77.31425, 28.55875], [77.31475, 28.55875], [77.31475, 28.557499999999997], [77.3155, 28.557499999999997], [77.3155, 28.55575], [77.31625000000001, 28.55575], [77.31625000000001, 28.553749999999997], [77.31425, 28.553749999999997], [77.31425, 28.55275], [77.31500000000001, 28.55275], [77.31500000000001, 28.551], [77.31475, 28.551], [77.31475, 28.55025], [77.3155, 28.55025], [77.3155, 28.54975], [77.31625000000001, 28.54975], [77.31625000000001, 28.5505], [77.3165, 28.5505], [77.3165, 28.55125], [77.31775, 28.55125], [77.31775, 28.551499999999997], [77.31800000000001, 28.551499999999997], [77.31800000000001, 28.55275], [77.31825, 28.55275], [77.31825, 28.55425], [77.3185, 28.55425], [77.3185, 28.555], [77.31825, 28.555], [77.31825, 28.5555], [77.31750000000001, 28.5555], [77.31750000000001, 28.55625], [77.31725, 28.55625], [77.31725, 28.557499999999997], [77.31575000000001, 28.557499999999997], [77.31575000000001, 28.5595], [77.3155, 28.5595], [77.3155, 28.56], [77.31475, 28.56], [77.31475, 28.561], [77.31450000000001, 28.561], [77.31450000000001, 28.5615], [77.31425, 28.5615], [77.31425, 28.56175], [77.31375000000001, 28.56175], [77.31375000000001, 28.561999999999998], [77.31200000000001, 28.561999999999998], [77.31200000000001, 28.563], [77.31125, 28.563]]]}, "properties": {"area_km2": 0.2887, "area_ha": 28.87}}, {"type": "Feature", "geometry": {"type": "Polygon", "coordinates": [[[77.38075, 28.4545], [77.38075, 28.45425], [77.37925000000001, 28.45425], [77.37925000000001, 28.453999999999997], [77.37750000000001, 28.453999999999997], [77.37750000000001, 28.45375], [77.375, 28.45375], [77.375, 28.4535], [77.37450000000001, 28.4535], [77.37450000000001, 28.453249999999997], [77.37425, 28.453249999999997], [77.37425, 28.452749999999998], [77.373, 28.452749999999998], [77.373, 28.452499999999997], [77.37150000000001, 28.452499999999997], [77.37150000000001, 28.453], [77.37125, 28.453], [77.37125, 28.453249999999997], [77.37025000000001, 28.453249999999997], [77.37025000000001, 28.4535], [77.36925000000001, 28.4535], [77.36925000000001, 28.45225], [77.36975000000001, 28.45225], [77.36975000000001, 28.451749999999997], [77.37125, 28.451749999999997], [77.37125, 28.4515], [77.37275000000001, 28.4515], [77.37275000000001, 28.451249999999998], [77.37475, 28.451249999999998], [77.37475, 28.4515], [77.375, 28.4515], [77.375, 28.451749999999997], [77.37525000000001, 28.451749999999997], [77.37525000000001, 28.451999999999998], [77.37575000000001, 28.451999999999998], [77.37575000000001, 28.45225], [77.37700000000001, 28.45225], [77.37700000000001, 28.452499999999997], [77.379, 28.452499999999997], [77.379, 28.452749999999998], [77.381, 28.452749999999998], [77.381, 28.453], [77.3815, 28.453], [77.3815, 28.453249999999997], [77.38475000000001, 28.453249999999997], [77.38475000000001, 28.45425], [77.38225000000001, 28.45425], [77.38225000000001, 28.4545], [77.38075, 28.4545]]]}, "properties": {"area_km2": 0.2354, "area_ha": 23.54}}, {"type": "Feature", "geometry": {"type": "Polygon", "coordinates": [[[77.29875000000001, 28.56825], [77.29875000000001, 28.567749999999997], [77.29725, 28.567749999999997], [77.29725, 28.56525], [77.29775000000001, 28.56525], [77.29775000000001, 28.56325], [77.29825000000001, 28.56325], [77.29825000000001, 28.561999999999998], [77.299, 28.561999999999998], [77.299, 28.5615], [77.30000000000001, 28.5615], [77.30000000000001, 28.560499999999998], [77.30075000000001, 28.560499999999998], [77.30075000000001, 28.56225], [77.301, 28.56225], [77.301, 28.563499999999998], [77.30075000000001, 28.563499999999998], [77.30075000000001, 28.56475], [77.301, 28.56475], [77.301, 28.56625], [77.30175000000001, 28.56625], [77.30175000000001, 28.567], [77.3015, 28.567], [77.3015, 28.567249999999998], [77.30025, 28.567249999999998], [77.30025, 28.56825], [77.29875000000001, 28.56825]]]}, "properties": {"area_km2": 0.2345, "area_ha": 23.45}}, {"type": "Feature", "geometry": {"type": "Polygon", "coordinates": [[[77.3405, 28.52125], [77.3405, 28.51925], [77.34100000000001, 28.51925], [77.34100000000001, 28.51825], [77.3425, 28.51825], [77.3425, 28.517249999999997], [77.343, 28.517249999999997], [77.343, 28.51675], [77.34325000000001, 28.51675], [77.34325000000001, 28.516499999999997], [77.3435, 28.516499999999997], [77.3435, 28.51625], [77.34425, 28.51625], [77.34425, 28.514999999999997], [77.34450000000001, 28.514999999999997], [77.34450000000001, 28.51475], [77.34475, 28.51475], [77.34475, 28.514249999999997], [77.34525000000001, 28.514249999999997], [77.34525000000001, 28.51325], [77.3455, 28.51325], [77.3455, 28.5125], [77.34575000000001, 28.5125], [77.34575000000001, 28.512249999999998], [77.34625000000001, 28.512249999999998], [77.34625000000001, 28.511249999999997], [77.3465, 28.511249999999997], [77.3465, 28.511], [77.34725, 28.511], [77.34725, 28.51025], [77.34800000000001, 28.51025], [77.34800000000001, 28.511], [77.34775, 28.511], [77.34775, 28.5125], [77.34700000000001, 28.5125], [77.34700000000001, 28.513749999999998], [77.34625000000001, 28.513749999999998], [77.34625000000001, 28.5155], [77.346, 28.5155], [77.346, 28.515749999999997], [77.34575000000001, 28.515749999999997], [77.34575000000001, 28.516], [77.3455, 28.516], [77.3455, 28.51625], [77.34500000000001, 28.51625], [77.34500000000001, 28.517], [77.34475, 28.517], [77.34475, 28.51775], [77.34450000000001, 28.51775], [77.34450000000001, 28.517999999999997], [77.3435, 28.517999999999997], [77.3435, 28.518749999999997], [77.343, 28.518749999999997], [77.343, 28.51925], [77.34275000000001, 28.51925], [77.34275000000001, 28.519499999999997], [77.34225, 28.519499999999997], [77.34225, 28.52075], [77.34150000000001, 28.52075], [77.34150000000001, 28.520999999999997], [77.34125, 28.520999999999997], [77.34125, 28.52125], [77.3405, 28.52125]]]}, "properties": {"area_km2": 0.1926, "area_ha": 19.26}}, {"type": "Feature", "geometry": {"type": "Polygon", "coordinates": [[[77.32925, 28.5325], [77.32925, 28.53175], [77.3305, 28.53175], [77.3305, 28.531], [77.33075000000001, 28.531], [77.33075000000001, 28.530749999999998], [77.33125000000001, 28.530749999999998], [77.33125000000001, 28.53025], [77.33175, 28.53025], [77.33175, 28.529249999999998], [77.33225, 28.529249999999998], [77.33225, 28.529], [77.33250000000001, 28.529], [77.33250000000001, 28.528499999999998], [77.334, 28.528499999999998], [77.334, 28.527749999999997], [77.33425000000001, 28.527749999999997], [77.33425000000001, 28.5275], [77.3345, 28.5275], [77.3345, 28.5265], [77.33500000000001, 28.5265], [77.33500000000001, 28.525499999999997], [77.33550000000001, 28.525499999999997], [77.33550000000001, 28.52525], [77.33575, 28.52525], [77.33575, 28.525], [77.33600000000001, 28.525], [77.33600000000001, 28.5245], [77.33675000000001, 28.5245], [77.33675000000001, 28.523999999999997], [77.337, 28.523999999999997], [77.337, 28.52375], [77.33725000000001, 28.52375], [77.33725000000001, 28.523249999999997], [77.33775, 28.523249999999997], [77.33775, 28.522499999999997], [77.33825, 28.522499999999997], [77.33825, 28.522], [77.33875, 28.522], [77.33875, 28.5215], [77.34, 28.5215], [77.34, 28.52225], [77.33975000000001, 28.52225], [77.33975000000001, 28.522499999999997], [77.3395, 28.522499999999997], [77.3395, 28.52275], [77.33925, 28.52275], [77.33925, 28.523249999999997], [77.33825, 28.523249999999997], [77.33825, 28.5245], [77.33775, 28.5245], [77.33775, 28.52525], [77.3375, 28.52525], [77.3375, 28.52575], [77.33625, 28.52575], [77.33625, 28.526], [77.33575, 28.526], [77.33575, 28.527749999999997], [77.33550000000001, 28.527749999999997], [77.33550000000001, 28.52825], [77.33475, 28.52825], [77.33475, 28.52875], [77.33425000000001, 28.52875], [77.33425000000001, 28.5295], [77.33375000000001, 28.5295], [77.33375000000001, 28.529999999999998], [77.3335, 28.529999999999998], [77.3335, 28.5305], [77.33325, 28.5305], [77.33325, 28.530749999999998], [77.33225, 28.530749999999998], [77.33225, 28.531], [77.33200000000001, 28.531], [77.33200000000001, 28.53125], [77.33175, 28.53125], [77.33175, 28.53175], [77.3315, 28.53175], [77.3315, 28.532], [77.33075000000001, 28.532], [77.33075000000001, 28.5325], [77.32925, 28.5325]]]}, "properties": {"area_km2": 0.1871, "area_ha": 18.71}}, {"type": "Feature", "geometry": {"type": "Polygon", "coordinates": [[[77.328, 28.488249999999997], [77.328, 28.487499999999997], [77.32700000000001, 28.487499999999997], [77.32700000000001, 28.48725], [77.3225, 28.48725], [77.3225, 28.48625], [77.32475000000001, 28.48625], [77.32475000000001, 28.485999999999997], [77.32525000000001, 28.485999999999997], [77.32525000000001, 28.485], [77.3255, 28.485], [77.3255, 28.484499999999997], [77.32575, 28.484499999999997], [77.32575, 28.48425], [77.32600000000001, 28.48425], [77.32600000000001, 28.483999999999998], [77.32700000000001, 28.483999999999998], [77.32700000000001, 28.4855], [77.32825000000001, 28.4855], [77.32825000000001, 28.483999999999998], [77.32900000000001, 28.483999999999998], [77.32900000000001, 28.484499999999997], [77.32925, 28.484499999999997], [77.32925, 28.485], [77.32950000000001, 28.485], [77.32950000000001, 28.485999999999997], [77.32975, 28.485999999999997], [77.32975, 28.487], [77.32950000000001, 28.487], [77.32950000000001, 28.488249999999997], [77.328, 28.488249999999997]]]}, "properties": {"area_km2": 0.1736, "area_ha": 17.36}}, {"type": "Feature", "geometry": {"type": "Polygon", "coordinates": [[[77.31700000000001, 28.543249999999997], [77.31700000000001, 28.54225], [77.3185, 28.54225], [77.3185, 28.54075], [77.31875000000001, 28.54075], [77.31875000000001, 28.540499999999998], [77.319, 28.540499999999998], [77.319, 28.540249999999997], [77.31975000000001, 28.540249999999997], [77.31975000000001, 28.539749999999998], [77.32125, 28.539749999999998], [77.32125, 28.54075], [77.32100000000001, 28.54075], [77.32100000000001, 28.540999999999997], [77.32075, 28.540999999999997], [77.32075, 28.541249999999998], [77.32050000000001, 28.541249999999998], [77.32050000000001, 28.542749999999998], [77.319, 28.542749999999998], [77.319, 28.543], [77.31875000000001, 28.543], [77.31875000000001, 28.543249999999997], [77.31700000000001, 28.543249999999997]]]}, "properties": {"area_km2": 0.0847, "area_ha": 8.47}}, {"type": "Feature", "geometry": {"type": "Polygon", "coordinates": [[[77.36850000000001, 28.4455], [77.36850000000001, 28.44475], [77.36825, 28.44475], [77.36825, 28.443749999999998], [77.36575, 28.443749999999998], [77.36575, 28.442], [77.3665, 28.442], [77.3665, 28.44175], [77.36875, 28.44175], [77.36875, 28.442999999999998], [77.369, 28.442999999999998], [77.369, 28.444499999999998], [77.36925000000001, 28.444499999999998], [77.36925000000001, 28.4455], [77.36850000000001, 28.4455]]]}, "properties": {"area_km2": 0.0801, "area_ha": 8.01}}, {"type": "Feature", "geometry": {"type": "Polygon", "coordinates": [[[77.30275, 28.554], [77.30275, 28.553749999999997], [77.3005, 28.553749999999997], [77.3005, 28.5525], [77.3015, 28.5525], [77.3015, 28.552249999999997], [77.30175000000001, 28.552249999999997], [77.30175000000001, 28.55125], [77.302, 28.55125], [77.302, 28.551], [77.30275, 28.551], [77.30275, 28.550749999999997], [77.30375000000001, 28.550749999999997], [77.30375000000001, 28.552], [77.3035, 28.552], [77.3035, 28.554], [77.30275, 28.554]]]}, "properties": {"area_km2": 0.0766, "area_ha": 7.66}}, {"type": "Feature", "geometry": {"type": "Polygon", "coordinates": [[[77.38600000000001, 28.737499999999997], [77.38600000000001, 28.7355], [77.38575, 28.7355], [77.38575, 28.735249999999997], [77.38550000000001, 28.735249999999997], [77.38550000000001, 28.73475], [77.3845, 28.73475], [77.3845, 28.7335], [77.38475000000001, 28.7335], [77.38475000000001, 28.732999999999997], [77.38550000000001, 28.732999999999997], [77.38550000000001, 28.733999999999998], [77.38725000000001, 28.733999999999998], [77.38725000000001, 28.735249999999997], [77.387, 28.735249999999997], [77.387, 28.737], [77.38675, 28.737], [77.38675, 28.737499999999997], [77.38600000000001, 28.737499999999997]]]}, "properties": {"area_km2": 0.065, "area_ha": 6.5}}, {"type": "Feature", "geometry": {"type": "Polygon", "coordinates": [[[77.35925, 28.48575], [77.35925, 28.483249999999998], [77.36025000000001, 28.483249999999998], [77.36025000000001, 28.482499999999998], [77.36075000000001, 28.482499999999998], [77.36075000000001, 28.482], [77.361, 28.482], [77.361, 28.481749999999998], [77.36125000000001, 28.481749999999998], [77.36125000000001, 28.481499999999997], [77.36225, 28.481499999999997], [77.36225, 28.482499999999998], [77.36175, 28.482499999999998], [77.36175, 28.482999999999997], [77.36125000000001, 28.482999999999997], [77.36125000000001, 28.483749999999997], [77.361, 28.483749999999997], [77.361, 28.48425], [77.36075000000001, 28.48425], [77.36075000000001, 28.484499999999997], [77.36025000000001, 28.484499999999997], [77.36025000000001, 28.485249999999997], [77.36, 28.485249999999997], [77.36, 28.48575], [77.35925, 28.48575]]]}, "properties": {"area_km2": 0.0617, "area_ha": 6.17}}, {"type": "Feature", "geometry": {"type": "Polygon", "coordinates": [[[77.38625, 28.729], [77.38625, 28.727249999999998], [77.38650000000001, 28.727249999999998], [77.38650000000001, 28.726499999999998], [77.38675, 28.726499999999998], [77.38675, 28.725749999999998], [77.387, 28.725749999999998], [77.387, 28.725499999999997], [77.3875, 28.725499999999997], [77.3875, 28.724999999999998], [77.38825, 28.724999999999998], [77.38825, 28.726], [77.38775000000001, 28.726], [77.38775000000001, 28.728499999999997], [77.3875, 28.728499999999997], [77.3875, 28.729], [77.38625, 28.729]]]}, "properties": {"area_km2": 0.0541, "area_ha": 5.41}}, {"type": "Feature", "geometry": {"type": "Polygon", "coordinates": [[[77.31450000000001, 28.5475], [77.31450000000001, 28.546249999999997], [77.31400000000001, 28.546249999999997], [77.31400000000001, 28.546], [77.31375000000001, 28.546], [77.31375000000001, 28.545499999999997], [77.3135, 28.545499999999997], [77.3135, 28.5445], [77.31475, 28.5445], [77.31475, 28.544749999999997], [77.31525, 28.544749999999997], [77.31525, 28.54525], [77.316, 28.54525], [77.316, 28.546], [77.31575000000001, 28.546], [77.31575000000001, 28.5475], [77.31450000000001, 28.5475]]]}, "properties": {"area_km2": 0.0536, "area_ha": 5.36}}, {"type": "Feature", "geometry": {"type": "Polygon", "coordinates": [[[77.38850000000001, 28.715999999999998], [77.38850000000001, 28.7155], [77.388, 28.7155], [77.388, 28.715249999999997], [77.3875, 28.715249999999997], [77.3875, 28.71475], [77.38650000000001, 28.71475], [77.38650000000001, 28.714499999999997], [77.38625, 28.714499999999997], [77.38625, 28.714], [77.38600000000001, 28.714], [77.38600000000001, 28.712999999999997], [77.38675, 28.712999999999997], [77.38675, 28.71325], [77.387, 28.71325], [77.387, 28.713749999999997], [77.3875, 28.713749999999997], [77.3875, 28.714], [77.388, 28.714], [77.388, 28.714499999999997], [77.38825, 28.714499999999997], [77.38825, 28.71475], [77.38950000000001, 28.71475], [77.38950000000001, 28.715999999999998], [77.38850000000001, 28.715999999999998]]]}, "properties": {"area_km2": 0.046, "area_ha": 4.6}}, {"type": "Feature", "geometry": {"type": "Polygon", "coordinates": [[[77.38425000000001, 28.7395], [77.38425000000001, 28.73925], [77.38300000000001, 28.73925], [77.38300000000001, 28.738999999999997], [77.38275, 28.738999999999997], [77.38275, 28.738], [77.38350000000001, 28.738], [77.38350000000001, 28.73775], [77.38425000000001, 28.73775], [77.38425000000001, 28.737499999999997], [77.38550000000001, 28.737499999999997], [77.38550000000001, 28.738249999999997], [77.385, 28.738249999999997], [77.385, 28.7395], [77.38425000000001, 28.7395]]]}, "properties": {"area_km2": 0.042, "area_ha": 4.2}}, {"type": "Feature", "geometry": {"type": "Polygon", "coordinates": [[[77.384, 28.438499999999998], [77.384, 28.437749999999998], [77.38425000000001, 28.437749999999998], [77.38425000000001, 28.436999999999998], [77.38675, 28.436999999999998], [77.38675, 28.43825], [77.38550000000001, 28.43825], [77.38550000000001, 28.438499999999998], [77.384, 28.438499999999998]]]}, "properties": {"area_km2": 0.0394, "area_ha": 3.94}}, {"type": "Feature", "geometry": {"type": "Polygon", "coordinates": [[[77.311, 28.54875], [77.311, 28.548499999999997], [77.30975000000001, 28.548499999999997], [77.30975000000001, 28.548], [77.30875, 28.548], [77.30875, 28.54725], [77.31, 28.54725], [77.31, 28.5475], [77.31125, 28.5475], [77.31125, 28.54725], [77.31200000000001, 28.54725], [77.31200000000001, 28.54875], [77.311, 28.54875]]]}, "properties": {"area_km2": 0.038, "area_ha": 3.8}}, {"type": "Feature", "geometry": {"type": "Polygon", "coordinates": [[[77.30025, 28.55925], [77.30025, 28.55775], [77.30250000000001, 28.55775], [77.30250000000001, 28.558999999999997], [77.30225, 28.558999999999997], [77.30225, 28.55925], [77.30025, 28.55925]]]}, "properties": {"area_km2": 0.0359, "area_ha": 3.59}}, {"type": "Feature", "geometry": {"type": "Polygon", "coordinates": [[[77.36575, 28.47825], [77.36575, 28.4775], [77.36625000000001, 28.4775], [77.36625000000001, 28.476999999999997], [77.3665, 28.476999999999997], [77.3665, 28.47675], [77.367, 28.47675], [77.367, 28.476499999999998], [77.36725000000001, 28.476499999999998], [77.36725000000001, 28.476249999999997], [77.36800000000001, 28.476249999999997], [77.36800000000001, 28.475499999999997], [77.36875, 28.475499999999997], [77.36875, 28.476499999999998], [77.36800000000001, 28.476499999999998], [77.36800000000001, 28.476999999999997], [77.36775, 28.476999999999997], [77.36775, 28.477249999999998], [77.36725000000001, 28.477249999999998], [77.36725000000001, 28.477999999999998], [77.367, 28.477999999999998], [77.367, 28.47825], [77.36575, 28.47825]]]}, "properties": {"area_km2": 0.0353, "area_ha": 3.53}}, {"type": "Feature", "geometry": {"type": "Polygon", "coordinates": [[[77.37275000000001, 28.448749999999997], [77.37275000000001, 28.447999999999997], [77.3725, 28.447999999999997], [77.3725, 28.446749999999998], [77.37400000000001, 28.446749999999998], [77.37400000000001, 28.447], [77.37450000000001, 28.447], [77.37450000000001, 28.44775], [77.37425, 28.44775], [77.37425, 28.447999999999997], [77.37400000000001, 28.447999999999997], [77.37400000000001, 28.448249999999998], [77.37375, 28.448249999999998], [77.37375, 28.4485], [77.3735, 28.4485], [77.3735, 28.448749999999997], [77.37275000000001, 28.448749999999997]]]}, "properties": {"area_km2": 0.0332, "area_ha": 3.32}}, {"type": "Feature", "geometry": {"type": "Polygon", "coordinates": [[[77.37750000000001, 28.448749999999997], [77.37750000000001, 28.448249999999998], [77.37725, 28.448249999999998], [77.37725, 28.447249999999997], [77.37875000000001, 28.447249999999997], [77.37875000000001, 28.44775], [77.379, 28.44775], [77.379, 28.447999999999997], [77.37950000000001, 28.447999999999997], [77.37950000000001, 28.448749999999997], [77.37750000000001, 28.448749999999997]]]}, "properties": {"area_km2": 0.0299, "area_ha": 2.99}}, {"type": "Feature", "geometry": {"type": "Polygon", "coordinates": [[[77.33225, 28.49775], [77.33225, 28.497249999999998], [77.33200000000001, 28.497249999999998], [77.33200000000001, 28.497], [77.33175, 28.497], [77.33175, 28.496499999999997], [77.3315, 28.496499999999997], [77.3315, 28.495749999999997], [77.33300000000001, 28.495749999999997], [77.33300000000001, 28.49775], [77.33225, 28.49775]]]}, "properties": {"area_km2": 0.0258, "area_ha": 2.58}}, {"type": "Feature", "geometry": {"type": "Polygon", "coordinates": [[[77.3215, 28.53925], [77.3215, 28.5385], [77.32175000000001, 28.5385], [77.32175000000001, 28.538249999999998], [77.322, 28.538249999999998], [77.322, 28.537999999999997], [77.32350000000001, 28.537999999999997], [77.32350000000001, 28.53925], [77.3215, 28.53925]]]}, "properties": {"area_km2": 0.0251, "area_ha": 2.51}}, {"type": "Feature", "geometry": {"type": "Polygon", "coordinates": [[[77.37700000000001, 28.4395], [77.37700000000001, 28.43875], [77.37725, 28.43875], [77.37725, 28.4375], [77.3785, 28.4375], [77.3785, 28.43825], [77.378, 28.43825], [77.378, 28.4395], [77.37700000000001, 28.4395]]]}, "properties": {"area_km2": 0.0224, "area_ha": 2.24}}, {"type": "Feature", "geometry": {"type": "Polygon", "coordinates": [[[77.37750000000001, 28.45675], [77.37750000000001, 28.45575], [77.3785, 28.45575], [77.3785, 28.455499999999997], [77.37925000000001, 28.455499999999997], [77.37925000000001, 28.4565], [77.379, 28.4565], [77.379, 28.45675], [77.37750000000001, 28.45675]]]}, "properties": {"area_km2": 0.0204, "area_ha": 2.04}}, {"type": "Feature", "geometry": {"type": "Polygon", "coordinates": [[[77.32375, 28.537999999999997], [77.32375, 28.536749999999998], [77.32400000000001, 28.536749999999998], [77.32400000000001, 28.535999999999998], [77.32475000000001, 28.535999999999998], [77.32475000000001, 28.537999999999997], [77.32375, 28.537999999999997]]]}, "properties": {"area_km2": 0.0197, "area_ha": 1.97}}, {"type": "Feature", "geometry": {"type": "Polygon", "coordinates": [[[77.3735, 28.704749999999997], [77.3735, 28.70375], [77.37525000000001, 28.70375], [77.37525000000001, 28.704749999999997], [77.3735, 28.704749999999997]]]}, "properties": {"area_km2": 0.019, "area_ha": 1.9}}, {"type": "Feature", "geometry": {"type": "Polygon", "coordinates": [[[77.30425000000001, 28.57275], [77.30425000000001, 28.572], [77.304, 28.572], [77.304, 28.57125], [77.30475000000001, 28.57125], [77.30475000000001, 28.571499999999997], [77.30525, 28.571499999999997], [77.30525, 28.571749999999998], [77.30550000000001, 28.571749999999998], [77.30550000000001, 28.572499999999998], [77.30525, 28.572499999999998], [77.30525, 28.57275], [77.30425000000001, 28.57275]]]}, "properties": {"area_km2": 0.019, "area_ha": 1.9}}, {"type": "Feature", "geometry": {"type": "Polygon", "coordinates": [[[77.35425000000001, 28.448749999999997], [77.35425000000001, 28.447499999999998], [77.355, 28.447499999999998], [77.355, 28.44775], [77.35575, 28.44775], [77.35575, 28.448749999999997], [77.35425000000001, 28.448749999999997]]]}, "properties": {"area_km2": 0.0183, "area_ha": 1.83}}, {"type": "Feature", "geometry": {"type": "Polygon", "coordinates": [[[77.32775000000001, 28.534499999999998], [77.32775000000001, 28.53325], [77.32925, 28.53325], [77.32925, 28.534], [77.32900000000001, 28.534], [77.32900000000001, 28.53425], [77.3285, 28.53425], [77.3285, 28.534499999999998], [77.32775000000001, 28.534499999999998]]]}, "properties": {"area_km2": 0.0176, "area_ha": 1.76}}, {"type": "Feature", "geometry": {"type": "Polygon", "coordinates": [[[77.36275, 28.480999999999998], [77.36275, 28.479999999999997], [77.36375000000001, 28.479999999999997], [77.36375000000001, 28.479499999999998], [77.3645, 28.479499999999998], [77.3645, 28.480249999999998], [77.36375000000001, 28.480249999999998], [77.36375000000001, 28.480749999999997], [77.3635, 28.480749999999997], [77.3635, 28.480999999999998], [77.36275, 28.480999999999998]]]}, "properties": {"area_km2": 0.0163, "area_ha": 1.63}}, {"type": "Feature", "geometry": {"type": "Polygon", "coordinates": [[[77.36675000000001, 28.452749999999998], [77.36675000000001, 28.451749999999997], [77.36825, 28.451749999999997], [77.36825, 28.452749999999998], [77.36675000000001, 28.452749999999998]]]}, "properties": {"area_km2": 0.0163, "area_ha": 1.63}}, {"type": "Feature", "geometry": {"type": "Polygon", "coordinates": [[[77.29575000000001, 28.570999999999998], [77.29575000000001, 28.570249999999998], [77.296, 28.570249999999998], [77.296, 28.569999999999997], [77.29725, 28.569999999999997], [77.29725, 28.570999999999998], [77.29575000000001, 28.570999999999998]]]}, "properties": {"area_km2": 0.0156, "area_ha": 1.56}}, {"type": "Feature", "geometry": {"type": "Polygon", "coordinates": [[[77.30225, 28.556749999999997], [77.30225, 28.5565], [77.302, 28.5565], [77.302, 28.5555], [77.30325, 28.5555], [77.30325, 28.5565], [77.30300000000001, 28.5565], [77.30300000000001, 28.556749999999997], [77.30225, 28.556749999999997]]]}, "properties": {"area_km2": 0.0156, "area_ha": 1.56}}, {"type": "Feature", "geometry": {"type": "Polygon", "coordinates": [[[77.38250000000001, 28.537499999999998], [77.38250000000001, 28.536499999999997], [77.384, 28.536499999999997], [77.384, 28.537249999999997], [77.38375, 28.537249999999997], [77.38375, 28.537499999999998], [77.38250000000001, 28.537499999999998]]]}, "properties": {"area_km2": 0.0156, "area_ha": 1.56}}, {"type": "Feature", "geometry": {"type": "Polygon", "coordinates": [[[77.308, 28.5555], [77.308, 28.55475], [77.30850000000001, 28.55475], [77.30850000000001, 28.554499999999997], [77.30875, 28.554499999999997], [77.30875, 28.55425], [77.3095, 28.55425], [77.3095, 28.555249999999997], [77.30875, 28.555249999999997], [77.30875, 28.5555], [77.308, 28.5555]]]}, "properties": {"area_km2": 0.0149, "area_ha": 1.49}}, {"type": "Feature", "geometry": {"type": "Polygon", "coordinates": [[[77.38575, 28.45525], [77.38575, 28.455], [77.38525, 28.455], [77.38525, 28.45425], [77.38650000000001, 28.45425], [77.38650000000001, 28.4545], [77.38675, 28.4545], [77.38675, 28.45525], [77.38575, 28.45525]]]}, "properties": {"area_km2": 0.0142, "area_ha": 1.42}}, {"type": "Feature", "geometry": {"type": "Polygon", "coordinates": [[[77.31150000000001, 28.55025], [77.31150000000001, 28.549249999999997], [77.31275000000001, 28.549249999999997], [77.31275000000001, 28.549999999999997], [77.3125, 28.549999999999997], [77.3125, 28.55025], [77.31150000000001, 28.55025]]]}, "properties": {"area_km2": 0.0129, "area_ha": 1.29}}, {"type": "Feature", "geometry": {"type": "Polygon", "coordinates": [[[77.36675000000001, 28.44775], [77.36675000000001, 28.446749999999998], [77.3675, 28.446749999999998], [77.3675, 28.447], [77.36800000000001, 28.447], [77.36800000000001, 28.44775], [77.36675000000001, 28.44775]]]}, "properties": {"area_km2": 0.0122, "area_ha": 1.22}}, {"type": "Feature", "geometry": {"type": "Polygon", "coordinates": [[[77.31125, 28.552], [77.31125, 28.550749999999997], [77.31200000000001, 28.550749999999997], [77.31200000000001, 28.552], [77.31125, 28.552]]]}, "properties": {"area_km2": 0.0102, "area_ha": 1.02}}, {"type": "Feature", "geometry": {"type": "Polygon", "coordinates": [[[77.37450000000001, 28.54675], [77.37450000000001, 28.545499999999997], [77.37525000000001, 28.545499999999997], [77.37525000000001, 28.54675], [77.37450000000001, 28.54675]]]}, "properties": {"area_km2": 0.0102, "area_ha": 1.02}}, {"type": "Feature", "geometry": {"type": "Polygon", "coordinates": [[[77.35650000000001, 28.712249999999997], [77.35650000000001, 28.71125], [77.35725000000001, 28.71125], [77.35725000000001, 28.712249999999997], [77.35650000000001, 28.712249999999997]]]}, "properties": {"area_km2": 0.0081, "area_ha": 0.81}}, {"type": "Feature", "geometry": {"type": "Polygon", "coordinates": [[[77.36875, 28.70525], [77.36875, 28.70425], [77.3695, 28.70425], [77.3695, 28.70525], [77.36875, 28.70525]]]}, "properties": {"area_km2": 0.0081, "area_ha": 0.81}}, {"type": "Feature", "geometry": {"type": "Polygon", "coordinates": [[[77.32575, 28.53625], [77.32575, 28.5355], [77.32675, 28.5355], [77.32675, 28.53625], [77.32575, 28.53625]]]}, "properties": {"area_km2": 0.0081, "area_ha": 0.81}}, {"type": "Feature", "geometry": {"type": "Polygon", "coordinates": [[[77.30875, 28.5295], [77.30875, 28.52875], [77.30975000000001, 28.52875], [77.30975000000001, 28.5295], [77.30875, 28.5295]]]}, "properties": {"area_km2": 0.0081, "area_ha": 0.81}}, {"type": "Feature", "geometry": {"type": "Polygon", "coordinates": [[[77.31625000000001, 28.5215], [77.31625000000001, 28.52075], [77.31725, 28.52075], [77.31725, 28.5215], [77.31625000000001, 28.5215]]]}, "properties": {"area_km2": 0.0081, "area_ha": 0.81}}, {"type": "Feature", "geometry": {"type": "Polygon", "coordinates": [[[77.313, 28.519499999999997], [77.313, 28.518749999999997], [77.31400000000001, 28.518749999999997], [77.31400000000001, 28.519499999999997], [77.313, 28.519499999999997]]]}, "properties": {"area_km2": 0.0081, "area_ha": 0.81}}, {"type": "Feature", "geometry": {"type": "Polygon", "coordinates": [[[77.3735, 28.73925], [77.3735, 28.7385], [77.37425, 28.7385], [77.37425, 28.73925], [77.3735, 28.73925]]]}, "properties": {"area_km2": 0.0061, "area_ha": 0.61}}, {"type": "Feature", "geometry": {"type": "Polygon", "coordinates": [[[77.37525000000001, 28.651], [77.37525000000001, 28.65025], [77.376, 28.65025], [77.376, 28.651], [77.37525000000001, 28.651]]]}, "properties": {"area_km2": 0.0061, "area_ha": 0.61}}, {"type": "Feature", "geometry": {"type": "Polygon", "coordinates": [[[77.292, 28.576999999999998], [77.292, 28.576249999999998], [77.29275000000001, 28.576249999999998], [77.29275000000001, 28.576999999999998], [77.292, 28.576999999999998]]]}, "properties": {"area_km2": 0.0061, "area_ha": 0.61}}, {"type": "Feature", "geometry": {"type": "Polygon", "coordinates": [[[77.313, 28.555], [77.313, 28.55425], [77.31375000000001, 28.55425], [77.31375000000001, 28.555], [77.313, 28.555]]]}, "properties": {"area_km2": 0.0061, "area_ha": 0.61}}, {"type": "Feature", "geometry": {"type": "Polygon", "coordinates": [[[77.34825000000001, 28.509249999999998], [77.34825000000001, 28.508499999999998], [77.349, 28.508499999999998], [77.349, 28.509249999999998], [77.34825000000001, 28.509249999999998]]]}, "properties": {"area_km2": 0.0061, "area_ha": 0.61}}, {"type": "Feature", "geometry": {"type": "Polygon", "coordinates": [[[77.36075000000001, 28.43525], [77.36075000000001, 28.4345], [77.3615, 28.4345], [77.3615, 28.43525], [77.36075000000001, 28.43525]]]}, "properties": {"area_km2": 0.0061, "area_ha": 0.61}}]}